Event Number,Call Received,Complaint Number,Shift,Tencode,Tencode Description,Tencode Suffix,Tencode Suffix Description,Disposition Code,Disposition Description,Block,Street Name,Unit Dispatched,Sector,Zone,Reporting Area (RPA),Latitude,Longitude,Mapped Location
PD201800001046,01/01/2018 09:22:00 AM,20180000899,A,88,Investigate 911 Hang-Up Call,P,PROGRESS,13,FALSE CALL,800,MURFREESBORO PKE ,310A,S,15,8801,36.134,-86.724,"(36.134, -86.724)"
PD201800002954,01/01/2018 11:37:00 PM,20180002546,,88,Investigate 911 Hang-Up Call,P,PROGRESS,13,FALSE CALL,4500,POST RD ,125C,W,21,5017,36.128,-86.852,"(36.128, -86.852)"
PD201800003049,01/02/2018 12:11:00 AM,20180002858,C,88,Investigate 911 Hang-Up Call,P,PROGRESS,13,FALSE CALL,200,WILSONIA AV ,123C,W,21,5001,36.126,-86.862,"(36.126, -86.862)"
PD201800005874,01/02/2018 05:40:00 PM,20180005204,B,88,Investigate 911 Hang-Up Call,PW,REQUEST FOR PUBLIC WORKS,13,FALSE CALL,1800,EASTSIDE AV ,227B,E,13,1039,36.168,-86.738,"(36.168, -86.738)"
PD201800007725,01/03/2018 05:12:00 AM,20180007078,C,88,Investigate 911 Hang-Up Call,PW,REQUEST FOR PUBLIC WORKS,13,FALSE CALL,1400,HILLMEADE DR ,121A,W,21,4903,36.086,-86.902,"(36.086, -86.902)"
PD201800008785,01/03/2018 11:31:00 AM,20180007842,A,88,Investigate 911 Hang-Up Call,P,PROGRESS,13,FALSE CALL,2200,CRESTMOOR RD ,117A,W,17,6109,36.109,-86.814,"(36.109, -86.814)"
PD201800009002,01/03/2018 12:41:00 PM,20180008088,A,88,Investigate 911 Hang-Up Call,P,PROGRESS,13,FALSE CALL,1000,HAWKINS ST ,823A,MT,21,6801,36.148,-86.783,"(36.148, -86.783)"
PD201800012912,01/04/2018 11:45:00 AM,20180011547,A,88,Investigate 911 Hang-Up Call,PW,REQUEST FOR PUBLIC WORKS,13,FALSE CALL,400,WALTON LN ,2S42,E,25,1899,36.232,-86.75,"(36.232, -86.75)"
PD201800013271,01/04/2018 01:58:00 PM,20180011906,A,88,Investigate 911 Hang-Up Call,P,PROGRESS,13,FALSE CALL,500,MAINSTREAM DR ,611A,N,11,4443,36.2,-86.808,"(36.2, -86.808)"
PD201800015326,01/05/2018 12:53:00 AM,20180013699,C,88,Investigate 911 Hang-Up Call,P,PROGRESS,13,FALSE CALL,3900,DRAKES BRANCH RD ,627C,N,25,3125,36.209,-86.857,"(36.209, -86.857)"
PD201800016584,01/05/2018 09:22:00 AM,20180014880,A,88,Investigate 911 Hang-Up Call,PW,REQUEST FOR PUBLIC WORKS,13,FALSE CALL,200,DINWIDDIE DR ,727A,M,27,1719,36.284,-86.704,"(36.284, -86.704)"
PD201800016628,01/05/2018 09:35:00 AM,20180014922,A,88,Investigate 911 Hang-Up Call,P,PROGRESS,13,FALSE CALL,5200,DAKOTA AV ,113A,W,13,5123,36.148,-86.85,"(36.148, -86.85)"
PD201800017166,01/05/2018 12:38:00 PM,20180015413,A,88,Investigate 911 Hang-Up Call,P,PROGRESS,13,FALSE CALL,700,DREXEL ST ,4B41,C,23,4023,36.152,-86.779,"(36.152, -86.779)"
PD201800018303,01/05/2018 06:42:00 PM,20180016394,B,88,Investigate 911 Hang-Up Call,P,PROGRESS,13,FALSE CALL,800,CLARK PL ,421B,C,23,4041,36.155,-86.781,"(36.155, -86.781)"
PD201800018329,01/05/2018 06:49:00 PM,20180016373,B,88,Investigate 911 Hang-Up Call,PW,REQUEST FOR PUBLIC WORKS,13,FALSE CALL,2800,CLIFTON AV ,615B,N,15,5343,36.158,-86.819,"(36.158, -86.819)"
PD201800018468,01/05/2018 07:30:00 PM,20180016553,B,88,Investigate 911 Hang-Up Call,PW,REQUEST FOR PUBLIC WORKS,13,FALSE CALL,2400,DALEBROOK CT ,211B,E,15,1353,36.183,-86.721,"(36.183, -86.721)"
PD201800019206,01/05/2018 11:16:00 PM,20180017093,,88,Investigate 911 Hang-Up Call,PW,REQUEST FOR PUBLIC WORKS,13,FALSE CALL,200,LINDSAY MEADOW CT ,614C,N,21,3023,36.228,-86.794,"(36.228, -86.794)"
PD201800020571,01/06/2018 10:42:00 AM,20180018376,A,88,Investigate 911 Hang-Up Call,PW,REQUEST FOR PUBLIC WORKS,13,FALSE CALL,300,WIMPOLE DR ,2925,S,15,8803,36.12,-86.724,"(36.12, -86.724)"
PD201800020650,01/06/2018 11:23:00 AM,20180018448,A,88,Investigate 911 Hang-Up Call,PW,REQUEST FOR PUBLIC WORKS,13,FALSE CALL,900,PATRICIA DR ,533A,H,31,8827,36.136,-86.704,"(36.136, -86.704)"
PD201800021874,01/06/2018 08:08:00 PM,20180019432,B,88,Investigate 911 Hang-Up Call,PW,REQUEST FOR PUBLIC WORKS,13,FALSE CALL,500,OPRY MILLS DR ,821C9,H,15,9209,36.206,-86.695,"(36.206, -86.695)"
PD201800022219,01/06/2018 10:25:00 PM,20180019759,B,88,Investigate 911 Hang-Up Call,P,PROGRESS,13,FALSE CALL,300,4TH AV S ,425C,C,25,4053,36.157,-86.775,"(36.157, -86.775)"
PD201800026587,01/08/2018 10:50:00 AM,20180023689,A,88,Investigate 911 Hang-Up Call,P,PROGRESS,13,FALSE CALL,4100,BUENAVIEW CT ,623A,N,23,3107,36.226,-86.83,"(36.226, -86.83)"
PD201800026992,01/08/2018 01:48:00 PM,20180024024,A,88,Investigate 911 Hang-Up Call,P,PROGRESS,13,FALSE CALL,1200,2ND AV S ,3S51,S,11,8167,36.145,-86.764,"(36.145, -86.764)"
PD201800027283,01/08/2018 03:39:00 PM,20180024275,B,88,Investigate 911 Hang-Up Call,PW,REQUEST FOR PUBLIC WORKS,13,FALSE CALL,1800,WEST END AV ,815B,MT,11,5523,36.153,-86.797,"(36.153, -86.797)"
PD201800030347,01/09/2018 11:48:00 AM,20180027027,A,88,Investigate 911 Hang-Up Call,P,PROGRESS,13,FALSE CALL,500,UNION ST ,4B45,C,11,4141,36.164,-86.781,"(36.164, -86.781)"
PD201800035011,01/10/2018 02:20:00 PM,0,A,88,Investigate 911 Hang-Up Call,P,PROGRESS,13,FALSE CALL,200,ORIEL AV ,,S,13,8349,36.122,-86.743,"(36.122, -86.743)"
PD201800038763,01/11/2018 10:48:00 AM,20180034870,A,88,Investigate 911 Hang-Up Call,P,PROGRESS,13,FALSE CALL,6800,NOLENSVILLE PKE ,833A,MT,35,8651,35.996,-86.69,"(35.996, -86.69)"
PD201800040423,01/11/2018 07:24:00 PM,20180036287,B,88,Investigate 911 Hang-Up Call,P,PROGRESS,13,FALSE CALL,100,2ND AV N ,421B,C,15,4133,36.164,-86.777,"(36.164, -86.777)"
PD201800040727,01/11/2018 08:52:00 PM,20180037031,B,88,Investigate 911 Hang-Up Call,PW,REQUEST FOR PUBLIC WORKS,13,FALSE CALL,3900,HILLSHIRE DR ,335C,S,35,8997,36.081,-86.601,"(36.081, -86.601)"
PD201800042279,01/12/2018 07:11:00 AM,20180037881,A,88,Investigate 911 Hang-Up Call,P,PROGRESS,13,FALSE CALL,8100,CHARLOTTE PKE ,123A,W,23,4709,36.097,-86.97,"(36.097, -86.97)"
PD201800042698,01/12/2018 09:43:00 AM,20180038284,A,88,Investigate 911 Hang-Up Call,P,PROGRESS,13,FALSE CALL,1400,51ST AV N ,1S47,W,15,4609,36.163,-86.849,"(36.163, -86.849)"
PD201800046392,01/13/2018 04:09:00 PM,20180041468,B,88,Investigate 911 Hang-Up Call,P,PROGRESS,13,FALSE CALL,6400,HENRY FORD DR ,113B,W,15,4673,36.156,-86.883,"(36.156, -86.883)"
PD201800046737,01/13/2018 06:47:00 PM,20180042206,B,88,Investigate 911 Hang-Up Call,P,PROGRESS,13,FALSE CALL,2900,BABY RUTH LN ,333B,S,33,8865,36.046,-86.638,"(36.046, -86.638)"
PD201800047110,01/13/2018 09:21:00 PM,20180042123,B,88,Investigate 911 Hang-Up Call,P,PROGRESS,13,FALSE CALL,100,HERITAGE TRACE DR ,721B,M,23,1765,36.267,-86.722,"(36.267, -86.722)"
PD201800048649,01/14/2018 10:46:00 AM,20180043580,A,88,Investigate 911 Hang-Up Call,P,PROGRESS,13,FALSE CALL,10600,CONCORD RD ,835A,MT,35,8651,35.997,-86.692,"(35.997, -86.692)"
PD201800052903,01/15/2018 05:00:00 PM,20180047388,B,88,Investigate 911 Hang-Up Call,PW,REQUEST FOR PUBLIC WORKS,13,FALSE CALL,2400,BUENA VISTA PKE ,811A9,N,23,3101,36.198,-86.824,"(36.198, -86.824)"
PD201800053599,01/15/2018 09:15:00 PM,20180047963,B,88,Investigate 911 Hang-Up Call,P,PROGRESS,13,FALSE CALL,500,HOSPITAL DR ,714B,M,13,1633,36.255,-86.683,"(36.255, -86.683)"
PD201800056290,01/16/2018 02:57:00 PM,20180050542,A,88,Investigate 911 Hang-Up Call,PW,REQUEST FOR PUBLIC WORKS,13,FALSE CALL,800,MURFREESBORO PKE ,532B,H,31,8815,36.136,-86.721,"(36.136, -86.721)"
PD201800056585,01/16/2018 04:34:00 PM,20180050670,B,88,Investigate 911 Hang-Up Call,P,PROGRESS,13,FALSE CALL,300,4TH AV N ,415B,C,11,4159,36.166,-86.78,"(36.166, -86.78)"
PD201800056998,01/16/2018 06:50:00 PM,20180051061,B,88,Investigate 911 Hang-Up Call,P,PROGRESS,13,FALSE CALL,800,NETHERLANDS DR ,521B,H,23,9509,36.198,-86.602,"(36.198, -86.602)"
PD201800059437,01/17/2018 10:31:00 AM,20180053351,A,88,Investigate 911 Hang-Up Call,P,PROGRESS,13,FALSE CALL,2100,W SUMMITT AV ,622A,N,23,3155,36.197,-86.831,"(36.197, -86.831)"
PD201800059444,01/17/2018 10:32:00 AM,20180053365,A,88,Investigate 911 Hang-Up Call,P,PROGRESS,13,FALSE CALL,900,5TH AV N ,PARKS,C,13,4217,36.171,-86.786,"(36.171, -86.786)"
PD201800059518,01/17/2018 10:52:00 AM,20180053426,A,88,Investigate 911 Hang-Up Call,PW,REQUEST FOR PUBLIC WORKS,13,FALSE CALL,1300,CLINTON ST ,611A,N,15,5423,36.164,-86.796,"(36.164, -86.796)"
PD201800060048,01/17/2018 01:36:00 PM,20180053891,A,88,Investigate 911 Hang-Up Call,PW,REQUEST FOR PUBLIC WORKS,13,FALSE CALL,1200,N 6TH ST ,221A,E,21,1905,36.193,-86.76,"(36.193, -86.76)"
PD201800060311,01/17/2018 03:08:00 PM,20180054121,B,88,Investigate 911 Hang-Up Call,P,PROGRESS,13,FALSE CALL,600,PEBBLE CREEK CIR ,325B,S,23,8897,36.074,-86.665,"(36.074, -86.665)"
PD201800060638,01/17/2018 04:24:00 PM,20180054510,B,88,Investigate 911 Hang-Up Call,P,PROGRESS,13,FALSE CALL,600,12TH AV S ,422B,C,23,4019,36.152,-86.784,"(36.152, -86.784)"
PD201800064149,01/18/2018 01:02:00 PM,20180057701,A,88,Investigate 911 Hang-Up Call,PW,REQUEST FOR PUBLIC WORKS,13,FALSE CALL,300,MELPAR DR ,323A,S,21,8711,36.065,-86.711,"(36.065, -86.711)"
PD201800065280,01/18/2018 06:28:00 PM,20180058631,B,88,Investigate 911 Hang-Up Call,P,PROGRESS,13,FALSE CALL,1400,BRICK CHURCH PKE ,621B,N,21,3007,36.204,-86.778,"(36.204, -86.778)"
PD201800065610,01/18/2018 08:00:00 PM,20180058898,B,88,Investigate 911 Hang-Up Call,PW,REQUEST FOR PUBLIC WORKS,13,FALSE CALL,600,S 5TH ST ,212B,E,11,1009,36.166,-86.762,"(36.166, -86.762)"
PD201800068166,01/19/2018 11:22:00 AM,20180061270,A,88,Investigate 911 Hang-Up Call,PW,REQUEST FOR PUBLIC WORKS,13,FALSE CALL,3200,CLAPHAM RD ,323A,S,25,8891,36.076,-86.652,"(36.076, -86.652)"
PD201800068377,01/19/2018 12:30:00 PM,20180061468,A,88,Investigate 911 Hang-Up Call,P,PROGRESS,13,FALSE CALL,200,25TH AV N ,812A,MT,13,5619,36.152,-86.812,"(36.152, -86.812)"
PD201800069136,01/19/2018 04:35:00 PM,20180062154,B,88,Investigate 911 Hang-Up Call,P,PROGRESS,13,FALSE CALL,400,11TH AV S ,423B,C,23,4017,36.152,-86.784,"(36.152, -86.784)"
PD201800072293,01/20/2018 01:46:00 PM,20180064927,A,88,Investigate 911 Hang-Up Call,P,PROGRESS,13,FALSE CALL,2400,NOLENSVILLE PKE ,833A,MT,25,8343,36.12,-86.75,"(36.12, -86.75)"
PD201800072890,01/20/2018 06:20:00 PM,20180065435,B,88,Investigate 911 Hang-Up Call,PW,REQUEST FOR PUBLIC WORKS,13,FALSE CALL,5500,SCRUGGS LN ,627B,N,21,3007,36.205,-86.781,"(36.205, -86.781)"
PD201800073152,01/20/2018 07:52:00 PM,20180065699,B,88,Investigate 911 Hang-Up Call,P,PROGRESS,13,FALSE CALL,3600,LIPTON PL ,341C,S,35,8925,36.064,-86.611,"(36.064, -86.611)"
PD201800073252,01/20/2018 08:23:00 PM,20180066065,B,88,Investigate 911 Hang-Up Call,PW,REQUEST FOR PUBLIC WORKS,13,FALSE CALL,2200,SUMMITT AV ,623C,N,23,3115,36.199,-86.83,"(36.199, -86.83)"
PD201800074724,01/21/2018 08:50:00 AM,20180066950,A,88,Investigate 911 Hang-Up Call,PW,REQUEST FOR PUBLIC WORKS,13,FALSE CALL,1300,S GRAYCROFT AV ,727A,M,23,1799,36.246,-86.735,"(36.246, -86.735)"
PD201800077820,01/22/2018 09:55:00 AM,20180069595,A,88,Investigate 911 Hang-Up Call,P,PROGRESS,13,FALSE CALL,1600,17TH AV S ,815A,MT,15,6621,36.137,-86.796,"(36.137, -86.796)"
PD201800077877,01/22/2018 10:17:00 AM,20180070000,A,88,Investigate 911 Hang-Up Call,PW,REQUEST FOR PUBLIC WORKS,13,FALSE CALL,2100,RIVERSIDE DR ,2F14,E,17,1437,36.203,-86.723,"(36.203, -86.723)"
PD201800077941,01/22/2018 10:37:00 AM,20180069721,A,88,Investigate 911 Hang-Up Call,P,PROGRESS,13,FALSE CALL,300,DEADERICK ST ,724B9,C,15,4161,36.166,-86.78,"(36.166, -86.78)"
PD201800079016,01/22/2018 04:29:00 PM,20180070653,B,88,Investigate 911 Hang-Up Call,PW,REQUEST FOR PUBLIC WORKS,13,FALSE CALL,100,JACKSONIAN DR ,524B,H,21,9601,36.206,-86.639,"(36.206, -86.639)"
PD201800082727,01/23/2018 03:13:00 PM,20180073999,B,88,Investigate 911 Hang-Up Call,PW,REQUEST FOR PUBLIC WORKS,13,FALSE CALL,3600,RICHLAND AV ,113B,W,13,5211,36.135,-86.826,"(36.135, -86.826)"
PD201800083488,01/23/2018 06:07:00 PM,20180075048,B,88,Investigate 911 Hang-Up Call,P,PROGRESS,13,FALSE CALL,3000,CHATEAU VALLEY DR ,623B,N,23,3015,36.213,-86.812,"(36.213, -86.812)"
PD201800087949,01/24/2018 07:12:00 PM,20180078721,B,88,Investigate 911 Hang-Up Call,P,PROGRESS,13,FALSE CALL,900,5TH AV N ,STATE,C,13,4217,36.171,-86.786,"(36.171, -86.786)"
PD201800089657,01/25/2018 05:49:00 AM,20180080299,C,88,Investigate 911 Hang-Up Call,PW,REQUEST FOR PUBLIC WORKS,13,FALSE CALL,7000,COLLINSWOOD DR ,125C,W,25,4809,36.051,-86.959,"(36.051, -86.959)"
PD201800090043,01/25/2018 08:30:00 AM,20180080635,A,88,Investigate 911 Hang-Up Call,P,PROGRESS,13,FALSE CALL,7200,OLD HICKORY BLVD ,623A,N,27,3303,36.277,-86.819,"(36.277, -86.819)"
PD201800090149,01/25/2018 09:15:00 AM,20180080782,A,88,Investigate 911 Hang-Up Call,P,PROGRESS,13,FALSE CALL,3800,VULCAN DR ,833A,MT,31,8511,36.092,-86.748,"(36.092, -86.748)"
PD201800090824,01/25/2018 12:54:00 PM,20180081337,A,88,Investigate 911 Hang-Up Call,P,PROGRESS,13,FALSE CALL,7200,OLD HICKORY BLVD ,6S42,N,27,3303,36.277,-86.819,"(36.277, -86.819)"
PD201800092076,01/25/2018 06:31:00 PM,20180082471,B,88,Investigate 911 Hang-Up Call,P,PROGRESS,13,FALSE CALL,2300,BURNS ST ,217B,E,17,1405,36.2,-86.729,"(36.2, -86.729)"
PD201800095196,01/26/2018 01:24:00 PM,20180085386,A,88,Investigate 911 Hang-Up Call,P,PROGRESS,13,FALSE CALL,800,4TH AV S ,425A,C,25,4005,36.152,-86.771,"(36.152, -86.771)"
PD201800095622,01/26/2018 03:32:00 PM,20180085657,B,88,Investigate 911 Hang-Up Call,PW,REQUEST FOR PUBLIC WORKS,13,FALSE CALL,2100,RIVERSIDE DR ,217B,E,17,1437,36.203,-86.723,"(36.203, -86.723)"
PD201800098656,01/27/2018 10:39:00 AM,20180088452,A,88,Investigate 911 Hang-Up Call,PW,REQUEST FOR PUBLIC WORKS,13,FALSE CALL,1000,MORTON MILL RD ,125A,W,25,4811,36.072,-86.957,"(36.072, -86.957)"
PD201800098738,01/27/2018 11:22:00 AM,20180088409,A,88,Investigate 911 Hang-Up Call,PW,REQUEST FOR PUBLIC WORKS,13,FALSE CALL,400,HICKORY TRACE DR ,833A,MT,35,8655,36.047,-86.717,"(36.047, -86.717)"
PD201800098774,01/27/2018 11:27:00 AM,20180088450,A,88,Investigate 911 Hang-Up Call,P,PROGRESS,13,FALSE CALL,3800,GREEN HILLS VILLAGE DR ,115A,W,17,6109,36.108,-86.817,"(36.108, -86.817)"
PD201800100481,01/28/2018 12:15:00 AM,20180089829,C,88,Investigate 911 Hang-Up Call,P,PROGRESS,13,FALSE CALL,200,VAUGHNS GAP RD ,125C,W,21,4909,36.099,-86.894,"(36.099, -86.894)"
PD201800100826,01/28/2018 02:45:00 AM,20180090296,C,88,Investigate 911 Hang-Up Call,P,PROGRESS,13,FALSE CALL,100,CARNAVON PKWY ,125C,W,21,4903,36.091,-86.905,"(36.091, -86.905)"
PD201800102283,01/28/2018 05:43:00 PM,20180091377,B,88,Investigate 911 Hang-Up Call,PW,REQUEST FOR PUBLIC WORKS,13,FALSE CALL,4600,LEBANON PKE ,522B,H,25,9727,36.217,-86.596,"(36.217, -86.596)"
PD201800102623,01/28/2018 08:37:00 PM,20180091637,B,88,Investigate 911 Hang-Up Call,PW,REQUEST FOR PUBLIC WORKS,13,FALSE CALL,600,WHISPERING HILLS DR ,831B,MT,31,8661,36.067,-86.726,"(36.067, -86.726)"
PD201800104441,01/29/2018 11:15:00 AM,20180093295,A,88,Investigate 911 Hang-Up Call,PW,REQUEST FOR PUBLIC WORKS,13,FALSE CALL,5200,EDMONDSON PKE ,832A,MT,35,8657,36.056,-86.739,"(36.056, -86.739)"
PD201800105083,01/29/2018 02:47:00 PM,20180093909,A,88,Investigate 911 Hang-Up Call,P,PROGRESS,13,FALSE CALL,0,MUSIC SQ E ,811B,MT,11,6719,36.15,-86.792,"(36.15, -86.792)"
PD201800106057,01/29/2018 07:05:00 PM,20180094843,B,88,Investigate 911 Hang-Up Call,PW,REQUEST FOR PUBLIC WORKS,13,FALSE CALL,4000,ALICIA LN ,535B,H,35,8929,36.076,-86.612,"(36.076, -86.612)"
PD201800110087,01/30/2018 05:36:00 PM,20180098413,B,88,Investigate 911 Hang-Up Call,PW,REQUEST FOR PUBLIC WORKS,13,FALSE CALL,100,BELLEVUE RD ,123B,W,25,4817,36.064,-86.926,"(36.064, -86.926)"
PD201800113794,01/31/2018 02:30:00 PM,20180101928,A,88,Investigate 911 Hang-Up Call,P,PROGRESS,13,FALSE CALL,400,BNA DR ,531B,H,31,8951,36.139,-86.698,"(36.139, -86.698)"
PD201800118668,02/01/2018 04:25:00 PM,20180106361,B,88,Investigate 911 Hang-Up Call,PW,REQUEST FOR PUBLIC WORKS,13,FALSE CALL,1300,12TH AV S ,820B,MT,11,6631,36.14,-86.788,"(36.14, -86.788)"
PD201800120547,02/02/2018 01:13:00 AM,20180108011,C,88,Investigate 911 Hang-Up Call,P,PROGRESS,13,FALSE CALL,300,4TH AV N ,412C,C,11,4159,36.166,-86.78,"(36.166, -86.78)"
PD201800122262,02/02/2018 11:51:00 AM,20180109823,A,88,Investigate 911 Hang-Up Call,P,PROGRESS,13,FALSE CALL,2700,OLD MATTHEWS RD ,621A,N,21,3047,36.219,-86.793,"(36.219, -86.793)"
PD201800123385,02/02/2018 05:49:00 PM,20180110580,B,88,Investigate 911 Hang-Up Call,P,PROGRESS,13,FALSE CALL,1000,BROADWAY ,413B,C,23,4077,36.157,-86.785,"(36.157, -86.785)"
PD201800126167,02/03/2018 01:25:00 PM,20180113007,A,88,Investigate 911 Hang-Up Call,PW,REQUEST FOR PUBLIC WORKS,13,FALSE CALL,100,KNOLLS PL ,832A,MT,35,8651,36.043,-86.717,"(36.043, -86.717)"
PD201800127593,02/03/2018 10:50:00 PM,20180114206,B,88,Investigate 911 Hang-Up Call,P,PROGRESS,13,FALSE CALL,400,11TH AV S ,421C,C,23,4017,36.152,-86.784,"(36.152, -86.784)"
PD201800128189,02/04/2018 03:33:00 AM,20180114777,C,88,Investigate 911 Hang-Up Call,P,PROGRESS,13,FALSE CALL,1600,17TH AV S ,813C,MT,15,6621,36.137,-86.796,"(36.137, -86.796)"
PD201800129116,02/04/2018 02:08:00 PM,20180115572,A,88,Investigate 911 Hang-Up Call,P,PROGRESS,13,FALSE CALL,1300,14TH AV S ,813A,MT,11,6631,36.14,-86.79,"(36.14, -86.79)"
PD201800131289,02/05/2018 07:41:00 AM,20180117470,A,88,Investigate 911 Hang-Up Call,P,PROGRESS,13,FALSE CALL,1200,8TH AV S ,825A,MT,21,6941,36.14,-86.777,"(36.14, -86.777)"
PD201800132125,02/05/2018 01:25:00 PM,20180118188,A,88,Investigate 911 Hang-Up Call,P,PROGRESS,13,FALSE CALL,200,CUMBERLAND BND ,613A,N,11,4401,36.193,-86.79,"(36.193, -86.79)"
PD201800132194,02/05/2018 01:48:00 PM,20180118233,A,88,Investigate 911 Hang-Up Call,P,PROGRESS,13,FALSE CALL,500,GREAT CIRCLE RD ,613A,N,11,4443,36.199,-86.808,"(36.199, -86.808)"
PD201800134249,02/06/2018 12:42:00 AM,20180120284,C,88,Investigate 911 Hang-Up Call,PW,REQUEST FOR PUBLIC WORKS,13,FALSE CALL,1600,HICKORY HOLLOW TER ,325C,S,25,8861,36.053,-86.651,"(36.053, -86.651)"
PD201800135268,02/06/2018 08:05:00 AM,20180121072,A,88,Investigate 911 Hang-Up Call,P,PROGRESS,13,FALSE CALL,2900,KRAFT DR ,821A,MT,25,8525,36.106,-86.758,"(36.106, -86.758)"
PD201800136097,02/06/2018 12:22:00 PM,20180121879,A,88,Investigate 911 Hang-Up Call,PW,REQUEST FOR PUBLIC WORKS,13,FALSE CALL,4000,HILLSBORO PKE ,825A,MT,25,6405,36.103,-86.816,"(36.103, -86.816)"
PD201800136516,02/06/2018 02:21:00 PM,20180122242,A,88,Investigate 911 Hang-Up Call,P,PROGRESS,13,FALSE CALL,400,BNA DR ,531B,H,31,8951,36.139,-86.698,"(36.139, -86.698)"
PD201800136957,02/06/2018 04:42:00 PM,20180122555,B,88,Investigate 911 Hang-Up Call,P,PROGRESS,13,FALSE CALL,100,DONELSON PKE ,517B,H,17,9401,36.165,-86.664,"(36.165, -86.664)"
PD201800138833,02/07/2018 02:59:00 AM,20180124296,C,88,Investigate 911 Hang-Up Call,P,PROGRESS,13,FALSE CALL,100,BRIGHTON CLOSE ,113C,W,13,6011,36.127,-86.829,"(36.127, -86.829)"
PD201800139665,02/07/2018 08:39:00 AM,20180125048,A,88,Investigate 911 Hang-Up Call,PW,REQUEST FOR PUBLIC WORKS,13,FALSE CALL,800,CARTER ST ,221A,E,21,1903,36.19,-86.756,"(36.19, -86.756)"
PD201800141544,02/07/2018 08:45:00 PM,20180126609,B,88,Investigate 911 Hang-Up Call,P,PROGRESS,13,FALSE CALL,500,MURFREESBORO PKE ,513B,H,13,8217,36.143,-86.744,"(36.143, -86.744)"
PD201800142164,02/08/2018 12:17:00 AM,20180127174,C,88,Investigate 911 Hang-Up Call,P,PROGRESS,13,FALSE CALL,2400,OAKLAND AV ,813C,MT,15,6511,36.127,-86.795,"(36.127, -86.795)"
PD201800143963,02/08/2018 12:46:00 PM,20180128788,A,88,Investigate 911 Hang-Up Call,P,PROGRESS,13,FALSE CALL,200,FRENCH LANDING DR ,615A,N,11,4499,36.193,-86.798,"(36.193, -86.798)"
PD201800144181,02/08/2018 02:12:00 PM,20180128976,A,88,Investigate 911 Hang-Up Call,P,PROGRESS,13,FALSE CALL,5200,LINBAR DR ,332A,S,21,8707,36.078,-86.696,"(36.078, -86.696)"
PD201800144650,02/08/2018 04:44:00 PM,20180129460,B,88,Investigate 911 Hang-Up Call,P,PROGRESS,13,FALSE CALL,1500,LEBANON PKE ,512B,H,13,9019,36.153,-86.721,"(36.153, -86.721)"
PD201800148375,02/09/2018 03:39:00 PM,20180132701,B,88,Investigate 911 Hang-Up Call,P,PROGRESS,13,FALSE CALL,500,MAINSTREAM DR ,621B,N,11,4443,36.2,-86.808,"(36.2, -86.808)"
PD201800150681,02/10/2018 07:18:00 AM,20180134685,A,88,Investigate 911 Hang-Up Call,P,PROGRESS,13,FALSE CALL,3200,HILLSBORO PKE ,115A,W,17,6001,36.12,-86.81,"(36.12, -86.81)"
PD201800150822,02/10/2018 08:43:00 AM,20180134822,A,88,Investigate 911 Hang-Up Call,P,PROGRESS,13,FALSE CALL,1700,MAGNOLIA BLVD ,811A,MT,15,6613,36.136,-86.795,"(36.136, -86.795)"
PD201800151336,02/10/2018 01:38:00 PM,20180135187,A,88,Investigate 911 Hang-Up Call,P,PROGRESS,13,FALSE CALL,1000,16TH AV S ,811A,MT,15,6705,36.145,-86.793,"(36.145, -86.793)"
PD201800151389,02/10/2018 02:14:00 PM,20180135280,A,88,Investigate 911 Hang-Up Call,P,PROGRESS,13,FALSE CALL,200,CARGILE LN ,113B,W,21,4915,36.107,-86.874,"(36.107, -86.874)"
PD201800151474,02/10/2018 03:07:00 PM,20180135286,B,88,Investigate 911 Hang-Up Call,P,PROGRESS,13,FALSE CALL,6600,CURRYWOOD DR ,123B,W,21,4905,36.114,-86.898,"(36.114, -86.898)"
PD201800152494,02/10/2018 11:02:00 PM,20180136209,,88,Investigate 911 Hang-Up Call,P,PROGRESS,13,FALSE CALL,2100,CHARLOTTE AV ,611C,N,15,5339,36.157,-86.807,"(36.157, -86.807)"
PD201800152792,02/11/2018 01:29:00 AM,20180136489,C,88,Investigate 911 Hang-Up Call,P,PROGRESS,13,FALSE CALL,2100,CHARLOTTE AV ,611C,N,15,5339,36.157,-86.807,"(36.157, -86.807)"
PD201800153782,02/11/2018 12:18:00 PM,20180137291,A,88,Investigate 911 Hang-Up Call,P,PROGRESS,13,FALSE CALL,1500,MOUNT MITCHELL CT ,325A,S,23,8853,36.085,-86.659,"(36.085, -86.659)"
PD201800153833,02/11/2018 12:49:00 PM,20180137248,A,88,Investigate 911 Hang-Up Call,P,PROGRESS,13,FALSE CALL,1700,14TH AV N ,614A,N,13,4455,36.178,-86.806,"(36.178, -86.806)"
PD201800157855,02/12/2018 04:56:00 PM,20180140863,B,88,Investigate 911 Hang-Up Call,PW,REQUEST FOR PUBLIC WORKS,13,FALSE CALL,500,NICHOL RD ,117B,W,15,4665,36.154,-86.863,"(36.154, -86.863)"
PD201800158746,02/12/2018 09:44:00 PM,20180141628,B,88,Investigate 911 Hang-Up Call,PW,REQUEST FOR PUBLIC WORKS,13,FALSE CALL,1400,HERMAN ST ,613B,N,15,5419,36.166,-86.799,"(36.166, -86.799)"
PD201800161044,02/13/2018 12:21:00 PM,20180143765,A,88,Investigate 911 Hang-Up Call,P,PROGRESS,13,FALSE CALL,500,UNION ST ,4B45,C,11,4141,36.164,-86.782,"(36.164, -86.782)"
PD201800163904,02/14/2018 03:14:00 AM,20180146310,C,88,Investigate 911 Hang-Up Call,PW,REQUEST FOR PUBLIC WORKS,13,FALSE CALL,3900,SOUTHVIEW DR ,621C,N,25,3149,36.211,-86.844,"(36.211, -86.844)"
PD201800165252,02/14/2018 12:56:00 PM,20180147659,A,88,Investigate 911 Hang-Up Call,P,PROGRESS,13,FALSE CALL,200,FRENCH LANDING DR ,621A,N,11,4499,36.193,-86.798,"(36.193, -86.798)"
PD201800165484,02/14/2018 02:27:00 PM,20180147730,A,88,Investigate 911 Hang-Up Call,P,PROGRESS,13,FALSE CALL,2400,LAKESHORE DR ,525A,H,25,9723,36.25,-86.639,"(36.25, -86.639)"
PD201800165720,02/14/2018 03:43:00 PM,20180147971,B,88,Investigate 911 Hang-Up Call,P,PROGRESS,13,FALSE CALL,200,5TH AV N ,413B,C,11,4139,36.164,-86.781,"(36.164, -86.781)"
PD201800168826,02/15/2018 10:22:00 AM,20180150734,A,88,Investigate 911 Hang-Up Call,PW,REQUEST FOR PUBLIC WORKS,13,FALSE CALL,1800,E BELMONT CIR ,823A,MT,23,6613,36.134,-86.794,"(36.134, -86.794)"
PD201800169471,02/15/2018 01:50:00 PM,20180151245,A,88,Investigate 911 Hang-Up Call,P,PROGRESS,13,FALSE CALL,1800,STRATFORD AV ,2S54,E,17,1407,36.198,-86.719,"(36.198, -86.719)"
PD201800170088,02/15/2018 05:05:00 PM,20180151768,B,88,Investigate 911 Hang-Up Call,PW,REQUEST FOR PUBLIC WORKS,13,FALSE CALL,900,16TH AV N ,622B,N,15,5419,36.166,-86.801,"(36.166, -86.801)"
PD201800170603,02/15/2018 07:14:00 PM,20180152403,B,88,Investigate 911 Hang-Up Call,PW,REQUEST FOR PUBLIC WORKS,13,FALSE CALL,200,LINDA LN ,727B,M,23,1749,36.259,-86.726,"(36.259, -86.726)"
PD201800172532,02/16/2018 07:45:00 AM,20180153915,A,88,Investigate 911 Hang-Up Call,PW,REQUEST FOR PUBLIC WORKS,13,FALSE CALL,4000,GRANNY WHITE PKE ,821A,MT,25,6409,36.105,-86.799,"(36.105, -86.799)"
PD201800176532,02/17/2018 11:30:00 AM,20180157384,A,88,Investigate 911 Hang-Up Call,P,PROGRESS,13,FALSE CALL,2000,WEST END AV ,811A,MT,11,5713,36.15,-86.801,"(36.15, -86.801)"
PD201800176593,02/17/2018 12:10:00 PM,20180157462,A,88,Investigate 911 Hang-Up Call,P,PROGRESS,13,FALSE CALL,1700,MAGNOLIA BLVD ,825A,MT,15,6611,36.136,-86.796,"(36.136, -86.796)"
PD201800182918,02/19/2018 11:27:00 AM,20180162744,A,88,Investigate 911 Hang-Up Call,PW,REQUEST FOR PUBLIC WORKS,13,FALSE CALL,1800,E BELMONT CIR ,823A,MT,23,6613,36.134,-86.794,"(36.134, -86.794)"
PD201800183020,02/19/2018 11:59:00 AM,20180162814,A,88,Investigate 911 Hang-Up Call,P,PROGRESS,13,FALSE CALL,1600,2ND AV N ,415A,C,13,4339,36.186,-86.787,"(36.186, -86.787)"
PD201800185944,02/20/2018 06:59:00 AM,20180165377,C,88,Investigate 911 Hang-Up Call,P,PROGRESS,13,FALSE CALL,4000,ARMORY OAKS DR ,823A,MT,25,8525,36.104,-86.761,"(36.104, -86.761)"
PD201800186167,02/20/2018 08:10:00 AM,20180165721,A,88,Investigate 911 Hang-Up Call,PW,REQUEST FOR PUBLIC WORKS,13,FALSE CALL,4200,DRAKES CT ,621A,N,25,3165,36.216,-86.85,"(36.216, -86.85)"
PD201800186263,02/20/2018 08:37:00 AM,20180165959,A,88,Investigate 911 Hang-Up Call,PW,REQUEST FOR PUBLIC WORKS,13,FALSE CALL,1700,RIVERSIDE DR ,211A,E,17,1405,36.198,-86.724,"(36.198, -86.724)"
PD201800186500,02/20/2018 09:58:00 AM,20180165813,A,88,Investigate 911 Hang-Up Call,P,PROGRESS,13,FALSE CALL,2000,GLEN ECHO RD ,825A,MT,25,6413,36.109,-86.811,"(36.109, -86.811)"
PD201800186658,02/20/2018 10:52:00 AM,20180165997,A,88,Investigate 911 Hang-Up Call,P,PROGRESS,13,FALSE CALL,200,CUMBERLAND BND ,615A,N,11,4401,36.195,-86.79,"(36.195, -86.79)"
PD201800189371,02/21/2018 02:18:00 AM,20180168310,C,88,Investigate 911 Hang-Up Call,P,PROGRESS,13,FALSE CALL,2700,GREER RD ,727C,M,25,2205,36.351,-86.786,"(36.351, -86.786)"
PD201800190472,02/21/2018 09:23:00 AM,20180169331,A,88,Investigate 911 Hang-Up Call,P,PROGRESS,13,FALSE CALL,6600,CURRYWOOD DR ,125A,W,21,4905,36.114,-86.898,"(36.114, -86.898)"
PD201800190868,02/21/2018 12:04:00 PM,20180169694,A,88,Investigate 911 Hang-Up Call,P,PROGRESS,13,FALSE CALL,4200,HARDING PKE ,113A,W,13,5111,36.129,-86.844,"(36.129, -86.844)"
PD201800190918,02/21/2018 12:14:00 PM,20180169803,A,88,Investigate 911 Hang-Up Call,P,PROGRESS,13,FALSE CALL,2500,PARK DR ,515A,H,15,9307,36.17,-86.676,"(36.17, -86.676)"
PD201800190919,02/21/2018 12:15:00 PM,20180169736,A,88,Investigate 911 Hang-Up Call,P,PROGRESS,13,FALSE CALL,200,VAUGHNS GAP RD ,123A,W,21,4909,36.099,-86.894,"(36.099, -86.894)"
PD201800191058,02/21/2018 01:04:00 PM,20180169904,A,88,Investigate 911 Hang-Up Call,P,PROGRESS,13,FALSE CALL,500,MAINSTREAM DR ,611A,N,11,4443,36.2,-86.808,"(36.2, -86.808)"
PD201800191189,02/21/2018 01:54:00 PM,20180169980,A,88,Investigate 911 Hang-Up Call,P,PROGRESS,13,FALSE CALL,1800,STRATFORD AV ,2S44,E,17,1407,36.198,-86.719,"(36.198, -86.719)"
PD201800191635,02/21/2018 04:04:00 PM,20180170417,B,88,Investigate 911 Hang-Up Call,P,PROGRESS,13,FALSE CALL,700,2ND AV S ,425B,C,25,4029,36.154,-86.769,"(36.154, -86.769)"
PD201800194298,02/22/2018 08:50:00 AM,20180172913,A,88,Investigate 911 Hang-Up Call,P,PROGRESS,13,FALSE CALL,700,18TH AV S ,812A,MT,11,6715,36.15,-86.795,"(36.15, -86.795)"
PD201800194599,02/22/2018 10:36:00 AM,20180173073,A,88,Investigate 911 Hang-Up Call,P,PROGRESS,13,FALSE CALL,400,21ST AV S ,812A,MT,15,6709,36.146,-86.799,"(36.146, -86.799)"
PD201800194681,02/22/2018 11:12:00 AM,20180173133,A,88,Investigate 911 Hang-Up Call,P,PROGRESS,13,FALSE CALL,12800,OLD HICKORY BLVD ,3S42,S,33,8867,36.031,-86.621,"(36.031, -86.621)"
PD201800195083,02/22/2018 01:28:00 PM,20180173454,A,88,Investigate 911 Hang-Up Call,P,PROGRESS,13,FALSE CALL,700,18TH AV S ,815A,MT,11,6715,36.15,-86.795,"(36.15, -86.795)"
PD201800195388,02/22/2018 03:35:00 PM,20180173724,B,88,Investigate 911 Hang-Up Call,P,PROGRESS,13,FALSE CALL,200,CUMBERLAND BND ,623B,N,11,4401,36.195,-86.79,"(36.195, -86.79)"
PD201800195393,02/22/2018 03:38:00 PM,20180173740,B,88,Investigate 911 Hang-Up Call,P,PROGRESS,13,FALSE CALL,300,3RD AV S ,425B,C,25,4053,36.158,-86.774,"(36.158, -86.774)"
PD201800197948,02/23/2018 06:47:00 AM,20180176020,C,88,Investigate 911 Hang-Up Call,P,PROGRESS,13,FALSE CALL,700,18TH AV S ,815A,MT,11,6715,36.15,-86.795,"(36.15, -86.795)"
PD201800199101,02/23/2018 01:11:00 PM,20180176996,A,88,Investigate 911 Hang-Up Call,PW,REQUEST FOR PUBLIC WORKS,13,FALSE CALL,400,MCMURRAY DR ,835A,MT,35,8659,36.059,-86.723,"(36.059, -86.723)"
PD201800199243,02/23/2018 02:05:00 PM,20180177340,A,88,Investigate 911 Hang-Up Call,PW,REQUEST FOR PUBLIC WORKS,13,FALSE CALL,400,MCMURRAY DR ,833B,MT,35,8659,36.059,-86.723,"(36.059, -86.723)"
PD201800201915,02/24/2018 07:09:00 AM,20180179442,A,88,Investigate 911 Hang-Up Call,P,PROGRESS,13,FALSE CALL,200,BROADWAY ,425A,C,21,4103,36.162,-86.776,"(36.162, -86.776)"
PD201800202143,02/24/2018 09:09:00 AM,20180179649,A,88,Investigate 911 Hang-Up Call,P,PROGRESS,13,FALSE CALL,1500,TRADITION CT ,725A,M,23,1765,36.273,-86.718,"(36.273, -86.718)"
PD201800202535,02/24/2018 12:36:00 PM,20180179953,A,88,Investigate 911 Hang-Up Call,P,PROGRESS,13,FALSE CALL,4300,SIDCO DR ,825A,MT,25,8529,36.084,-86.762,"(36.084, -86.762)"
PD201800204294,02/24/2018 11:27:00 PM,20180181392,,88,Investigate 911 Hang-Up Call,P,PROGRESS,13,FALSE CALL,200,NIX DR ,713C,M,15,1711,36.269,-86.694,"(36.269, -86.694)"
PD201800204536,02/25/2018 01:13:00 AM,20180181775,C,88,Investigate 911 Hang-Up Call,P,PROGRESS,13,FALSE CALL,700,ROYAL PKWY ,533C,H,17,9411,36.145,-86.665,"(36.145, -86.665)"
PD201800205279,02/25/2018 07:56:00 AM,20180182314,A,88,Investigate 911 Hang-Up Call,P,PROGRESS,13,FALSE CALL,300,INTERSTATE DR ,411A,C,13,1107,36.168,-86.767,"(36.168, -86.767)"
PD201800208715,02/26/2018 11:07:00 AM,20180185395,A,88,Investigate 911 Hang-Up Call,P,PROGRESS,13,FALSE CALL,3800,BEDFORD AV ,111A,W,17,6105,36.109,-86.82,"(36.109, -86.82)"
PD201800211448,02/27/2018 04:00:00 AM,20180187777,C,88,Investigate 911 Hang-Up Call,P,PROGRESS,13,FALSE CALL,8000,OLD CHARLOTTE PKE ,123C,W,23,4707,36.118,-86.965,"(36.118, -86.965)"
PD201800211857,02/27/2018 07:51:00 AM,20180188131,A,88,Investigate 911 Hang-Up Call,P,PROGRESS,13,FALSE CALL,3900,NOLENSVILLE PKE ,831A,MT,31,8501,36.085,-86.73,"(36.085, -86.73)"
PD201800212169,02/27/2018 10:20:00 AM,20180188434,A,88,Investigate 911 Hang-Up Call,P,PROGRESS,13,FALSE CALL,0,MUSIC SQ E ,813A,MT,11,6719,36.15,-86.792,"(36.15, -86.792)"
PD201800212593,02/27/2018 01:06:00 PM,20180188706,A,88,Investigate 911 Hang-Up Call,PW,REQUEST FOR PUBLIC WORKS,13,FALSE CALL,300,OLD HICKORY BLVD W ,7S42,M,23,1743,36.264,-86.717,"(36.264, -86.717)"
PD201800212627,02/27/2018 01:22:00 PM,20180188778,A,88,Investigate 911 Hang-Up Call,P,PROGRESS,13,FALSE CALL,200,22ND AV N ,823A,MT,13,5613,36.152,-86.804,"(36.152, -86.804)"
PD201800214692,02/28/2018 02:11:00 AM,20180190697,C,88,Investigate 911 Hang-Up Call,P,PROGRESS,13,FALSE CALL,2100,CHARLOTTE AV ,625C,N,15,5339,36.157,-86.807,"(36.157, -86.807)"
PD201800215887,02/28/2018 11:59:00 AM,20180191588,A,88,Investigate 911 Hang-Up Call,P,PROGRESS,13,FALSE CALL,100,N 1ST ST ,4B41,C,13,1989,36.174,-86.775,"(36.174, -86.775)"
PD201800215932,02/28/2018 12:15:00 PM,20180191807,A,88,Investigate 911 Hang-Up Call,P,PROGRESS,13,FALSE CALL,3100,DICKERSON PKE ,2F14,E,25,1811,36.232,-86.758,"(36.232, -86.758)"
PD201800216111,02/28/2018 01:19:00 PM,20180191772,A,88,Investigate 911 Hang-Up Call,P,PROGRESS,13,FALSE CALL,1400,MOSS DR ,825A,MT,21,8023,36.131,-86.766,"(36.131, -86.766)"
PD201800217159,02/28/2018 06:50:00 PM,20180192661,B,88,Investigate 911 Hang-Up Call,PW,REQUEST FOR PUBLIC WORKS,13,FALSE CALL,400,E TRINITY LN ,221B,E,21,1857,36.205,-86.76,"(36.205, -86.76)"
PD201800219783,03/01/2018 12:45:00 PM,20180195072,A,88,Investigate 911 Hang-Up Call,P,PROGRESS,13,FALSE CALL,600,MAINSTREAM DR ,611A,N,11,4437,36.2,-86.814,"(36.2, -86.814)"
PD201800221293,03/01/2018 09:23:00 PM,20180196734,B,88,Investigate 911 Hang-Up Call,PW,REQUEST FOR PUBLIC WORKS,13,FALSE CALL,3200,TRAILS END LN ,531C,H,33,8995,36.138,-86.634,"(36.138, -86.634)"
PD201800223136,03/02/2018 09:02:00 AM,20180198064,A,88,Investigate 911 Hang-Up Call,P,PROGRESS,13,FALSE CALL,500,MARRIOTT DR ,531A,H,13,9101,36.151,-86.69,"(36.151, -86.69)"
PD201800223194,03/02/2018 09:26:00 AM,20180198080,A,88,Investigate 911 Hang-Up Call,PW,REQUEST FOR PUBLIC WORKS,13,FALSE CALL,100,HARPETH TRACE SMT ,123A,W,21,4901,36.078,-86.892,"(36.078, -86.892)"
PD201800223626,03/02/2018 12:36:00 PM,20180198528,A,88,Investigate 911 Hang-Up Call,P,PROGRESS,13,FALSE CALL,0,BRIDGESTONE PK ,515A,H,13,9027,36.167,-86.691,"(36.167, -86.691)"
PD201800223892,03/02/2018 02:15:00 PM,20180198661,A,88,Investigate 911 Hang-Up Call,PW,REQUEST FOR PUBLIC WORKS,13,FALSE CALL,3500,WEST END AV ,1S44,W,13,6005,36.132,-86.824,"(36.132, -86.824)"
PD201800224812,03/02/2018 07:19:00 PM,20180199432,B,88,Investigate 911 Hang-Up Call,PW,REQUEST FOR PUBLIC WORKS,13,FALSE CALL,5800,MAUDINA AV ,1F53,W,15,5025,36.145,-86.863,"(36.145, -86.863)"
PD201800231551,03/04/2018 09:37:00 PM,20180205095,B,88,Investigate 911 Hang-Up Call,PW,REQUEST FOR PUBLIC WORKS,13,FALSE CALL,900,E OLD HICKORY BLVD ,713B,M,13,1629,36.262,-86.691,"(36.262, -86.691)"
PD201800232988,03/05/2018 09:20:00 AM,20180206455,A,88,Investigate 911 Hang-Up Call,PW,REQUEST FOR PUBLIC WORKS,13,FALSE CALL,200,BROADMOOR DR ,221A,E,25,1845,36.231,-86.751,"(36.231, -86.751)"
PD201800233228,03/05/2018 10:58:00 AM,20180206662,A,88,Investigate 911 Hang-Up Call,P,PROGRESS,13,FALSE CALL,4000,BOYD DR ,623A,N,23,3143,36.224,-86.826,"(36.224, -86.826)"
PD201800236555,03/06/2018 07:42:00 AM,20180209700,A,88,Investigate 911 Hang-Up Call,P,PROGRESS,13,FALSE CALL,900,MAIN ST ,221A,E,27,1941,36.177,-86.756,"(36.177, -86.756)"
PD201800239794,03/07/2018 01:21:00 AM,20180212552,C,88,Investigate 911 Hang-Up Call,P,PROGRESS,13,FALSE CALL,300,4TH AV N ,411C,C,11,4159,36.166,-86.78,"(36.166, -86.78)"
PD201800241121,03/07/2018 10:22:00 AM,20180213752,A,88,Investigate 911 Hang-Up Call,P,PROGRESS,13,FALSE CALL,12800,OLD HICKORY BLVD ,3S42,S,33,8867,36.031,-86.621,"(36.031, -86.621)"
PD201800241808,03/07/2018 02:17:00 PM,20180214485,A,88,Investigate 911 Hang-Up Call,P,PROGRESS,13,FALSE CALL,200,CUMBERLAND BND ,616B,N,11,4401,36.193,-86.79,"(36.193, -86.79)"
PD201800242017,03/07/2018 03:33:00 PM,20180214599,B,88,Investigate 911 Hang-Up Call,P,PROGRESS,13,FALSE CALL,700,OLD HICKORY BLVD ,835B,MT,33,8623,36.041,-86.779,"(36.041, -86.779)"
PD201800242964,03/07/2018 07:48:00 PM,20180215405,B,88,Investigate 911 Hang-Up Call,PW,REQUEST FOR PUBLIC WORKS,13,FALSE CALL,5000,LINBAR DR ,325B,S,21,8707,36.081,-86.7,"(36.081, -86.7)"
PD201800244696,03/08/2018 08:05:00 AM,20180217044,A,88,Investigate 911 Hang-Up Call,PW,REQUEST FOR PUBLIC WORKS,13,FALSE CALL,600,S 8TH ST ,217A,E,11,1023,36.168,-86.756,"(36.168, -86.756)"
PD201800244833,03/08/2018 08:59:00 AM,20180217143,A,88,Investigate 911 Hang-Up Call,P,PROGRESS,13,FALSE CALL,1000,HAWKINS ST ,821A,MT,21,6801,36.148,-86.783,"(36.148, -86.783)"
PD201800244961,03/08/2018 09:54:00 AM,20180217278,A,88,Investigate 911 Hang-Up Call,P,PROGRESS,13,FALSE CALL,1000,CAMILLA CALDWELL LN ,625A,N,25,3171,36.18,-86.848,"(36.18, -86.848)"
PD201800247198,03/08/2018 09:08:00 PM,20180219247,B,88,Investigate 911 Hang-Up Call,PW,REQUEST FOR PUBLIC WORKS,13,FALSE CALL,200,LINCOYA BAY DR ,532B,H,33,8957,36.142,-86.624,"(36.142, -86.624)"
PD201800248749,03/09/2018 07:05:00 AM,20180220717,A,88,Investigate 911 Hang-Up Call,PW,REQUEST FOR PUBLIC WORKS,13,FALSE CALL,1600,BRIDGECREST DR ,325A,S,25,8861,36.067,-86.65,"(36.067, -86.65)"
PD201800249350,03/09/2018 10:36:00 AM,20180221384,A,88,Investigate 911 Hang-Up Call,P,PROGRESS,13,FALSE CALL,300,LAKE CHATEAU DR ,5F23,H,23,9545,36.16,-86.586,"(36.16, -86.586)"
PD201800249951,03/09/2018 01:59:00 PM,20180221708,A,88,Investigate 911 Hang-Up Call,P,PROGRESS,13,FALSE CALL,2200,JONES AV ,221A,E,23,1835,36.209,-86.756,"(36.209, -86.756)"
PD201800252150,03/10/2018 02:48:00 AM,20180223628,C,88,Investigate 911 Hang-Up Call,P,PROGRESS,13,FALSE CALL,200,SUMMIT VIEW DR ,821C,MT,33,8623,36.039,-86.78,"(36.039, -86.78)"
PD201800253368,03/10/2018 02:19:00 PM,20180224707,A,88,Investigate 911 Hang-Up Call,P,PROGRESS,13,FALSE CALL,2700,MORENA ST ,615B,N,15,5347,36.163,-86.819,"(36.163, -86.819)"
PD201800256965,03/11/2018 06:20:00 PM,20180227673,B,88,Investigate 911 Hang-Up Call,P,PROGRESS,13,FALSE CALL,2000,WEST END AV ,815B,MT,11,5713,36.15,-86.801,"(36.15, -86.801)"
PD201800258322,03/12/2018 05:44:00 AM,20180228845,C,88,Investigate 911 Hang-Up Call,P,PROGRESS,13,FALSE CALL,1400,51ST AV N ,115C,W,15,4609,36.166,-86.85,"(36.166, -86.85)"
PD201800259446,03/12/2018 01:16:00 PM,20180229830,A,88,Investigate 911 Hang-Up Call,P,PROGRESS,13,FALSE CALL,900,5TH AV N ,411A,C,13,4217,36.171,-86.786,"(36.171, -86.786)"
PD201800259650,03/12/2018 02:24:00 PM,20180229949,A,88,Investigate 911 Hang-Up Call,PW,REQUEST FOR PUBLIC WORKS,13,FALSE CALL,300,OLD HICKORY BLVD W ,7S42,M,23,1743,36.264,-86.717,"(36.264, -86.717)"
PD201800260293,03/12/2018 05:51:00 PM,20180230565,B,88,Investigate 911 Hang-Up Call,P,PROGRESS,13,FALSE CALL,200,BURNING TREE DR ,523B,H,23,9557,36.174,-86.6,"(36.174, -86.6)"
PD201800260566,03/12/2018 07:29:00 PM,20180230888,B,88,Investigate 911 Hang-Up Call,PW,REQUEST FOR PUBLIC WORKS,13,FALSE CALL,3800,ROUND ROCK DR ,334B,S,35,8903,36.035,-86.588,"(36.035, -86.588)"
PD201800262043,03/13/2018 05:49:00 AM,20180232092,C,88,Investigate 911 Hang-Up Call,PW,REQUEST FOR PUBLIC WORKS,13,FALSE CALL,3200,WHITES CREEK PKE ,627C,N,21,3027,36.232,-86.811,"(36.232, -86.811)"
PD201800262283,03/13/2018 07:32:00 AM,20180232316,A,88,Investigate 911 Hang-Up Call,PW,REQUEST FOR PUBLIC WORKS,13,FALSE CALL,3200,COUNTRY WAY RD ,535A,H,35,8929,36.078,-86.607,"(36.078, -86.607)"
PD201800262709,03/13/2018 09:58:00 AM,20180232731,A,88,Investigate 911 Hang-Up Call,P,PROGRESS,13,FALSE CALL,6100,NOLENSVILLE PKE ,331A,S,31,8759,36.023,-86.712,"(36.023, -86.712)"
PD201800262901,03/13/2018 11:02:00 AM,20180232829,A,88,Investigate 911 Hang-Up Call,P,PROGRESS,13,FALSE CALL,1600,WOODMONT BLVD ,823A,MT,23,6419,36.114,-86.802,"(36.114, -86.802)"
PD201800263307,03/13/2018 01:22:00 PM,20180233269,A,88,Investigate 911 Hang-Up Call,P,PROGRESS,13,FALSE CALL,500,GREAT CIRCLE RD ,615A,N,11,4443,36.199,-86.808,"(36.199, -86.808)"
PD201800263651,03/13/2018 03:12:00 PM,20180233770,B,88,Investigate 911 Hang-Up Call,PW,REQUEST FOR PUBLIC WORKS,13,FALSE CALL,0,BRIARWICK CT & AVALON CT,522B,H,23,9513,36.183,-86.588,"(36.183, -86.588)"
PD201800268114,03/14/2018 03:30:00 PM,20180238049,B,88,Investigate 911 Hang-Up Call,P,PROGRESS,13,FALSE CALL,2100,ELM HILL PKE ,512B,H,13,9041,36.15,-86.696,"(36.15, -86.696)"
PD201800271332,03/15/2018 10:20:00 AM,20180240378,A,88,Investigate 911 Hang-Up Call,P,PROGRESS,13,FALSE CALL,5800,PETTUS RD ,3S52,S,31,8763,36.022,-86.662,"(36.022, -86.662)"
PD201800271676,03/15/2018 12:46:00 PM,20180240678,A,88,Investigate 911 Hang-Up Call,P,PROGRESS,13,FALSE CALL,3000,CLIFTON AV ,1F49,N,13,4551,36.159,-86.824,"(36.159, -86.824)"
PD201800272399,03/15/2018 04:30:00 PM,20180241257,B,88,Investigate 911 Hang-Up Call,P,PROGRESS,13,FALSE CALL,800,6TH AV N ,SP110,C,13,4219,36.17,-86.786,"(36.17, -86.786)"
PD201800272910,03/15/2018 06:58:00 PM,20180241843,B,88,Investigate 911 Hang-Up Call,P,PROGRESS,13,FALSE CALL,1000,ARBOR KNOLL BLVD ,3F11,S,31,8753,36.04,-86.667,"(36.04, -86.667)"
PD201800274668,03/16/2018 05:38:00 AM,20180243230,C,88,Investigate 911 Hang-Up Call,P,PROGRESS,13,FALSE CALL,1500,HAMPTON ST ,621C,N,21,3019,36.208,-86.779,"(36.208, -86.779)"
PD201800274695,03/16/2018 05:51:00 AM,20180243246,C,88,Investigate 911 Hang-Up Call,PW,REQUEST FOR PUBLIC WORKS,13,FALSE CALL,0,I65 S EXT RAMP,617C,N,21,3021,0,0,"(0, 0)"
PD201800275158,03/16/2018 09:15:00 AM,20180243632,A,88,Investigate 911 Hang-Up Call,P,PROGRESS,13,FALSE CALL,700,SUMMERLY DR ,121A,W,21,5021,36.131,-86.873,"(36.131, -86.873)"
PD201800278455,03/17/2018 03:33:00 AM,20180246460,C,88,Investigate 911 Hang-Up Call,P,PROGRESS,13,FALSE CALL,0,CENTURY BLVD ,513A,H,13,9115,36.145,-86.687,"(36.145, -86.687)"
PD201800280777,03/17/2018 09:06:00 PM,20180248417,B,88,Investigate 911 Hang-Up Call,P,PROGRESS,13,FALSE CALL,2700,ELM HILL PKE ,512B,H,17,9105,36.151,-86.669,"(36.151, -86.669)"
PD201800285033,03/19/2018 08:08:00 AM,20180251944,A,88,Investigate 911 Hang-Up Call,P,PROGRESS,13,FALSE CALL,500,GREAT CIRCLE RD ,611A,N,11,4443,36.199,-86.808,"(36.199, -86.808)"
PD201800285263,03/19/2018 09:23:00 AM,20180252125,A,88,Investigate 911 Hang-Up Call,PW,REQUEST FOR PUBLIC WORKS,13,FALSE CALL,1000,JOYCE LN ,221A,E,25,1801,36.234,-86.729,"(36.234, -86.729)"
PD201800286141,03/19/2018 03:06:00 PM,20180252857,B,88,Investigate 911 Hang-Up Call,P,PROGRESS,13,FALSE CALL,5800,PETTUS RD ,331B,S,31,8763,36.022,-86.662,"(36.022, -86.662)"
PD201800288442,03/20/2018 06:51:00 AM,20180254909,C,88,Investigate 911 Hang-Up Call,P,PROGRESS,13,FALSE CALL,1200,CLINTON ST ,617A,N,15,5423,36.165,-86.796,"(36.165, -86.796)"
PD201800288945,03/20/2018 09:56:00 AM,20180255358,A,88,Investigate 911 Hang-Up Call,P,PROGRESS,13,FALSE CALL,3200,BRICK CHURCH PKE ,727A,M,21,2003,36.235,-86.782,"(36.235, -86.782)"
PD201800289523,03/20/2018 01:08:00 PM,20180255886,A,88,Investigate 911 Hang-Up Call,P,PROGRESS,13,FALSE CALL,300,14TH AV N ,811A,MT,13,5501,36.16,-86.794,"(36.16, -86.794)"
PD201800289954,03/20/2018 03:42:00 PM,20180256348,B,88,Investigate 911 Hang-Up Call,P,PROGRESS,13,FALSE CALL,4500,NOLENSVILLE PKE ,835B,MT,31,8661,36.071,-86.724,"(36.071, -86.724)"
PD201800290110,03/20/2018 04:29:00 PM,20180256384,B,88,Investigate 911 Hang-Up Call,P,PROGRESS,13,FALSE CALL,100,7TH AV N ,415B,C,21,4109,36.16,-86.781,"(36.16, -86.781)"
PD201800290205,03/20/2018 04:58:00 PM,20180256573,B,88,Investigate 911 Hang-Up Call,PW,REQUEST FOR PUBLIC WORKS,13,FALSE CALL,7600,HIGHWAY 70 S ,125B,W,25,4813,36.079,-86.949,"(36.079, -86.949)"
PD201800292915,03/21/2018 10:19:00 AM,20180258944,A,88,Investigate 911 Hang-Up Call,PW,REQUEST FOR PUBLIC WORKS,13,FALSE CALL,1100,HUNTERS LN ,7S43,M,25,2109,36.279,-86.753,"(36.279, -86.753)"
PD201800293996,03/21/2018 04:15:00 PM,20180259855,B,88,Investigate 911 Hang-Up Call,P,PROGRESS,13,FALSE CALL,300,COMMERCE ST ,413B,C,21,4105,36.162,-86.777,"(36.162, -86.777)"
PD201800296668,03/22/2018 08:06:00 AM,20180262300,A,88,Investigate 911 Hang-Up Call,P,PROGRESS,13,FALSE CALL,2600,WEST END AV ,811A,MT,15,5815,36.145,-86.811,"(36.145, -86.811)"
PD201800298030,03/22/2018 04:02:00 PM,20180263456,B,88,Investigate 911 Hang-Up Call,P,PROGRESS,13,FALSE CALL,100,WOODMONT BLVD ,117B,W,17,6021,36.125,-86.847,"(36.125, -86.847)"
PD201800298091,03/22/2018 04:24:00 PM,20180263501,B,88,Investigate 911 Hang-Up Call,PW,REQUEST FOR PUBLIC WORKS,13,FALSE CALL,600,OLD HICKORY BLVD ,1T74,W,23,4701,36.116,-86.922,"(36.116, -86.922)"
PD201800302032,03/23/2018 04:40:00 PM,20180267024,B,88,Investigate 911 Hang-Up Call,P,PROGRESS,13,FALSE CALL,300,4TH AV S ,4F13,C,25,4053,36.157,-86.775,"(36.157, -86.775)"
PD201800304380,03/24/2018 08:30:00 AM,20180269077,A,88,Investigate 911 Hang-Up Call,PW,REQUEST FOR PUBLIC WORKS,13,FALSE CALL,3200,HOLLAND LN ,621A,N,25,3173,36.181,-86.843,"(36.181, -86.843)"
PD201800307137,03/25/2018 06:07:00 AM,20180271278,C,88,Investigate 911 Hang-Up Call,P,PROGRESS,13,FALSE CALL,3000,WEST END AV ,811C,MT,13,5625,36.144,-86.815,"(36.144, -86.815)"
PD201800308531,03/25/2018 06:25:00 PM,20180272479,B,88,Investigate 911 Hang-Up Call,P,PROGRESS,13,FALSE CALL,3600,WOODMONT BLVD ,121B,W,17,6015,36.116,-86.83,"(36.116, -86.83)"
PD201800309208,03/25/2018 11:25:00 PM,20180273035,,88,Investigate 911 Hang-Up Call,PW,REQUEST FOR PUBLIC WORKS,13,FALSE CALL,700,1ST AV N ,413C,C,13,4213,36.172,-86.78,"(36.172, -86.78)"
PD201800310450,03/26/2018 09:22:00 AM,20180274164,A,88,Investigate 911 Hang-Up Call,PW,REQUEST FOR PUBLIC WORKS,13,FALSE CALL,400,WALTON LN ,2S41,E,25,1805,36.233,-86.751,"(36.233, -86.751)"
PD201800310893,03/26/2018 12:06:00 PM,20180274548,A,88,Investigate 911 Hang-Up Call,P,PROGRESS,13,FALSE CALL,500,MAIN ST ,217A,E,27,1997,36.174,-86.763,"(36.174, -86.763)"
PD201800311378,03/26/2018 03:03:00 PM,20180274958,B,88,Investigate 911 Hang-Up Call,P,PROGRESS,13,FALSE CALL,200,TREUTLAND AV ,222B,E,21,1967,36.18,-86.771,"(36.18, -86.771)"
PD201800311496,03/26/2018 03:36:00 PM,20180275065,B,88,Investigate 911 Hang-Up Call,P,PROGRESS,13,FALSE CALL,200,CUMBERLAND BND ,612B,N,11,4401,36.195,-86.79,"(36.195, -86.79)"
PD201800311777,03/26/2018 05:03:00 PM,20180275335,B,88,Investigate 911 Hang-Up Call,PW,REQUEST FOR PUBLIC WORKS,13,FALSE CALL,200,TUCKAHOE SQ W ,721B,M,21,2045,36.26,-86.767,"(36.26, -86.767)"
PD201800315956,03/27/2018 06:48:00 PM,20180278884,B,88,Investigate 911 Hang-Up Call,PW,REQUEST FOR PUBLIC WORKS,13,FALSE CALL,1700,7TH AV N ,617B,N,17,4341,36.182,-86.795,"(36.182, -86.795)"
PD201800318540,03/28/2018 10:53:00 AM,20180281201,A,88,Investigate 911 Hang-Up Call,PW,REQUEST FOR PUBLIC WORKS,13,FALSE CALL,3500,JOHN MALLETTE DR ,6S53,N,25,3121,36.195,-86.838,"(36.195, -86.838)"
PD201800319011,03/28/2018 01:31:00 PM,20180281615,A,88,Investigate 911 Hang-Up Call,P,PROGRESS,13,FALSE CALL,200,STEWARTS FERRY PKE ,517A,H,17,9405,36.163,-86.643,"(36.163, -86.643)"
PD201800321499,03/29/2018 06:02:00 AM,20180283724,C,88,Investigate 911 Hang-Up Call,P,PROGRESS,13,FALSE CALL,3000,REELFOOT DR ,533C,H,33,8995,36.14,-86.632,"(36.14, -86.632)"
PD201800322222,03/29/2018 10:57:00 AM,20180284325,A,88,Investigate 911 Hang-Up Call,P,PROGRESS,13,FALSE CALL,3800,WHITLAND AV ,111A,W,13,6009,36.131,-86.831,"(36.131, -86.831)"
PD201800322409,03/29/2018 12:23:00 PM,20180284620,A,88,Investigate 911 Hang-Up Call,P,PROGRESS,13,FALSE CALL,3200,WHITES CREEK PKE ,603,N,21,3027,36.232,-86.811,"(36.232, -86.811)"
PD201800323874,03/29/2018 08:58:00 PM,20180285755,B,88,Investigate 911 Hang-Up Call,PW,REQUEST FOR PUBLIC WORKS,13,FALSE CALL,4900,HOPEDALE DR ,323B,S,21,8701,36.073,-86.716,"(36.073, -86.716)"
PD201800325781,03/30/2018 10:32:00 AM,20180287460,A,88,Investigate 911 Hang-Up Call,PW,REQUEST FOR PUBLIC WORKS,13,FALSE CALL,0,ACADEMY PL ,425A,C,25,4029,36.155,-86.765,"(36.155, -86.765)"
PD201800326222,03/30/2018 01:21:00 PM,20180287874,A,88,Investigate 911 Hang-Up Call,PW,REQUEST FOR PUBLIC WORKS,13,FALSE CALL,300,LAWNDALE DR ,317A,S,15,8879,36.123,-86.714,"(36.123, -86.714)"
PD201800326284,03/30/2018 01:52:00 PM,20180287947,A,88,Investigate 911 Hang-Up Call,P,PROGRESS,13,FALSE CALL,3100,LARKSPUR DR ,221A,E,25,1807,36.233,-86.767,"(36.233, -86.767)"
PD201800329338,03/31/2018 11:45:00 AM,20180290475,A,88,Investigate 911 Hang-Up Call,PW,REQUEST FOR PUBLIC WORKS,13,FALSE CALL,5000,WHITES CREEK PKE ,621A,N,27,3303,36.296,-86.85,"(36.296, -86.85)"
PD201800329498,03/31/2018 01:26:00 PM,20180290607,A,88,Investigate 911 Hang-Up Call,PW,REQUEST FOR PUBLIC WORKS,13,FALSE CALL,2100,BUENA VISTA PKE ,622B,N,23,3135,36.195,-86.829,"(36.195, -86.829)"
PD201800333163,04/01/2018 07:47:00 PM,20180293621,B,88,Investigate 911 Hang-Up Call,P,PROGRESS,13,FALSE CALL,6400,FLEETWOOD DR ,117B,W,15,5025,36.14,-86.875,"(36.14, -86.875)"
PD201800334871,04/02/2018 10:28:00 AM,20180295167,A,88,Investigate 911 Hang-Up Call,P,PROGRESS,13,FALSE CALL,200,ATHENS WAY ,612A,N,11,4499,36.196,-86.799,"(36.196, -86.799)"
PD201800335052,04/02/2018 11:37:00 AM,20180295309,A,88,Investigate 911 Hang-Up Call,P,PROGRESS,13,FALSE CALL,600,HUNTINGTON PKWY ,833A,MT,35,8653,36.048,-86.734,"(36.048, -86.734)"
PD201800335207,04/02/2018 12:25:00 PM,20180295520,A,88,Investigate 911 Hang-Up Call,P,PROGRESS,13,FALSE CALL,7700,HANSROTE CV ,121A,W,25,4811,36.059,-86.972,"(36.059, -86.972)"
PD201800335837,04/02/2018 03:59:00 PM,20180295981,B,88,Investigate 911 Hang-Up Call,P,PROGRESS,13,FALSE CALL,1600,UNDERWOOD ST ,615B,N,13,4475,36.174,-86.805,"(36.174, -86.805)"
PD201800335863,04/02/2018 04:07:00 PM,20180296238,B,88,Investigate 911 Hang-Up Call,PW,REQUEST FOR PUBLIC WORKS,13,FALSE CALL,200,JACKSONIAN DR ,522B,H,21,9601,36.196,-86.628,"(36.196, -86.628)"
PD201800336084,04/02/2018 05:19:00 PM,20180296184,B,88,Investigate 911 Hang-Up Call,P,PROGRESS,13,FALSE CALL,1200,8TH AV S ,821B,MT,21,6941,36.14,-86.777,"(36.14, -86.777)"
PD201800336601,04/02/2018 08:33:00 PM,20180296622,B,88,Investigate 911 Hang-Up Call,PW,REQUEST FOR PUBLIC WORKS,13,FALSE CALL,3100,CLIFF DR ,625B,N,23,3155,36.198,-86.83,"(36.198, -86.83)"
PD201800338380,04/03/2018 09:04:00 AM,20180298200,A,88,Investigate 911 Hang-Up Call,PW,REQUEST FOR PUBLIC WORKS,13,FALSE CALL,500,PAPPUS CT ,621A,N,21,3047,36.219,-86.794,"(36.219, -86.794)"
PD201800339242,04/03/2018 01:41:00 PM,20180298970,A,88,Investigate 911 Hang-Up Call,P,PROGRESS,13,FALSE CALL,400,BROADWAY ,422A,C,21,4091,36.161,-86.778,"(36.161, -86.778)"
PD201800341337,04/03/2018 11:59:00 PM,20180300738,,88,Investigate 911 Hang-Up Call,P,PROGRESS,13,FALSE CALL,2700,GREER RD ,727C,M,25,2205,36.351,-86.786,"(36.351, -86.786)"
PD201800342707,04/04/2018 09:54:00 AM,20180302348,A,88,Investigate 911 Hang-Up Call,PW,REQUEST FOR PUBLIC WORKS,13,FALSE CALL,800,MURFREESBORO PKE ,533A,H,31,8815,36.134,-86.722,"(36.134, -86.722)"
PD201800343598,04/04/2018 01:57:00 PM,20180302739,A,88,Investigate 911 Hang-Up Call,PW,REQUEST FOR PUBLIC WORKS,13,FALSE CALL,600,JOSEPH AV ,221A,E,21,1961,36.181,-86.773,"(36.181, -86.773)"
PD201800346004,04/05/2018 05:06:00 AM,20180304812,C,88,Investigate 911 Hang-Up Call,PW,REQUEST FOR PUBLIC WORKS,13,FALSE CALL,100,CHARLES E DAVIS BLVD ,513C,H,11,8201,36.153,-86.762,"(36.153, -86.762)"
PD201800347904,04/05/2018 04:16:00 PM,20180306430,B,88,Investigate 911 Hang-Up Call,P,PROGRESS,13,FALSE CALL,1800,DIVISION ST ,811B,MT,11,5705,36.152,-86.794,"(36.152, -86.794)"
PD201800351032,04/06/2018 11:18:00 AM,20180309305,A,88,Investigate 911 Hang-Up Call,P,PROGRESS,13,FALSE CALL,100,PEAK HILL CIR ,833A,MT,35,8651,36.027,-86.717,"(36.027, -86.717)"
PD201800351679,04/06/2018 03:25:00 PM,20180309853,B,88,Investigate 911 Hang-Up Call,P,PROGRESS,13,FALSE CALL,4200,HARDING PKE ,113B,W,13,5111,36.129,-86.844,"(36.129, -86.844)"
PD201800352518,04/06/2018 07:19:00 PM,20180310541,B,88,Investigate 911 Hang-Up Call,P,PROGRESS,13,FALSE CALL,0,HERMITAGE AV ,423B,C,25,4033,36.157,-86.77,"(36.157, -86.77)"
PD201800357288,04/08/2018 07:28:00 AM,20180314710,A,88,Investigate 911 Hang-Up Call,P,PROGRESS,13,FALSE CALL,200,CUMBERLAND BND ,611A,N,11,4401,36.193,-86.79,"(36.193, -86.79)"
PD201800358221,04/08/2018 03:37:00 PM,20180315518,B,88,Investigate 911 Hang-Up Call,P,PROGRESS,13,FALSE CALL,500,HOSPITAL DR ,713B,M,13,1633,36.255,-86.683,"(36.255, -86.683)"
PD201800358532,04/08/2018 06:13:00 PM,20180315792,B,88,Investigate 911 Hang-Up Call,PW,REQUEST FOR PUBLIC WORKS,13,FALSE CALL,3800,ROUND ROCK DR ,335B,S,35,8903,36.036,-86.588,"(36.036, -86.588)"
PD201800359075,04/08/2018 10:31:00 PM,20180316278,B,88,Investigate 911 Hang-Up Call,P,PROGRESS,13,FALSE CALL,600,ROWAN DR ,623C,N,23,3025,36.221,-86.811,"(36.221, -86.811)"
PD201800363874,04/10/2018 06:25:00 AM,20180320539,C,88,Investigate 911 Hang-Up Call,P,PROGRESS,13,FALSE CALL,200,BELCLAIRE PL ,113C,W,13,6005,36.13,-86.825,"(36.13, -86.825)"
PD201800364291,04/10/2018 09:11:00 AM,20180321017,A,88,Investigate 911 Hang-Up Call,P,PROGRESS,13,FALSE CALL,2600,ELM HILL PKE ,517A,H,17,9105,36.153,-86.673,"(36.153, -86.673)"
PD201800364664,04/10/2018 11:21:00 AM,20180321244,A,88,Investigate 911 Hang-Up Call,PW,REQUEST FOR PUBLIC WORKS,13,FALSE CALL,2100,23RD AV N ,611A,N,11,4485,36.185,-86.814,"(36.185, -86.814)"
PD201800365688,04/10/2018 04:56:00 PM,20180322267,B,88,Investigate 911 Hang-Up Call,P,PROGRESS,13,FALSE CALL,1200,8TH AV S ,823B,MT,21,6941,36.14,-86.777,"(36.14, -86.777)"
PD201800365834,04/10/2018 05:36:00 PM,20180322234,B,88,Investigate 911 Hang-Up Call,PW,REQUEST FOR PUBLIC WORKS,13,FALSE CALL,2500,HIGHLAND TRACE DR ,610B,N,21,3047,36.221,-86.802,"(36.221, -86.802)"
PD201800368003,04/11/2018 07:48:00 AM,20180324203,A,88,Investigate 911 Hang-Up Call,P,PROGRESS,13,FALSE CALL,2000,GLEN ECHO RD ,825A,MT,25,6413,36.109,-86.812,"(36.109, -86.812)"
PD201800368261,04/11/2018 09:01:00 AM,20180324433,A,88,Investigate 911 Hang-Up Call,P,PROGRESS,13,FALSE CALL,200,BELCLAIRE PL ,113A,W,13,6005,36.13,-86.825,"(36.13, -86.825)"
PD201800368867,04/11/2018 12:23:00 PM,20180324998,A,88,Investigate 911 Hang-Up Call,P,PROGRESS,13,FALSE CALL,5900,CROSSINGS BLVD ,331A,S,33,8867,36.035,-86.636,"(36.035, -86.636)"
PD201800369377,04/11/2018 03:12:00 PM,20180325534,B,88,Investigate 911 Hang-Up Call,PW,REQUEST FOR PUBLIC WORKS,13,FALSE CALL,1000,KIPLING DR ,532B,H,31,8821,36.127,-86.698,"(36.127, -86.698)"
PD201800370576,04/11/2018 08:59:00 PM,20180326378,B,88,Investigate 911 Hang-Up Call,P,PROGRESS,13,FALSE CALL,1700,7TH AV N ,617B,N,17,4341,36.183,-86.796,"(36.183, -86.796)"
PD201800373175,04/12/2018 01:50:00 PM,20180328727,A,88,Investigate 911 Hang-Up Call,P,PROGRESS,13,FALSE CALL,5500,PETTUS RD ,332A,S,31,8761,36.028,-86.673,"(36.028, -86.673)"
PD201800373337,04/12/2018 02:51:00 PM,20180328868,A,88,Investigate 911 Hang-Up Call,P,PROGRESS,13,FALSE CALL,200,PEPPER RIDGE CIR ,325B,S,23,8897,36.076,-86.666,"(36.076, -86.666)"
PD201800373357,04/12/2018 02:57:00 PM,20180328900,A,88,Investigate 911 Hang-Up Call,PW,REQUEST FOR PUBLIC WORKS,13,FALSE CALL,800,S 6TH ST ,213B,E,11,1021,36.165,-86.758,"(36.165, -86.758)"
PD201800373430,04/12/2018 03:22:00 PM,20180329177,B,88,Investigate 911 Hang-Up Call,P,PROGRESS,13,FALSE CALL,700,MCGAVOCK PKE ,515B,H,17,9103,36.147,-86.684,"(36.147, -86.684)"
PD201800373572,04/12/2018 04:01:00 PM,20180329041,B,88,Investigate 911 Hang-Up Call,PW,REQUEST FOR PUBLIC WORKS,13,FALSE CALL,900,MAIN ST ,213B,E,13,1131,36.178,-86.752,"(36.178, -86.752)"
PD201800374151,04/12/2018 06:21:00 PM,20180330162,B,88,Investigate 911 Hang-Up Call,PW,REQUEST FOR PUBLIC WORKS,13,FALSE CALL,300,BRIDGEWAY AV ,523B,H,25,9611,36.27,-86.665,"(36.27, -86.665)"
PD201800376665,04/13/2018 10:16:00 AM,20180331758,A,88,Investigate 911 Hang-Up Call,PW,REQUEST FOR PUBLIC WORKS,13,FALSE CALL,300,EDITH AV ,221A,E,21,1869,36.202,-86.764,"(36.202, -86.764)"
PD201800376735,04/13/2018 10:41:00 AM,20180331823,A,88,Investigate 911 Hang-Up Call,P,PROGRESS,13,FALSE CALL,4000,ARMORY OAKS DR ,825A,MT,25,8525,36.104,-86.761,"(36.104, -86.761)"
PD201800377173,04/13/2018 12:49:00 PM,20180332229,A,88,Investigate 911 Hang-Up Call,P,PROGRESS,13,FALSE CALL,3600,NOLENSVILLE PKE ,343B,S,13,8431,36.096,-86.737,"(36.096, -86.737)"
PD201800377276,04/13/2018 01:16:00 PM,20180332355,A,88,Investigate 911 Hang-Up Call,PW,REQUEST FOR PUBLIC WORKS,13,FALSE CALL,1300,56TH AV N ,115A,W,11,4611,36.162,-86.855,"(36.162, -86.855)"
PD201800377469,04/13/2018 02:34:00 PM,20180332511,A,88,Investigate 911 Hang-Up Call,P,PROGRESS,13,FALSE CALL,1800,WEST END AV ,811B,MT,11,5523,36.153,-86.796,"(36.153, -86.796)"
PD201800377615,04/13/2018 03:18:00 PM,20180332526,B,88,Investigate 911 Hang-Up Call,PW,REQUEST FOR PUBLIC WORKS,13,FALSE CALL,1200,8TH AV S ,825B,MT,21,6941,36.14,-86.777,"(36.14, -86.777)"
PD201800378047,04/13/2018 05:12:00 PM,20180332909,B,88,Investigate 911 Hang-Up Call,P,PROGRESS,13,FALSE CALL,5100,RICE RD ,321B,S,25,8861,36.071,-86.642,"(36.071, -86.642)"
PD201800378248,04/13/2018 05:57:00 PM,20180333094,B,88,Investigate 911 Hang-Up Call,PW,REQUEST FOR PUBLIC WORKS,13,FALSE CALL,0,BERKLEY DR ,715B,M,11,1505,36.246,-86.721,"(36.246, -86.721)"
PD201800380070,04/14/2018 07:08:00 AM,20180334680,A,88,Investigate 911 Hang-Up Call,P,PROGRESS,13,FALSE CALL,600,MYATT DR ,725A,M,27,1721,36.293,-86.695,"(36.293, -86.695)"
PD201800380823,04/14/2018 12:59:00 PM,20180335267,A,88,Investigate 911 Hang-Up Call,P,PROGRESS,13,FALSE CALL,5000,HILLSBORO PKE ,125A,W,17,6115,36.097,-86.824,"(36.097, -86.824)"
PD201800381270,04/14/2018 04:24:00 PM,20180335640,B,88,Investigate 911 Hang-Up Call,P,PROGRESS,13,FALSE CALL,5800,RIVER RD ,123B,W,23,4701,36.131,-86.921,"(36.131, -86.921)"
PD201800383941,04/15/2018 02:19:00 PM,20180337881,A,88,Investigate 911 Hang-Up Call,PW,REQUEST FOR PUBLIC WORKS,13,FALSE CALL,1500,DICKERSON PKE ,221B,E,23,1863,36.201,-86.774,"(36.201, -86.774)"
PD201800388142,04/16/2018 07:07:00 PM,20180341663,B,88,Investigate 911 Hang-Up Call,PW,REQUEST FOR PUBLIC WORKS,13,FALSE CALL,300,CLAYMILLE PL ,623B,N,21,3023,36.228,-86.803,"(36.228, -86.803)"
PD201800388810,04/17/2018 12:00:00 AM,20180342146,C,88,Investigate 911 Hang-Up Call,P,PROGRESS,13,FALSE CALL,2900,BABY RUTH LN ,333C,S,33,8865,36.049,-86.638,"(36.049, -86.638)"
PD201800390700,04/17/2018 01:24:00 PM,20180343835,A,88,Investigate 911 Hang-Up Call,P,PROGRESS,13,FALSE CALL,700,DREXEL ST ,415A,C,23,4023,36.152,-86.779,"(36.152, -86.779)"
PD201800390783,04/17/2018 01:52:00 PM,20180343915,A,88,Investigate 911 Hang-Up Call,P,PROGRESS,13,FALSE CALL,2600,BRANSFORD AV ,825A,MT,21,8035,36.122,-86.767,"(36.122, -86.767)"
PD201800391154,04/17/2018 03:42:00 PM,20180344272,B,88,Investigate 911 Hang-Up Call,P,PROGRESS,13,FALSE CALL,300,OLD LEBANON DIRT RD ,523B,H,21,9507,36.191,-86.614,"(36.191, -86.614)"
PD201800391282,04/17/2018 04:14:00 PM,20180344345,B,88,Investigate 911 Hang-Up Call,P,PROGRESS,13,FALSE CALL,2100,WEST END AV ,815B,MT,13,5601,36.15,-86.803,"(36.15, -86.803)"
PD201800393789,04/18/2018 08:18:00 AM,20180346558,A,88,Investigate 911 Hang-Up Call,P,PROGRESS,13,FALSE CALL,3900,NOLENSVILLE PKE ,833A,MT,31,8501,36.085,-86.73,"(36.085, -86.73)"
PD201800395057,04/18/2018 02:48:00 PM,20180347843,A,88,Investigate 911 Hang-Up Call,P,PROGRESS,13,FALSE CALL,200,CUMBERLAND BND ,612B,N,11,4401,36.193,-86.79,"(36.193, -86.79)"
PD201800395324,04/18/2018 03:51:00 PM,20180347993,B,88,Investigate 911 Hang-Up Call,PW,REQUEST FOR PUBLIC WORKS,13,FALSE CALL,200,ATHENS WAY ,621B,N,11,4499,36.196,-86.799,"(36.196, -86.799)"
PD201800397954,04/19/2018 06:43:00 AM,20180350350,C,88,Investigate 911 Hang-Up Call,PW,REQUEST FOR PUBLIC WORKS,13,FALSE CALL,200,CHIMNEYTOP DR ,331A,S,31,8753,36.04,-86.662,"(36.04, -86.662)"
PD201800398123,04/19/2018 07:59:00 AM,20180350486,A,88,Investigate 911 Hang-Up Call,PW,REQUEST FOR PUBLIC WORKS,13,FALSE CALL,1200,ARBOR KNOLL BLVD ,331A,S,31,8753,36.04,-86.667,"(36.04, -86.667)"
PD201800399356,04/19/2018 02:58:00 PM,20180351568,A,88,Investigate 911 Hang-Up Call,P,PROGRESS,13,FALSE CALL,1200,MURFREESBORO PKE ,313B,S,15,8833,36.116,-86.699,"(36.116, -86.699)"
PD201800402145,04/20/2018 08:03:00 AM,20180354120,A,88,Investigate 911 Hang-Up Call,PW,REQUEST FOR PUBLIC WORKS,13,FALSE CALL,900,KIPLING DR ,533A,H,31,8825,36.13,-86.698,"(36.13, -86.698)"
PD201800402674,04/20/2018 11:03:00 AM,20180354565,A,88,Investigate 911 Hang-Up Call,P,PROGRESS,13,FALSE CALL,4000,SELLS DR ,523A,H,23,9543,36.169,-86.596,"(36.169, -86.596)"
PD201800404239,04/20/2018 06:57:00 PM,20180355948,B,88,Investigate 911 Hang-Up Call,P,PROGRESS,13,FALSE CALL,1700,BRENTRIDGE CIR ,332B,S,31,8719,36.047,-86.682,"(36.047, -86.682)"
PD201800404788,04/20/2018 09:45:00 PM,20180356322,B,88,Investigate 911 Hang-Up Call,P,PROGRESS,13,FALSE CALL,400,EWING DR ,620B,N,21,3029,36.232,-86.785,"(36.232, -86.785)"
PD201800405104,04/20/2018 11:36:00 PM,20180356685,,88,Investigate 911 Hang-Up Call,P,PROGRESS,13,FALSE CALL,800,CLARK PL ,421C,C,23,4041,36.155,-86.781,"(36.155, -86.781)"
PD201800409355,04/22/2018 03:31:00 PM,20180360060,B,88,Investigate 911 Hang-Up Call,PW,REQUEST FOR PUBLIC WORKS,13,FALSE CALL,1600,11TH AV N ,613B,N,13,4471,36.178,-86.803,"(36.178, -86.803)"
PD201800409492,04/22/2018 04:34:00 PM,20180360143,B,88,Investigate 911 Hang-Up Call,PW,REQUEST FOR PUBLIC WORKS,13,FALSE CALL,1600,CHARLOTTE AV ,810B,MT,13,5503,36.159,-86.797,"(36.159, -86.797)"
PD201800411584,04/23/2018 11:01:00 AM,20180361895,A,88,Investigate 911 Hang-Up Call,P,PROGRESS,13,FALSE CALL,2200,HAMPTON AV ,111A,W,17,6013,36.116,-86.815,"(36.116, -86.815)"
PD201800411956,04/23/2018 01:18:00 PM,20180362197,A,88,Investigate 911 Hang-Up Call,P,PROGRESS,13,FALSE CALL,2600,BRANSFORD AV ,825A,MT,21,8035,36.122,-86.767,"(36.122, -86.767)"
PD201800412480,04/23/2018 04:07:00 PM,20180362628,B,88,Investigate 911 Hang-Up Call,PW,REQUEST FOR PUBLIC WORKS,13,FALSE CALL,1000,MONROE ST ,615B,N,17,4301,36.174,-86.796,"(36.174, -86.796)"
PD201800412690,04/23/2018 05:16:00 PM,20180362791,B,88,Investigate 911 Hang-Up Call,PW,REQUEST FOR PUBLIC WORKS,13,FALSE CALL,3300,LINCOYA CREEK DR ,532B,H,33,8957,36.147,-86.625,"(36.147, -86.625)"
PD201800413002,04/23/2018 07:17:00 PM,20180363037,B,88,Investigate 911 Hang-Up Call,PW,REQUEST FOR PUBLIC WORKS,13,FALSE CALL,2500,OSAGE ST ,612B,N,13,4497,36.176,-86.817,"(36.176, -86.817)"
PD201800449061,05/03/2018 07:16:12 PM,20180394148,B,88,Investigate 911 Hang-Up Call,PW,REQUEST FOR PUBLIC WORKS,13,FALSE CALL,1200,MONTGOMERY AV ,221B,E,21,1905,36.193,-86.757,"(36.193, -86.757)"
PD201800426684,04/27/2018 09:10:22 AM,20180375146,A,88,Investigate 911 Hang-Up Call,P,PROGRESS,13,FALSE CALL,200,W DUE WEST AV ,723A,M,23,1779,36.248,-86.725,"(36.248, -86.725)"
PD201800426820,04/27/2018 10:03:55 AM,20180375409,A,88,Investigate 911 Hang-Up Call,P,PROGRESS,13,FALSE CALL,1400,WEXFORD DOWNS LN ,835A,MT,35,8651,36.021,-86.735,"(36.021, -86.735)"
PD201800428086,04/27/2018 05:03:50 PM,20180376443,B,88,Investigate 911 Hang-Up Call,PW,REQUEST FOR PUBLIC WORKS,13,FALSE CALL,100,OAK HOLLOW ,523B,H,23,9523,36.191,-86.6,"(36.191, -86.6)"
PD201800429054,04/27/2018 11:35:01 PM,20180377100,,88,Investigate 911 Hang-Up Call,P,PROGRESS,13,FALSE CALL,2400,WEST END AV ,813C,MT,13,5615,36.148,-86.807,"(36.148, -86.807)"
PD201800429123,04/28/2018 12:09:10 AM,20180377143,C,88,Investigate 911 Hang-Up Call,P,PROGRESS,13,FALSE CALL,1900,WEST END AV ,811C,MT,11,5709,36.152,-86.798,"(36.152, -86.798)"
PD201800429922,04/28/2018 08:48:31 AM,20180377838,A,88,Investigate 911 Hang-Up Call,PW,REQUEST FOR PUBLIC WORKS,13,FALSE CALL,2100,BROOKVIEW DR ,513A,H,13,9219,36.175,-86.693,"(36.175, -86.693)"
PD201800431354,04/28/2018 08:01:07 PM,20180378996,B,88,Investigate 911 Hang-Up Call,PW,REQUEST FOR PUBLIC WORKS,13,FALSE CALL,1600,COCKRILL ST ,610B,N,13,4475,36.175,-86.806,"(36.175, -86.806)"
PD201800433257,04/29/2018 02:32:51 PM,20180380466,A,88,Investigate 911 Hang-Up Call,PW,REQUEST FOR PUBLIC WORKS,13,FALSE CALL,2200,SUMMITT AV ,623B,N,23,3115,36.199,-86.83,"(36.199, -86.83)"
PD201800436696,04/30/2018 04:02:16 PM,20180383504,B,88,Investigate 911 Hang-Up Call,P,PROGRESS,13,FALSE CALL,3400,BRILEY PARK BLVD N ,712B,M,21,2037,36.245,-86.783,"(36.245, -86.783)"
PD201800437239,04/30/2018 06:51:43 PM,20180383896,B,88,Investigate 911 Hang-Up Call,P,PROGRESS,13,FALSE CALL,500,BROOKSBORO TER ,535B,H,35,8937,36.085,-86.642,"(36.085, -86.642)"
PD201800439426,05/01/2018 09:36:27 AM,20180385886,A,88,Investigate 911 Hang-Up Call,P,PROGRESS,13,FALSE CALL,200,CUMBERLAND BND ,612A,N,11,4401,36.195,-86.79,"(36.195, -86.79)"
PD201800439544,05/01/2018 10:12:52 AM,20180385942,A,88,Investigate 911 Hang-Up Call,P,PROGRESS,13,FALSE CALL,4600,HEDGEWOOD DR ,2S56,E,17,1513,36.228,-86.722,"(36.228, -86.722)"
PD201800439991,05/01/2018 12:41:25 PM,20180386371,A,88,Investigate 911 Hang-Up Call,PW,REQUEST FOR PUBLIC WORKS,13,FALSE CALL,3900,HUTSON AV ,221A,E,25,1813,36.223,-86.739,"(36.223, -86.739)"
PD201800441203,05/01/2018 06:33:48 PM,20180387549,B,88,Investigate 911 Hang-Up Call,PW,REQUEST FOR PUBLIC WORKS,13,FALSE CALL,4000,CEDAR CIR ,624B,N,25,3111,36.214,-86.842,"(36.214, -86.842)"
PD201800441515,05/01/2018 08:38:21 PM,20180387643,B,88,Investigate 911 Hang-Up Call,PW,REQUEST FOR PUBLIC WORKS,13,FALSE CALL,200,N 7TH ST ,2931,E,27,1997,36.178,-86.762,"(36.178, -86.762)"
PD201800442755,05/02/2018 05:03:49 AM,20180388749,C,88,Investigate 911 Hang-Up Call,P,PROGRESS,13,FALSE CALL,100,31ST AV S ,813C,MT,15,5815,36.142,-86.815,"(36.142, -86.815)"
PD201800443627,05/02/2018 11:02:10 AM,20180389527,A,88,Investigate 911 Hang-Up Call,P,PROGRESS,13,FALSE CALL,400,UNION ST ,421A,C,11,4159,36.165,-86.781,"(36.165, -86.781)"
PD201800444645,05/02/2018 04:21:41 PM,20180390401,B,88,Investigate 911 Hang-Up Call,P,PROGRESS,13,FALSE CALL,0,LUTIE ST ,315B,S,13,8329,36.117,-86.738,"(36.117, -86.738)"
PD201800445101,05/02/2018 06:22:45 PM,20180390961,B,88,Investigate 911 Hang-Up Call,PW,REQUEST FOR PUBLIC WORKS,13,FALSE CALL,5100,RICE RD ,325B,S,25,8861,36.071,-86.642,"(36.071, -86.642)"
PD201800446225,05/03/2018 01:02:59 AM,20180391773,C,88,Investigate 911 Hang-Up Call,PW,REQUEST FOR PUBLIC WORKS,13,FALSE CALL,700,MCPHERSON DR ,125C,W,25,4819,36.062,-86.935,"(36.062, -86.935)"
PD201800447026,05/03/2018 07:31:49 AM,20180392559,A,88,Investigate 911 Hang-Up Call,PW,REQUEST FOR PUBLIC WORKS,13,FALSE CALL,0,I65 N ENT RAMP & DICKERSON PKE,221A,E,25,1807,36.237,-86.758,"(36.237, -86.758)"
PD201800447864,05/03/2018 12:24:42 PM,20180393191,A,88,Investigate 911 Hang-Up Call,PW,REQUEST FOR PUBLIC WORKS,13,FALSE CALL,1900,HOBSON PKE ,3S46,S,35,8971,36.048,-86.599,"(36.048, -86.599)"
PD201800448590,05/03/2018 04:38:18 PM,20180393796,B,88,Investigate 911 Hang-Up Call,PW,REQUEST FOR PUBLIC WORKS,13,FALSE CALL,2300,ROSA L PARKS BLVD ,613B,N,11,4483,36.193,-86.808,"(36.193, -86.808)"
PD201800450761,05/04/2018 09:02:22 AM,20180395667,A,88,Investigate 911 Hang-Up Call,PW,REQUEST FOR PUBLIC WORKS,13,FALSE CALL,700,DUE WEST AV N ,711A,M,23,2017,36.25,-86.744,"(36.25, -86.744)"
PD201800451221,05/04/2018 11:45:06 AM,20180396123,A,88,Investigate 911 Hang-Up Call,P,PROGRESS,13,FALSE CALL,0,CENTURY BLVD ,515A,H,13,9115,36.145,-86.687,"(36.145, -86.687)"
PD201800451518,05/04/2018 01:25:53 PM,20180396352,A,88,Investigate 911 Hang-Up Call,PW,REQUEST FOR PUBLIC WORKS,13,FALSE CALL,0,DICKERSON PKE & SPRING ST,221A,E,21,1983,36.177,-86.771,"(36.177, -86.771)"
PD201800452117,05/04/2018 04:49:51 PM,20180396783,B,88,Investigate 911 Hang-Up Call,P,PROGRESS,13,FALSE CALL,800,CLARK PL ,421B,C,23,4041,36.155,-86.781,"(36.155, -86.781)"
PD201800452863,05/04/2018 08:30:56 PM,20180397595,B,88,Investigate 911 Hang-Up Call,P,PROGRESS,13,FALSE CALL,5100,RICE RD ,325B,S,25,8861,36.071,-86.642,"(36.071, -86.642)"
PD201800453176,05/04/2018 10:09:28 PM,20180397678,B,88,Investigate 911 Hang-Up Call,PW,REQUEST FOR PUBLIC WORKS,13,FALSE CALL,4900,AQUATIC RD ,835B,MT,35,8659,36.064,-86.719,"(36.064, -86.719)"
PD201800454612,05/05/2018 11:13:18 AM,20180398875,A,88,Investigate 911 Hang-Up Call,P,PROGRESS,13,FALSE CALL,1700,MAGNOLIA BLVD ,815A,MT,15,6611,36.136,-86.796,"(36.136, -86.796)"
PD201800454992,05/05/2018 02:46:15 PM,20180399292,A,88,Investigate 911 Hang-Up Call,PW,REQUEST FOR PUBLIC WORKS,13,FALSE CALL,3500,FAIRMEADE DR ,623B,N,23,3107,36.223,-86.833,"(36.223, -86.833)"
PD201800457670,05/06/2018 12:48:52 PM,20180401390,A,88,Investigate 911 Hang-Up Call,PW,REQUEST FOR PUBLIC WORKS,13,FALSE CALL,3000,HILLSIDE RD ,227A,E,25,1811,36.228,-86.757,"(36.228, -86.757)"
PD201800458982,05/06/2018 10:28:44 PM,20180402448,B,88,Investigate 911 Hang-Up Call,PW,REQUEST FOR PUBLIC WORKS,13,FALSE CALL,700,OAK CREEK DR ,325C,S,25,8891,36.077,-86.654,"(36.077, -86.654)"
PD201800460235,05/07/2018 09:37:16 AM,20180403545,A,88,Investigate 911 Hang-Up Call,P,PROGRESS,13,FALSE CALL,2000,ROSA L PARKS BLVD ,613A,N,11,4445,36.189,-86.8,"(36.189, -86.8)"
PD201800462016,05/07/2018 07:18:37 PM,20180405046,B,88,Investigate 911 Hang-Up Call,PW,REQUEST FOR PUBLIC WORKS,13,FALSE CALL,5000,CLARKSVILLE PKE ,625B,N,27,3229,36.257,-86.848,"(36.257, -86.848)"
PD201800464302,05/08/2018 10:56:36 AM,20180407099,A,88,Investigate 911 Hang-Up Call,P,PROGRESS,13,FALSE CALL,200,2ND AV N ,423A,C,15,4135,36.166,-86.777,"(36.166, -86.777)"
PD201800464529,05/08/2018 12:28:08 PM,20180407305,A,88,Investigate 911 Hang-Up Call,P,PROGRESS,13,FALSE CALL,500,LIGON DR ,823A,MT,21,8037,36.122,-86.764,"(36.122, -86.764)"
PD201800464847,05/08/2018 02:07:04 PM,20180407575,A,88,Investigate 911 Hang-Up Call,PW,REQUEST FOR PUBLIC WORKS,13,FALSE CALL,1300,MAGNOLIA RD ,823A,MT,21,8033,36.131,-86.772,"(36.131, -86.772)"
PD201800465287,05/08/2018 04:18:39 PM,20180408231,B,88,Investigate 911 Hang-Up Call,P,PROGRESS,13,FALSE CALL,6100,NOLENSVILLE PKE ,3F17,S,31,8759,36.023,-86.712,"(36.023, -86.712)"
PD201800467920,05/09/2018 08:24:41 AM,20180410252,A,88,Investigate 911 Hang-Up Call,P,PROGRESS,13,FALSE CALL,1100,CHARLOTTE AV ,423A,C,11,4205,36.162,-86.791,"(36.162, -86.791)"
PD201800469315,05/09/2018 03:46:53 PM,20180411472,B,88,Investigate 911 Hang-Up Call,P,PROGRESS,13,FALSE CALL,800,GALE LN ,823B,MT,23,6957,36.118,-86.776,"(36.118, -86.776)"
PD201800471967,05/10/2018 07:22:20 AM,20180413868,A,88,Investigate 911 Hang-Up Call,PW,REQUEST FOR PUBLIC WORKS,13,FALSE CALL,500,GALLATIN AV ,217A,E,13,1243,36.183,-86.748,"(36.183, -86.748)"
PD201800472126,05/10/2018 08:14:11 AM,20180413936,A,88,Investigate 911 Hang-Up Call,P,PROGRESS,13,FALSE CALL,1800,CHURCH ST ,815A,MT,13,5513,36.155,-86.798,"(36.155, -86.798)"
PD201800472790,05/10/2018 12:53:17 PM,20180414509,A,88,Investigate 911 Hang-Up Call,PW,REQUEST FOR PUBLIC WORKS,13,FALSE CALL,1600,TREUTLAN PL ,221A,E,21,1971,36.18,-86.767,"(36.18, -86.767)"
PD201800473187,05/10/2018 03:07:21 PM,20180414832,B,88,Investigate 911 Hang-Up Call,PW,REQUEST FOR PUBLIC WORKS,13,FALSE CALL,1300,FORREST PARK DR ,117B,W,17,6209,36.086,-86.87,"(36.086, -86.87)"
PD201800473314,05/10/2018 03:42:01 PM,20180414999,B,88,Investigate 911 Hang-Up Call,P,PROGRESS,13,FALSE CALL,7400,HIGHWAY 100 ,122B,W,25,4807,36.058,-86.92,"(36.058, -86.92)"
PD201800473781,05/10/2018 05:53:54 PM,20180415558,B,88,Investigate 911 Hang-Up Call,P,PROGRESS,13,FALSE CALL,300,4TH AV N ,425B,C,11,4159,36.166,-86.78,"(36.166, -86.78)"
PD201800473862,05/10/2018 06:17:07 PM,20180415407,B,88,Investigate 911 Hang-Up Call,PW,REQUEST FOR PUBLIC WORKS,13,FALSE CALL,5500,SCRUGGS LN ,621B,N,21,3007,36.204,-86.782,"(36.204, -86.782)"
PD201800474872,05/10/2018 11:46:14 PM,20180416281,,88,Investigate 911 Hang-Up Call,PW,REQUEST FOR PUBLIC WORKS,13,FALSE CALL,400,SAFFORD VIEW DR ,535C,H,35,8981,36.076,-86.621,"(36.076, -86.621)"
PD201800476180,05/11/2018 09:43:36 AM,20180417448,A,88,Investigate 911 Hang-Up Call,PW,REQUEST FOR PUBLIC WORKS,13,FALSE CALL,500,BARBARA DR ,715A,M,23,1779,36.253,-86.726,"(36.253, -86.726)"
PD201800476221,05/11/2018 09:59:12 AM,20180417545,A,88,Investigate 911 Hang-Up Call,P,PROGRESS,13,FALSE CALL,400,MURFREESBORO PKE ,311A,S,11,8119,36.144,-86.748,"(36.144, -86.748)"
PD201800476586,05/11/2018 12:01:44 PM,20180417829,A,88,Investigate 911 Hang-Up Call,P,PROGRESS,13,FALSE CALL,900,38TH AV N ,1F44,W,11,4531,36.16,-86.832,"(36.16, -86.832)"
PD201800476770,05/11/2018 12:51:36 PM,20180417932,A,88,Investigate 911 Hang-Up Call,P,PROGRESS,13,FALSE CALL,400,CHARLOTTE AV ,5821,C,11,4203,36.166,-86.782,"(36.166, -86.782)"
PD201800476852,05/11/2018 01:18:14 PM,20180418005,A,88,Investigate 911 Hang-Up Call,P,PROGRESS,13,FALSE CALL,400,CHARLOTTE AV ,5821,C,11,4203,36.166,-86.782,"(36.166, -86.782)"
PD201800477297,05/11/2018 03:33:00 PM,20180418373,B,88,Investigate 911 Hang-Up Call,P,PROGRESS,13,FALSE CALL,200,CUMBERLAND BND ,611B,N,11,4401,36.195,-86.79,"(36.195, -86.79)"
PD201800478338,05/11/2018 08:22:55 PM,20180419559,B,88,Investigate 911 Hang-Up Call,PW,REQUEST FOR PUBLIC WORKS,13,FALSE CALL,600,LANE CT ,605,N,23,3043,36.222,-86.807,"(36.222, -86.807)"
PD201800479919,05/12/2018 10:31:34 AM,20180420613,A,88,Investigate 911 Hang-Up Call,P,PROGRESS,13,FALSE CALL,300,4TH AV N ,423A,C,11,4159,36.166,-86.78,"(36.166, -86.78)"
PD201800480347,05/12/2018 01:27:27 PM,20180420964,A,88,Investigate 911 Hang-Up Call,P,PROGRESS,13,FALSE CALL,500,DEADERICK ST ,423A,C,11,4157,36.165,-86.782,"(36.165, -86.782)"
PD201800480370,05/12/2018 01:42:42 PM,20180421018,A,88,Investigate 911 Hang-Up Call,P,PROGRESS,13,FALSE CALL,1800,PRIMROSE AV ,815B,MT,15,6501,36.121,-86.8,"(36.121, -86.8)"
PD201800480483,05/12/2018 02:47:14 PM,20180421047,A,88,Investigate 911 Hang-Up Call,PW,REQUEST FOR PUBLIC WORKS,13,FALSE CALL,1400,LITTON AV ,217B,E,17,1413,36.202,-86.732,"(36.202, -86.732)"
PD201800481320,05/12/2018 08:15:07 PM,20180421739,B,88,Investigate 911 Hang-Up Call,PW,REQUEST FOR PUBLIC WORKS,13,FALSE CALL,3300,PANORAMA DR ,625B,N,25,3133,36.186,-86.845,"(36.186, -86.845)"
PD201800482529,05/13/2018 06:46:46 AM,20180422667,C,88,Investigate 911 Hang-Up Call,P,PROGRESS,13,FALSE CALL,200,CUMBERLAND BND ,623A,N,11,4401,36.195,-86.79,"(36.195, -86.79)"
PD201800482912,05/13/2018 10:54:46 AM,20180423040,A,88,Investigate 911 Hang-Up Call,P,PROGRESS,13,FALSE CALL,2500,BUCHANAN ST ,621A,N,13,4463,36.18,-86.818,"(36.18, -86.818)"
PD201800483225,05/13/2018 01:33:40 PM,20180423341,A,88,Investigate 911 Hang-Up Call,PW,REQUEST FOR PUBLIC WORKS,13,FALSE CALL,600,FLINTLOCK CT ,535B,H,35,8937,36.086,-86.633,"(36.086, -86.633)"
PD201800483417,05/13/2018 03:16:02 PM,20180423416,B,88,Investigate 911 Hang-Up Call,P,PROGRESS,13,FALSE CALL,1400,OTAY ST ,213B,E,17,1431,36.199,-86.733,"(36.199, -86.733)"
PD201800483429,05/13/2018 03:20:09 PM,20180423609,B,88,Investigate 911 Hang-Up Call,P,PROGRESS,13,FALSE CALL,3200,LINCOLN AV ,623B,N,23,3151,36.201,-86.829,"(36.201, -86.829)"
PD201800484008,05/13/2018 06:56:51 PM,20180423907,B,88,Investigate 911 Hang-Up Call,PW,REQUEST FOR PUBLIC WORKS,13,FALSE CALL,3900,MURFREESBORO PKE ,335B,S,35,8903,36.039,-86.602,"(36.039, -86.602)"
PD201800485371,05/14/2018 07:13:54 AM,20180425114,A,88,Investigate 911 Hang-Up Call,PW,REQUEST FOR PUBLIC WORKS,13,FALSE CALL,3000,EWINGDALE DR ,623A,N,21,3045,36.234,-86.793,"(36.234, -86.793)"
PD201800485859,05/14/2018 09:53:41 AM,20180425584,A,88,Investigate 911 Hang-Up Call,P,PROGRESS,13,FALSE CALL,200,10TH AV S ,411A,C,23,4019,36.156,-86.783,"(36.156, -86.783)"
PD201800486185,05/14/2018 12:04:32 PM,20180425820,A,88,Investigate 911 Hang-Up Call,PW,REQUEST FOR PUBLIC WORKS,13,FALSE CALL,100,DONALD ST ,221A,E,23,1891,36.211,-86.763,"(36.211, -86.763)"
PD201800486520,05/14/2018 02:10:21 PM,20180426193,A,88,Investigate 911 Hang-Up Call,P,PROGRESS,13,FALSE CALL,3600,WOODMONT BLVD ,117B,W,17,6015,36.116,-86.83,"(36.116, -86.83)"
PD201800486887,05/14/2018 04:10:42 PM,20180426407,B,88,Investigate 911 Hang-Up Call,PW,REQUEST FOR PUBLIC WORKS,13,FALSE CALL,1100,VULTEE BLVD ,532B,H,31,8821,36.125,-86.706,"(36.125, -86.706)"
PD201800487070,05/14/2018 05:09:02 PM,20180426574,B,88,Investigate 911 Hang-Up Call,PW,REQUEST FOR PUBLIC WORKS,13,FALSE CALL,8200,SAWYER BROWN RD ,125B,W,25,4811,36.076,-86.946,"(36.076, -86.946)"
PD201800489389,05/15/2018 09:47:52 AM,20180428627,A,88,Investigate 911 Hang-Up Call,PW,REQUEST FOR PUBLIC WORKS,13,FALSE CALL,2000,TRAEMOOR VILLAGE DR ,121A,W,23,4709,36.116,-86.925,"(36.116, -86.925)"
PD201800489634,05/15/2018 11:14:25 AM,20180428833,A,88,Investigate 911 Hang-Up Call,P,PROGRESS,13,FALSE CALL,3900,GALLATIN PKE ,221A,E,25,1817,36.219,-86.728,"(36.219, -86.728)"
PD201800489637,05/15/2018 11:18:05 AM,20180428842,A,88,Investigate 911 Hang-Up Call,P,PROGRESS,13,FALSE CALL,1100,BELL GRIMES LN ,727A,M,25,2025,36.27,-86.762,"(36.27, -86.762)"
PD201800489660,05/15/2018 11:31:05 AM,20180428857,A,88,Investigate 911 Hang-Up Call,P,PROGRESS,13,FALSE CALL,5200,ANCHORAGE DR ,833A,MT,33,8617,36.058,-86.764,"(36.058, -86.764)"
PD201800493368,05/16/2018 11:56:02 AM,20180432143,A,88,Investigate 911 Hang-Up Call,P,PROGRESS,13,FALSE CALL,2500,MURFREESBORO PKE ,535A,H,35,8939,36.076,-86.64,"(36.076, -86.64)"
PD201800493352,05/16/2018 11:48:51 AM,20180432228,A,88,Investigate 911 Hang-Up Call,P,PROGRESS,13,FALSE CALL,500,MAINSTREAM DR ,615A,N,11,4443,36.2,-86.808,"(36.2, -86.808)"
PD201800494353,05/16/2018 05:32:35 PM,20180432921,B,88,Investigate 911 Hang-Up Call,P,PROGRESS,13,FALSE CALL,2200,15TH AV N ,615B,N,11,4439,36.188,-86.811,"(36.188, -86.811)"
PD201800495037,05/16/2018 09:25:47 PM,20180433512,B,88,Investigate 911 Hang-Up Call,P,PROGRESS,13,FALSE CALL,2600,ELM HILL PKE ,515B,H,17,9105,36.152,-86.676,"(36.152, -86.676)"
PD201800496523,05/17/2018 08:28:42 AM,20180434911,A,88,Investigate 911 Hang-Up Call,PW,REQUEST FOR PUBLIC WORKS,13,FALSE CALL,4500,GRANNY WHITE PKE ,821A,MT,25,7023,36.09,-86.803,"(36.09, -86.803)"
PD201800496689,05/17/2018 09:35:08 AM,20180434978,A,88,Investigate 911 Hang-Up Call,P,PROGRESS,13,FALSE CALL,1200,2ND AV S ,3S51,S,11,8167,36.145,-86.764,"(36.145, -86.764)"
PD201800496909,05/17/2018 11:05:36 AM,20180435162,A,88,Investigate 911 Hang-Up Call,PW,REQUEST FOR PUBLIC WORKS,13,FALSE CALL,12800,OLD HICKORY BLVD ,3S41,S,33,8867,36.031,-86.621,"(36.031, -86.621)"
PD201800497310,05/17/2018 01:12:52 PM,20180435506,A,88,Investigate 911 Hang-Up Call,PW,REQUEST FOR PUBLIC WORKS,13,FALSE CALL,1600,WOODMONT BLVD ,821A,MT,23,6419,36.113,-86.802,"(36.113, -86.802)"
PD201800497923,05/17/2018 04:25:51 PM,20180436095,B,88,Investigate 911 Hang-Up Call,PW,REQUEST FOR PUBLIC WORKS,13,FALSE CALL,400,W TRINITY LN ,621B,N,21,3009,36.207,-86.784,"(36.207, -86.784)"
PD201800497945,05/17/2018 04:34:32 PM,20180436135,B,88,Investigate 911 Hang-Up Call,P,PROGRESS,13,FALSE CALL,200,4TH AV N ,413B,C,15,4137,36.165,-86.779,"(36.165, -86.779)"
PD201800498099,05/17/2018 05:20:21 PM,20180436347,B,88,Investigate 911 Hang-Up Call,PW,REQUEST FOR PUBLIC WORKS,13,FALSE CALL,600,BAYHILL CT ,523B,H,23,9513,36.196,-86.591,"(36.196, -86.591)"
PD201800499068,05/17/2018 10:55:33 PM,20180436980,B,88,Investigate 911 Hang-Up Call,P,PROGRESS,13,FALSE CALL,100,WOODLAND ST ,413C,C,13,1133,36.169,-86.771,"(36.169, -86.771)"
PD201800500387,05/18/2018 09:47:39 AM,20180438210,A,88,Investigate 911 Hang-Up Call,P,PROGRESS,13,FALSE CALL,0,MUSIC SQ E ,811A,MT,11,6715,36.149,-86.792,"(36.149, -86.792)"
PD201800500667,05/18/2018 11:15:48 AM,20180438460,A,88,Investigate 911 Hang-Up Call,PW,REQUEST FOR PUBLIC WORKS,13,FALSE CALL,12800,OLD HICKORY BLVD ,3S42,S,33,8867,36.031,-86.621,"(36.031, -86.621)"
PD201800500776,05/18/2018 11:52:57 AM,20180438547,A,88,Investigate 911 Hang-Up Call,P,PROGRESS,13,FALSE CALL,12800,OLD HICKORY BLVD ,3S42,S,33,8867,36.031,-86.621,"(36.031, -86.621)"
PD201800501563,05/18/2018 04:18:13 PM,20180439191,B,88,Investigate 911 Hang-Up Call,PW,REQUEST FOR PUBLIC WORKS,13,FALSE CALL,600,7TH AV S ,413B,C,23,4023,36.152,-86.778,"(36.152, -86.778)"
PD201800504095,05/19/2018 11:06:08 AM,20180441498,A,88,Investigate 911 Hang-Up Call,PW,REQUEST FOR PUBLIC WORKS,13,FALSE CALL,100,LAFAYETTE ST ,5F23,H,11,8209,36.148,-86.759,"(36.148, -86.759)"
PD201800504711,05/19/2018 03:37:44 PM,20180441925,B,88,Investigate 911 Hang-Up Call,P,PROGRESS,13,FALSE CALL,700,5TH AV S ,423B,C,25,4027,36.152,-86.773,"(36.152, -86.773)"
PD201800505097,05/19/2018 05:41:36 PM,20180442227,B,88,Investigate 911 Hang-Up Call,PW,REQUEST FOR PUBLIC WORKS,13,FALSE CALL,2600,BUCHANAN ST ,611B,N,11,4449,36.181,-86.822,"(36.181, -86.822)"
PD201800505230,05/19/2018 06:24:45 PM,20180442231,B,88,Investigate 911 Hang-Up Call,P,PROGRESS,13,FALSE CALL,300,4TH AV N ,411B,C,11,4159,36.166,-86.78,"(36.166, -86.78)"
PD201800505798,05/19/2018 09:51:39 PM,20180442805,B,88,Investigate 911 Hang-Up Call,PW,REQUEST FOR PUBLIC WORKS,13,FALSE CALL,200,MISTY CAPE CV ,523B,H,23,9545,36.161,-86.592,"(36.161, -86.592)"
PD201800506965,05/20/2018 08:21:24 AM,20180443763,A,88,Investigate 911 Hang-Up Call,P,PROGRESS,13,FALSE CALL,3400,CHANDLER COVE WAY ,321A,S,31,8761,36.021,-86.676,"(36.021, -86.676)"
PD201800507678,05/20/2018 02:48:00 PM,20180444486,A,88,Investigate 911 Hang-Up Call,PW,REQUEST FOR PUBLIC WORKS,13,FALSE CALL,200,BATTLE RD ,333B,S,33,8771,36.002,-86.626,"(36.002, -86.626)"
PD201800508695,05/20/2018 09:41:52 PM,20180445154,B,88,Investigate 911 Hang-Up Call,P,PROGRESS,13,FALSE CALL,200,COLT DR ,125C,W,25,4813,36.088,-86.942,"(36.088, -86.942)"
PD201800510019,05/21/2018 09:50:39 AM,20180446294,A,88,Investigate 911 Hang-Up Call,P,PROGRESS,13,FALSE CALL,1100,CHARLOTTE AV ,415A,C,11,4205,36.162,-86.791,"(36.162, -86.791)"
PD201800510028,05/21/2018 09:53:47 AM,20180446342,A,88,Investigate 911 Hang-Up Call,P,PROGRESS,13,FALSE CALL,800,LYNCH DR ,811A,MT,21,8023,36.131,-86.765,"(36.131, -86.765)"
PD201800510144,05/21/2018 10:35:10 AM,20180446396,A,88,Investigate 911 Hang-Up Call,P,PROGRESS,13,FALSE CALL,400,CHURCH ST ,423A,C,11,4129,36.163,-86.78,"(36.163, -86.78)"
PD201800510262,05/21/2018 11:29:12 AM,20180446779,A,88,Investigate 911 Hang-Up Call,P,PROGRESS,13,FALSE CALL,400,CHURCH ST ,421A,C,11,4139,36.164,-86.78,"(36.164, -86.78)"
PD201800510942,05/21/2018 03:16:47 PM,20180446984,B,88,Investigate 911 Hang-Up Call,P,PROGRESS,13,FALSE CALL,600,OLD HICKORY BLVD ,521B,H,25,9619,36.267,-86.668,"(36.267, -86.668)"
PD201800511056,05/21/2018 03:53:29 PM,20180447080,B,88,Investigate 911 Hang-Up Call,P,PROGRESS,13,FALSE CALL,300,4TH AV N ,411B,C,11,4159,36.166,-86.78,"(36.166, -86.78)"
PD201800512058,05/21/2018 08:45:34 PM,20180447967,B,88,Investigate 911 Hang-Up Call,PW,REQUEST FOR PUBLIC WORKS,13,FALSE CALL,3100,ROLLINGSTONE DR ,333B,S,35,8925,36.072,-86.617,"(36.072, -86.617)"
PD201800513373,05/22/2018 06:58:40 AM,20180449154,C,88,Investigate 911 Hang-Up Call,P,PROGRESS,13,FALSE CALL,12800,OLD HICKORY BLVD ,3S42,S,33,8867,36.031,-86.621,"(36.031, -86.621)"
PD201800513683,05/22/2018 08:54:05 AM,20180449579,A,88,Investigate 911 Hang-Up Call,PW,REQUEST FOR PUBLIC WORKS,13,FALSE CALL,1900,LOUANNE DR ,535A,H,31,8827,36.139,-86.703,"(36.139, -86.703)"
PD201800514528,05/22/2018 01:49:14 PM,20180450272,A,88,Investigate 911 Hang-Up Call,P,PROGRESS,13,FALSE CALL,1200,DEMONBREUN ST ,425B,C,23,4015,36.154,-86.786,"(36.154, -86.786)"
PD201800514666,05/22/2018 02:47:29 PM,20180450266,A,88,Investigate 911 Hang-Up Call,P,PROGRESS,13,FALSE CALL,2600,BRANSFORD AV ,BHPD,MT,21,8035,36.122,-86.767,"(36.122, -86.767)"
PD201800517728,05/23/2018 10:09:37 AM,20180452985,A,88,Investigate 911 Hang-Up Call,PW,REQUEST FOR PUBLIC WORKS,13,FALSE CALL,2600,LEBANON PKE ,515A,H,15,9309,36.17,-86.671,"(36.17, -86.671)"
PD201800517754,05/23/2018 10:18:20 AM,20180453044,A,88,Investigate 911 Hang-Up Call,PW,REQUEST FOR PUBLIC WORKS,13,FALSE CALL,3400,WOODLAND STAR WAY ,615A,N,21,3023,36.227,-86.794,"(36.227, -86.794)"
PD201800517932,05/23/2018 11:15:52 AM,20180453074,A,88,Investigate 911 Hang-Up Call,P,PROGRESS,13,FALSE CALL,400,22ND AV N ,611A,N,15,5339,36.157,-86.807,"(36.157, -86.807)"
PD201800518754,05/23/2018 04:11:23 PM,20180453788,B,88,Investigate 911 Hang-Up Call,P,PROGRESS,13,FALSE CALL,100,31ST AV S ,815B,MT,15,5815,36.142,-86.815,"(36.142, -86.815)"
PD201800519819,05/23/2018 09:48:53 PM,20180454875,B,88,Investigate 911 Hang-Up Call,PW,REQUEST FOR PUBLIC WORKS,13,FALSE CALL,800,CHARLIE PL ,623C,N,23,3025,36.223,-86.818,"(36.223, -86.818)"
PD201800520503,05/24/2018 02:24:59 AM,20180455308,C,88,Investigate 911 Hang-Up Call,P,PROGRESS,13,FALSE CALL,4500,POST RD ,125C,W,21,5017,36.125,-86.854,"(36.125, -86.854)"
PD201800521828,05/24/2018 12:22:58 PM,20180456570,A,88,Investigate 911 Hang-Up Call,P,PROGRESS,13,FALSE CALL,4200,MURFREESBORO PKE ,331A,S,35,8967,36.028,-86.589,"(36.028, -86.589)"
PD201800521870,05/24/2018 12:36:27 PM,20180456499,A,88,Investigate 911 Hang-Up Call,P,PROGRESS,13,FALSE CALL,6200,WILLIAMS GROVE DR ,833A,MT,33,8623,36.017,-86.742,"(36.017, -86.742)"
PD201800522217,05/24/2018 02:42:09 PM,20180457077,A,88,Investigate 911 Hang-Up Call,PW,REQUEST FOR PUBLIC WORKS,13,FALSE CALL,2700,JENKINS ST ,622B,N,11,4449,36.182,-86.822,"(36.182, -86.822)"
PD201800522720,05/24/2018 05:09:44 PM,20180457242,B,88,Investigate 911 Hang-Up Call,PW,REQUEST FOR PUBLIC WORKS,13,FALSE CALL,700,BELL RD ,3F11,S,25,8861,36.051,-86.649,"(36.051, -86.649)"
PD201800523522,05/24/2018 09:09:15 PM,20180457865,B,88,Investigate 911 Hang-Up Call,PW,REQUEST FOR PUBLIC WORKS,13,FALSE CALL,200,GRIZZARD AV ,223B,E,23,1829,36.21,-86.77,"(36.21, -86.77)"
PD201800526260,05/25/2018 04:33:55 PM,20180460402,B,88,Investigate 911 Hang-Up Call,PW,REQUEST FOR PUBLIC WORKS,13,FALSE CALL,500,HOLT VALLEY RD ,120B,W,25,4815,36.089,-86.931,"(36.089, -86.931)"
PD201800526446,05/25/2018 05:41:36 PM,20180460360,B,88,Investigate 911 Hang-Up Call,PW,REQUEST FOR PUBLIC WORKS,13,FALSE CALL,1500,JONES AV ,221B,E,21,1873,36.201,-86.759,"(36.201, -86.759)"
PD201800528688,05/26/2018 12:22:45 PM,20180462325,A,88,Investigate 911 Hang-Up Call,PW,REQUEST FOR PUBLIC WORKS,13,FALSE CALL,3600,HUNTINGBORO TRL ,335B,S,35,8923,36.073,-86.595,"(36.073, -86.595)"
PD201800529009,05/26/2018 03:13:59 PM,20180462460,B,88,Investigate 911 Hang-Up Call,PW,REQUEST FOR PUBLIC WORKS,13,FALSE CALL,5800,OLD HICKORY BLVD ,523B,H,21,9527,36.168,-86.6,"(36.168, -86.6)"
PD201800529422,05/26/2018 06:23:10 PM,20180462910,B,88,Investigate 911 Hang-Up Call,PW,REQUEST FOR PUBLIC WORKS,13,FALSE CALL,800,STONER MILL LN ,523B,H,23,9525,36.204,-86.586,"(36.204, -86.586)"
PD201800532166,05/27/2018 06:19:49 PM,20180465044,B,88,Investigate 911 Hang-Up Call,PW,REQUEST FOR PUBLIC WORKS,13,FALSE CALL,5100,SINGING HILLS DR ,335B,S,35,8967,36.034,-86.586,"(36.034, -86.586)"
PD201800532958,05/28/2018 12:00:44 AM,20180465690,C,88,Investigate 911 Hang-Up Call,PW,REQUEST FOR PUBLIC WORKS,13,FALSE CALL,200,E PALESTINE AV ,711C,M,11,1507,36.25,-86.715,"(36.25, -86.715)"
PD201800534946,05/28/2018 04:56:19 PM,20180467427,B,88,Investigate 911 Hang-Up Call,P,PROGRESS,13,FALSE CALL,2500,TINNIN RD ,723B,M,25,2215,36.398,-86.745,"(36.398, -86.745)"
PD201800536180,05/29/2018 03:07:35 AM,20180468472,C,88,Investigate 911 Hang-Up Call,PW,REQUEST FOR PUBLIC WORKS,13,FALSE CALL,1300,ANTIOCH PKE ,325C,S,23,8847,36.085,-86.69,"(36.085, -86.69)"
PD201800537324,05/29/2018 12:23:43 PM,20180469470,A,88,Investigate 911 Hang-Up Call,P,PROGRESS,13,FALSE CALL,100,WOODMONT BLVD ,117B,W,17,6021,36.125,-86.847,"(36.125, -86.847)"
PD201800537411,05/29/2018 01:01:17 PM,20180469484,A,88,Investigate 911 Hang-Up Call,P,PROGRESS,13,FALSE CALL,1400,MURFREESBORO PKE ,311A,S,15,8835,36.114,-86.691,"(36.114, -86.691)"
PD201800537567,05/29/2018 02:10:29 PM,20180469586,A,88,Investigate 911 Hang-Up Call,PW,REQUEST FOR PUBLIC WORKS,13,FALSE CALL,3100,RICHMOND HILL DR ,725A,M,21,2031,36.236,-86.781,"(36.236, -86.781)"
PD201800541262,05/30/2018 05:41:26 PM,20180472713,B,88,Investigate 911 Hang-Up Call,PW,REQUEST FOR PUBLIC WORKS,13,FALSE CALL,1700,RIVERSIDE DR ,217B,E,17,1405,36.198,-86.724,"(36.198, -86.724)"
PD201800541502,05/30/2018 07:08:48 PM,20180472882,B,88,Investigate 911 Hang-Up Call,P,PROGRESS,13,FALSE CALL,2500,JEFFERSON ST ,610B,N,13,4561,36.169,-86.816,"(36.169, -86.816)"
PD201800542778,05/31/2018 03:01:25 AM,20180474061,C,88,Investigate 911 Hang-Up Call,P,PROGRESS,13,FALSE CALL,7400,COCKRILL BEND BLVD ,115C,W,15,4653,36.18,-86.896,"(36.18, -86.896)"
PD201800543648,05/31/2018 09:09:03 AM,20180474876,A,88,Investigate 911 Hang-Up Call,P,PROGRESS,13,FALSE CALL,7000,CHARLOTTE PKE ,123A,W,23,4703,36.129,-86.906,"(36.129, -86.906)"
PD201800544526,05/31/2018 02:25:21 PM,20180475642,A,88,Investigate 911 Hang-Up Call,PW,REQUEST FOR PUBLIC WORKS,13,FALSE CALL,800,GRANADA AV ,221B,E,21,1903,36.189,-86.756,"(36.189, -86.756)"
PD201800544615,05/31/2018 03:00:46 PM,20180475875,B,88,Investigate 911 Hang-Up Call,PW,REQUEST FOR PUBLIC WORKS,13,FALSE CALL,4000,NOLENSVILLE PKE ,3F11,S,17,8445,36.082,-86.726,"(36.082, -86.726)"
PD201800545346,05/31/2018 06:16:20 PM,20180476316,B,88,Investigate 911 Hang-Up Call,P,PROGRESS,13,FALSE CALL,200,CUMBERLAND BND ,611B,N,11,4401,36.195,-86.79,"(36.195, -86.79)"
PD201800545395,05/31/2018 06:29:58 PM,20180476391,B,88,Investigate 911 Hang-Up Call,P,PROGRESS,13,FALSE CALL,700,HIDDEN HILL DR ,521B,H,23,9525,36.205,-86.585,"(36.205, -86.585)"
PD201800545444,05/31/2018 06:43:34 PM,20180476318,B,88,Investigate 911 Hang-Up Call,PW,REQUEST FOR PUBLIC WORKS,13,FALSE CALL,900,WARD ST ,221B,E,21,1875,36.198,-86.754,"(36.198, -86.754)"
PD201800545893,05/31/2018 08:56:15 PM,20180476743,B,88,Investigate 911 Hang-Up Call,P,PROGRESS,13,FALSE CALL,100,N 1ST ST ,425B,C,13,1989,36.174,-86.775,"(36.174, -86.775)"
PD201800547573,06/01/2018 08:51:57 AM,20180478263,A,88,Investigate 911 Hang-Up Call,P,PROGRESS,13,FALSE CALL,1200,CLINTON ST ,613A,N,15,5423,36.165,-86.796,"(36.165, -86.796)"
PD201800547670,06/01/2018 09:25:40 AM,20180478377,A,88,Investigate 911 Hang-Up Call,P,PROGRESS,13,FALSE CALL,1500,J P HENNESSY DR ,333A,S,33,8869,36.013,-86.607,"(36.013, -86.607)"
PD201800548261,06/01/2018 12:47:29 PM,20180478958,A,88,Investigate 911 Hang-Up Call,P,PROGRESS,13,FALSE CALL,900,YOUNGS LN ,621B,N,23,3011,36.204,-86.809,"(36.204, -86.809)"
PD201800548530,06/01/2018 02:30:22 PM,20180479087,A,88,Investigate 911 Hang-Up Call,P,PROGRESS,13,FALSE CALL,1200,DEMONBREUN ST ,421B,C,23,4015,36.154,-86.786,"(36.154, -86.786)"
PD201800548904,06/01/2018 04:35:41 PM,20180479535,B,88,Investigate 911 Hang-Up Call,P,PROGRESS,13,FALSE CALL,1700,HEIMAN ST ,612B,N,13,4475,36.172,-86.806,"(36.172, -86.806)"
PD201800549219,06/01/2018 06:18:35 PM,20180479696,B,88,Investigate 911 Hang-Up Call,P,PROGRESS,13,FALSE CALL,3000,WEST END AV ,811B,MT,13,5625,36.143,-86.815,"(36.143, -86.815)"
PD201800549484,06/01/2018 07:50:29 PM,20180479822,B,88,Investigate 911 Hang-Up Call,PW,REQUEST FOR PUBLIC WORKS,13,FALSE CALL,1900,LOUANNE DR ,531B,H,31,8827,36.139,-86.702,"(36.139, -86.702)"
PD201800549657,06/01/2018 08:54:44 PM,20180480010,B,88,Investigate 911 Hang-Up Call,P,PROGRESS,13,FALSE CALL,600,4TH AV S ,421B,C,25,4037,36.154,-86.773,"(36.154, -86.773)"
PD201800550430,06/02/2018 02:11:13 AM,20180480671,C,88,Investigate 911 Hang-Up Call,PW,REQUEST FOR PUBLIC WORKS,13,FALSE CALL,1300,BELLSHIRE DR ,721C,M,21,2045,36.262,-86.77,"(36.262, -86.77)"
PD201800550885,06/02/2018 06:33:30 AM,20180481060,C,88,Investigate 911 Hang-Up Call,P,PROGRESS,13,FALSE CALL,500,MURFREESBORO PKE ,511A,H,13,8217,36.143,-86.743,"(36.143, -86.743)"
PD201800551684,06/02/2018 01:29:11 PM,20180481843,A,88,Investigate 911 Hang-Up Call,P,PROGRESS,13,FALSE CALL,3100,RICHMOND HILL DR ,712B,M,21,2031,36.236,-86.779,"(36.236, -86.779)"
PD201800551763,06/02/2018 02:13:36 PM,20180481946,A,88,Investigate 911 Hang-Up Call,PW,REQUEST FOR PUBLIC WORKS,13,FALSE CALL,6600,BURKITT RD ,332B,S,33,8769,35.994,-86.649,"(35.994, -86.649)"
PD201800552732,06/02/2018 08:15:49 PM,20180482665,B,88,Investigate 911 Hang-Up Call,P,PROGRESS,13,FALSE CALL,2300,GALLATIN PKE N ,725B,M,27,1721,36.309,-86.68,"(36.309, -86.68)"
PD201800555657,06/03/2018 08:04:35 PM,20180485047,B,88,Investigate 911 Hang-Up Call,PW,REQUEST FOR PUBLIC WORKS,13,FALSE CALL,400,KINGVIEW CT ,623B,N,23,3141,36.217,-86.835,"(36.217, -86.835)"
PD201800555914,06/03/2018 10:10:34 PM,20180485205,B,88,Investigate 911 Hang-Up Call,P,PROGRESS,13,FALSE CALL,400,22ND AV N ,617B,N,15,5339,36.157,-86.807,"(36.157, -86.807)"
PD201800556855,06/04/2018 06:51:54 AM,20180486102,C,88,Investigate 911 Hang-Up Call,P,PROGRESS,13,FALSE CALL,4300,HARDING PKE ,121A,W,13,5109,36.127,-86.845,"(36.127, -86.845)"
PD201800557120,06/04/2018 08:57:22 AM,20180486306,A,88,Investigate 911 Hang-Up Call,PW,REQUEST FOR PUBLIC WORKS,13,FALSE CALL,800,CHEROKEE AV ,221A,E,21,1855,36.201,-86.752,"(36.201, -86.752)"
PD201800557263,06/04/2018 09:59:00 AM,20180486385,A,88,Investigate 911 Hang-Up Call,P,PROGRESS,13,FALSE CALL,1000,HAWKINS ST ,821A,MT,21,6801,36.148,-86.783,"(36.148, -86.783)"
PD201800557497,06/04/2018 11:36:38 AM,20180486571,A,88,Investigate 911 Hang-Up Call,P,PROGRESS,13,FALSE CALL,2300,SUNNETT PL ,835A,MT,35,8651,36.017,-86.73,"(36.017, -86.73)"
PD201800559038,06/04/2018 08:54:02 PM,20180487838,B,88,Investigate 911 Hang-Up Call,P,PROGRESS,13,FALSE CALL,100,ABBOTTSFORD ,117B,W,17,6113,36.104,-86.827,"(36.104, -86.827)"
PD201800560800,06/05/2018 10:36:34 AM,20180489426,A,88,Investigate 911 Hang-Up Call,P,PROGRESS,13,FALSE CALL,500,GREAT CIRCLE RD ,611A,N,11,4443,36.197,-86.809,"(36.197, -86.809)"
PD201800560914,06/05/2018 11:17:02 AM,20180489543,A,88,Investigate 911 Hang-Up Call,P,PROGRESS,13,FALSE CALL,2400,PATTERSON ST ,8F61,MT,13,5619,36.152,-86.809,"(36.152, -86.809)"
PD201800561145,06/05/2018 12:59:42 PM,20180489731,A,88,Investigate 911 Hang-Up Call,PW,REQUEST FOR PUBLIC WORKS,13,FALSE CALL,4700,APOLLO DR ,321A,S,23,8897,36.069,-86.666,"(36.069, -86.666)"
PD201800561147,06/05/2018 01:00:36 PM,20180489692,A,88,Investigate 911 Hang-Up Call,PW,REQUEST FOR PUBLIC WORKS,13,FALSE CALL,1400,BRICK CHURCH PKE ,621A,N,21,3007,36.205,-86.778,"(36.205, -86.778)"
PD201800561299,06/05/2018 01:56:41 PM,20180489809,A,88,Investigate 911 Hang-Up Call,P,PROGRESS,13,FALSE CALL,3800,RICHLAND AV ,123A,W,13,5211,36.134,-86.832,"(36.134, -86.832)"
PD201800561512,06/05/2018 03:14:34 PM,20180490020,B,88,Investigate 911 Hang-Up Call,PW,REQUEST FOR PUBLIC WORKS,13,FALSE CALL,3700,BELL RD ,523B,H,33,8959,36.151,-86.621,"(36.151, -86.621)"
PD201800563893,06/06/2018 06:19:13 AM,20180492064,C,88,Investigate 911 Hang-Up Call,P,,13,FALSE CALL,100,OPRY PL ,423A,C,21,4107,36.161,-86.779,"(36.161, -86.779)"
PD201800564394,06/06/2018 09:29:06 AM,20180492506,A,88,Investigate 911 Hang-Up Call,P,,13,FALSE CALL,600,ATLANTA DR ,5F23,H,23,9537,36.206,-86.593,"(36.206, -86.593)"
PD201800564939,06/06/2018 12:39:26 PM,20180492883,A,88,Investigate 911 Hang-Up Call,P,,13,FALSE CALL,4300,HARDING PKE ,113A,W,13,5109,36.127,-86.845,"(36.127, -86.845)"
PD201800565113,06/06/2018 01:40:26 PM,20180493042,A,88,Investigate 911 Hang-Up Call,P,,13,FALSE CALL,600,E OLD HICKORY BLVD ,711A,M,15,1703,36.263,-86.699,"(36.263, -86.699)"
PD201800565882,06/06/2018 05:37:50 PM,20180493727,B,88,Investigate 911 Hang-Up Call,PW,,13,FALSE CALL,700,S 6TH ST ,213B,E,11,1013,36.166,-86.759,"(36.166, -86.759)"
PD201800566105,06/06/2018 06:52:56 PM,20180493849,B,88,Investigate 911 Hang-Up Call,P,,13,FALSE CALL,600,JAMES ROBERTSON PKWY ,STPAR,C,11,4203,36.169,-86.786,"(36.169, -86.786)"
PD201800566812,06/06/2018 10:45:28 PM,20180494445,B,88,Investigate 911 Hang-Up Call,PW,,13,FALSE CALL,500,3RD AV S ,4F22,C,25,4035,36.156,-86.772,"(36.156, -86.772)"
PD201800568362,06/07/2018 10:32:19 AM,20180495880,A,88,Investigate 911 Hang-Up Call,PW,REQUEST FOR PUBLIC WORKS,13,FALSE CALL,400,E NOCTURNE DR ,625A,N,21,3039,36.215,-86.795,"(36.215, -86.795)"
PD201800568675,06/07/2018 12:05:33 PM,20180496133,A,88,Investigate 911 Hang-Up Call,P,PROGRESS,13,FALSE CALL,100,31ST AV S ,811A,MT,15,5815,36.142,-86.815,"(36.142, -86.815)"
PD201800569445,06/07/2018 03:59:05 PM,20180496756,B,88,Investigate 911 Hang-Up Call,P,PROGRESS,13,FALSE CALL,3100,WEST END AV ,811B,MT,13,5627,36.144,-86.817,"(36.144, -86.817)"
PD201800569600,06/07/2018 04:46:30 PM,20180497105,B,88,Investigate 911 Hang-Up Call,PW,REQUEST FOR PUBLIC WORKS,13,FALSE CALL,1700,CASS ST ,611B,N,11,4485,36.185,-86.813,"(36.185, -86.813)"
PD201800569653,06/07/2018 05:02:19 PM,20180497004,B,88,Investigate 911 Hang-Up Call,P,PROGRESS,13,FALSE CALL,0,VALERIA ST ,313B,S,13,8355,36.121,-86.735,"(36.121, -86.735)"
PD201800570098,06/07/2018 07:38:52 PM,20180497369,B,88,Investigate 911 Hang-Up Call,PW,REQUEST FOR PUBLIC WORKS,13,FALSE CALL,0,CHAPEL AV ,217B,E,15,1339,36.183,-86.736,"(36.183, -86.736)"
PD201800573226,06/08/2018 04:24:50 PM,20180499973,B,88,Investigate 911 Hang-Up Call,PW,REQUEST FOR PUBLIC WORKS,13,FALSE CALL,600,JOSEPH AV ,221B,E,21,1961,36.183,-86.773,"(36.183, -86.773)"
PD201800573229,06/08/2018 04:26:03 PM,20180500048,B,88,Investigate 911 Hang-Up Call,P,PROGRESS,13,FALSE CALL,1000,14TH AV N ,612B,N,15,5415,36.17,-86.801,"(36.17, -86.801)"
PD201800573242,06/08/2018 04:28:29 PM,20180499989,B,88,Investigate 911 Hang-Up Call,PW,REQUEST FOR PUBLIC WORKS,13,FALSE CALL,1000,8TH ST ,525B,H,25,9707,36.263,-86.648,"(36.263, -86.648)"
PD201800573266,06/08/2018 04:34:00 PM,20180500077,B,88,Investigate 911 Hang-Up Call,P,PROGRESS,13,FALSE CALL,1800,12TH AV S ,811B,MT,11,6617,36.136,-86.789,"(36.136, -86.789)"
PD201800575815,06/09/2018 10:57:02 AM,20180502121,A,88,Investigate 911 Hang-Up Call,P,PROGRESS,13,FALSE CALL,2800,OAKLAND AV ,815A,MT,15,6507,36.122,-86.796,"(36.122, -86.796)"
PD201800576129,06/09/2018 01:24:33 PM,20180502358,A,88,Investigate 911 Hang-Up Call,P,PROGRESS,13,FALSE CALL,4300,HARDING PKE ,113A,W,13,5109,36.127,-86.845,"(36.127, -86.845)"
PD201800576236,06/09/2018 02:21:27 PM,20180502437,A,88,Investigate 911 Hang-Up Call,PW,REQUEST FOR PUBLIC WORKS,13,FALSE CALL,500,14TH AV N ,615B,N,15,5425,36.163,-86.796,"(36.163, -86.796)"
PD201800576528,06/09/2018 04:21:32 PM,20180502696,B,88,Investigate 911 Hang-Up Call,P,PROGRESS,13,FALSE CALL,3200,LINCOLN AV ,622B,N,23,3151,36.201,-86.829,"(36.201, -86.829)"
PD201800578163,06/10/2018 05:54:09 AM,20180503958,C,88,Investigate 911 Hang-Up Call,P,PROGRESS,13,FALSE CALL,2400,WEST END AV ,813C,MT,13,5615,36.148,-86.807,"(36.148, -86.807)"
PD201800578313,06/10/2018 07:26:25 AM,20180504092,A,88,Investigate 911 Hang-Up Call,P,PROGRESS,13,FALSE CALL,100,WHITE BRIDGE PKE ,113A,W,13,5107,36.137,-86.852,"(36.137, -86.852)"
PD201800580087,06/10/2018 10:23:05 PM,20180505548,B,88,Investigate 911 Hang-Up Call,PW,REQUEST FOR PUBLIC WORKS,13,FALSE CALL,700,HERON POINTE DR ,531C,H,33,8943,36.117,-86.63,"(36.117, -86.63)"
PD201800582260,06/11/2018 03:26:04 PM,20180507256,B,88,Investigate 911 Hang-Up Call,PW,REQUEST FOR PUBLIC WORKS,13,FALSE CALL,800,N 2ND ST ,221B,E,21,1951,36.187,-86.771,"(36.187, -86.771)"
PD201800582516,06/11/2018 04:56:27 PM,20180507528,B,88,Investigate 911 Hang-Up Call,P,PROGRESS,13,FALSE CALL,6100,NOLENSVILLE PKE ,332B,S,31,8759,36.023,-86.712,"(36.023, -86.712)"
PD201800582577,06/11/2018 05:18:56 PM,20180507557,B,88,Investigate 911 Hang-Up Call,P,PROGRESS,13,FALSE CALL,300,4TH AV N ,411B,C,11,4159,36.166,-86.78,"(36.166, -86.78)"
PD201800583859,06/12/2018 01:16:12 AM,20180508578,C,88,Investigate 911 Hang-Up Call,PW,REQUEST FOR PUBLIC WORKS,13,FALSE CALL,2000,CANDLEWOOD DR ,7F82,M,13,1633,36.248,-86.679,"(36.248, -86.679)"
PD201800585123,06/12/2018 10:19:14 AM,20180509733,A,88,Investigate 911 Hang-Up Call,PW,REQUEST FOR PUBLIC WORKS,13,FALSE CALL,6900,NOLENSVILLE PKE ,331A,S,31,8767,35.995,-86.686,"(35.995, -86.686)"
PD201800585263,06/12/2018 11:09:53 AM,20180509888,A,88,Investigate 911 Hang-Up Call,P,PROGRESS,13,FALSE CALL,1200,CLINTON ST ,611A,N,15,5423,36.165,-86.796,"(36.165, -86.796)"
PD201800585573,06/12/2018 01:05:24 PM,20180510174,A,88,Investigate 911 Hang-Up Call,PW,REQUEST FOR PUBLIC WORKS,13,FALSE CALL,300,GREAT CIRCLE RD ,611A,N,11,4499,36.199,-86.794,"(36.199, -86.794)"
PD201800586623,06/12/2018 06:40:57 PM,20180510974,B,88,Investigate 911 Hang-Up Call,P,PROGRESS,13,FALSE CALL,1700,CHARLOTTE AV ,615B,N,15,5401,36.159,-86.799,"(36.159, -86.799)"
PD201800592156,06/14/2018 05:06:02 AM,20180516071,C,88,Investigate 911 Hang-Up Call,P,PROGRESS,13,FALSE CALL,4500,POST RD ,121A,W,21,5017,36.125,-86.854,"(36.125, -86.854)"
PD201800592453,06/14/2018 07:32:23 AM,20180516159,A,88,Investigate 911 Hang-Up Call,PW,REQUEST FOR PUBLIC WORKS,13,FALSE CALL,6500,ROBERTSON AV ,1S41,W,15,4655,36.159,-86.878,"(36.159, -86.878)"
PD201800593673,06/14/2018 03:08:01 PM,20180517265,B,88,Investigate 911 Hang-Up Call,P,PROGRESS,13,FALSE CALL,8300,HIGHWAY 100 ,1F41,W,25,4805,36.035,-86.969,"(36.035, -86.969)"
PD201800596033,06/15/2018 05:21:30 AM,20180519285,C,88,Investigate 911 Hang-Up Call,P,PROGRESS,13,FALSE CALL,500,METROPLEX DR ,317C,S,17,8845,36.095,-86.702,"(36.095, -86.702)"
PD201800597541,06/15/2018 03:00:27 PM,20180520479,B,88,Investigate 911 Hang-Up Call,PW,REQUEST FOR PUBLIC WORKS,13,FALSE CALL,800,LYNNWOOD BLVD ,117B,W,17,6203,36.092,-86.849,"(36.092, -86.849)"
PD201800597592,06/15/2018 03:09:16 PM,20180520550,B,88,Investigate 911 Hang-Up Call,PW,REQUEST FOR PUBLIC WORKS,13,FALSE CALL,3900,ALAMEDA ST ,111B,W,11,4531,36.161,-86.835,"(36.161, -86.835)"
PD201800598147,06/15/2018 05:29:44 PM,20180521084,B,88,Investigate 911 Hang-Up Call,PW,REQUEST FOR PUBLIC WORKS,13,FALSE CALL,200,BONNAFIELD DR ,523B,H,21,9615,36.202,-86.625,"(36.202, -86.625)"
PD201800598636,06/15/2018 08:12:49 PM,20180521422,B,88,Investigate 911 Hang-Up Call,PW,REQUEST FOR PUBLIC WORKS,13,FALSE CALL,100,BENNETT DR ,523B,H,25,9619,36.265,-86.665,"(36.265, -86.665)"
PD201800598753,06/15/2018 08:55:13 PM,20180521497,B,88,Investigate 911 Hang-Up Call,PW,REQUEST FOR PUBLIC WORKS,13,FALSE CALL,600,W NOCTURNE DR ,623B,N,23,3037,36.211,-86.801,"(36.211, -86.801)"
PD201800599131,06/15/2018 11:19:48 PM,20180521819,,88,Investigate 911 Hang-Up Call,PW,REQUEST FOR PUBLIC WORKS,13,FALSE CALL,1900,LOUANNE DR ,535C,H,31,8827,36.139,-86.702,"(36.139, -86.702)"
PD201800600951,06/16/2018 03:25:46 PM,20180523302,B,88,Investigate 911 Hang-Up Call,PW,REQUEST FOR PUBLIC WORKS,13,FALSE CALL,200,MYHR GREEN ,125B,W,25,4811,36.071,-86.932,"(36.071, -86.932)"
PD201800601484,06/16/2018 07:12:04 PM,20180523800,B,88,Investigate 911 Hang-Up Call,PW,REQUEST FOR PUBLIC WORKS,13,FALSE CALL,400,MONA DR ,525B,H,21,9507,36.197,-86.612,"(36.197, -86.612)"
PD201800602666,06/17/2018 04:09:19 AM,20180524734,C,88,Investigate 911 Hang-Up Call,P,PROGRESS,13,FALSE CALL,4300,HARDING PKE ,113C,W,13,5109,36.127,-86.845,"(36.127, -86.845)"
PD201800603440,06/17/2018 12:23:32 PM,20180525387,A,88,Investigate 911 Hang-Up Call,PW,REQUEST FOR PUBLIC WORKS,13,FALSE CALL,900,MURFREESBORO PKE ,335A,S,15,8873,36.129,-86.716,"(36.129, -86.716)"
PD201800604039,06/17/2018 05:13:15 PM,20180525816,B,88,Investigate 911 Hang-Up Call,P,PROGRESS,13,FALSE CALL,8300,HIGHWAY 100 ,117B,W,25,4807,36.036,-86.966,"(36.036, -86.966)"
PD201800605831,06/18/2018 08:26:08 AM,20180527329,A,88,Investigate 911 Hang-Up Call,PW,REQUEST FOR PUBLIC WORKS,13,FALSE CALL,1900,LAURINDA DR ,531A,H,31,8887,36.142,-86.705,"(36.142, -86.705)"
PD201800607062,06/18/2018 04:42:37 PM,20180528397,B,88,Investigate 911 Hang-Up Call,PW,REQUEST FOR PUBLIC WORKS,13,FALSE CALL,3500,CHESAPEAKE DR ,723B,M,21,2033,36.246,-86.775,"(36.246, -86.775)"
PD201800610719,06/19/2018 04:26:12 PM,20180531508,B,88,Investigate 911 Hang-Up Call,P,PROGRESS,13,FALSE CALL,4300,HARDING PKE ,115B,W,13,5109,36.127,-86.845,"(36.127, -86.845)"
PD201800613014,06/20/2018 08:40:50 AM,20180533580,A,88,Investigate 911 Hang-Up Call,P,,13,FALSE CALL,4300,HARDING PKE ,113A,W,13,5109,36.127,-86.845,"(36.127, -86.845)"
PD201800613719,06/20/2018 01:09:05 PM,20180534141,A,88,Investigate 911 Hang-Up Call,PW,,13,FALSE CALL,2400,26TH AV N ,611A,N,11,4431,36.19,-86.818,"(36.19, -86.818)"
PD201800613800,06/20/2018 01:45:32 PM,20180534260,A,88,Investigate 911 Hang-Up Call,P,,13,FALSE CALL,2200,TRAEMOOR VILLAGE WAY ,113A,W,23,4709,36.119,-86.924,"(36.119, -86.924)"
PD201800614480,06/20/2018 04:46:05 PM,20180534805,B,88,Investigate 911 Hang-Up Call,PW,,13,FALSE CALL,2500,VAL MARIE DR ,725B,M,27,1721,36.295,-86.683,"(36.295, -86.683)"
PD201800615348,06/20/2018 09:35:35 PM,20180535520,B,88,Investigate 911 Hang-Up Call,P,,13,FALSE CALL,2400,WEST END AV ,815B,MT,13,5615,36.148,-86.807,"(36.148, -86.807)"
PD201800616667,06/21/2018 07:14:43 AM,20180536726,A,88,Investigate 911 Hang-Up Call,PW,,13,FALSE CALL,600,S 5TH ST ,211A,E,11,1009,36.166,-86.762,"(36.166, -86.762)"
PD201800617003,06/21/2018 09:28:59 AM,20180537029,A,88,Investigate 911 Hang-Up Call,P,,13,FALSE CALL,2900,SIDCO DR ,825A,MT,25,8525,36.105,-86.756,"(36.105, -86.756)"
PD201800617411,06/21/2018 11:44:51 AM,20180537388,A,88,Investigate 911 Hang-Up Call,P,,13,FALSE CALL,0,NICKLEBY DOWN ,831A,MT,33,8621,36.035,-86.749,"(36.035, -86.749)"
PD201800617422,06/21/2018 11:50:32 AM,20180537361,A,88,Investigate 911 Hang-Up Call,P,,13,FALSE CALL,5300,FLAGSTONE DR ,3M81,S,35,8901,36.037,-86.576,"(36.037, -86.576)"
PD201800617428,06/21/2018 11:53:23 AM,20180537375,A,88,Investigate 911 Hang-Up Call,PW,,13,FALSE CALL,400,N 2ND ST ,221A,E,21,1961,36.179,-86.772,"(36.179, -86.772)"
PD201800617825,06/21/2018 02:25:24 PM,20180537862,A,88,Investigate 911 Hang-Up Call,PW,,13,FALSE CALL,1300,MERCURY DR ,531B,H,31,8823,36.121,-86.701,"(36.121, -86.701)"
PD201800618021,06/21/2018 03:24:33 PM,20180538016,B,88,Investigate 911 Hang-Up Call,P,,13,FALSE CALL,200,CUMBERLAND BND ,622A,N,11,4401,36.193,-86.79,"(36.193, -86.79)"
PD201800619432,06/21/2018 10:39:21 PM,20180539139,B,88,Investigate 911 Hang-Up Call,PW,,13,FALSE CALL,4200,KINGS LN ,624C,N,25,3127,36.216,-86.864,"(36.216, -86.864)"
PD201800621584,06/22/2018 12:51:23 PM,20180541060,A,88,Investigate 911 Hang-Up Call,PW,REQUEST FOR PUBLIC WORKS,13,FALSE CALL,1500,GALLATIN PKE N ,727A,M,27,1757,36.289,-86.705,"(36.289, -86.705)"
PD201800623209,06/22/2018 09:13:12 PM,20180542389,B,88,Investigate 911 Hang-Up Call,P,PROGRESS,13,FALSE CALL,3300,OAK TREES CT ,335B,S,35,8975,36.075,-86.607,"(36.075, -86.607)"
PD201800624746,06/23/2018 10:32:35 AM,20180543703,A,88,Investigate 911 Hang-Up Call,P,PROGRESS,13,FALSE CALL,2000,HAYES ST ,813A,MT,11,5527,36.152,-86.8,"(36.152, -86.8)"
PD201800625135,06/23/2018 01:35:42 PM,20180544028,A,88,Investigate 911 Hang-Up Call,PW,REQUEST FOR PUBLIC WORKS,13,FALSE CALL,300,S 4TH ST ,211A,E,11,1109,36.169,-86.766,"(36.169, -86.766)"
PD201800626219,06/23/2018 08:50:01 PM,20180544974,B,88,Investigate 911 Hang-Up Call,P,PROGRESS,13,FALSE CALL,1000,CAMILLA CALDWELL LN ,623B,N,25,3171,36.18,-86.848,"(36.18, -86.848)"
PD201800627754,06/24/2018 10:36:29 AM,20180546247,A,88,Investigate 911 Hang-Up Call,PW,REQUEST FOR PUBLIC WORKS,13,FALSE CALL,4000,IROQUOIS AV ,115A,W,17,6117,36.096,-86.844,"(36.096, -86.844)"
PD201800628929,06/24/2018 07:37:55 PM,20180547163,B,88,Investigate 911 Hang-Up Call,PW,REQUEST FOR PUBLIC WORKS,13,FALSE CALL,400,WILCLAY DR ,123B,W,23,5023,36.143,-86.877,"(36.143, -86.877)"
PD201800631075,06/25/2018 11:17:25 AM,20180549095,A,88,Investigate 911 Hang-Up Call,P,PROGRESS,13,FALSE CALL,2500,HEMINGWAY DR ,113A,W,17,6203,36.083,-86.844,"(36.083, -86.844)"
PD201800631407,06/25/2018 01:23:58 PM,20180549348,A,88,Investigate 911 Hang-Up Call,PW,REQUEST FOR PUBLIC WORKS,13,FALSE CALL,2100,14TH AV N ,613B,N,11,4491,36.187,-86.81,"(36.187, -86.81)"
PD201800631936,06/25/2018 04:16:18 PM,20180549787,B,88,Investigate 911 Hang-Up Call,PW,REQUEST FOR PUBLIC WORKS,13,FALSE CALL,1300,MERIDIAN ST ,224B,E,23,1893,36.195,-86.768,"(36.195, -86.768)"
PD201800632808,06/25/2018 09:17:07 PM,20180550542,B,88,Investigate 911 Hang-Up Call,P,PROGRESS,13,FALSE CALL,3400,BRIDGETON CV ,333C,S,35,8997,36.085,-86.585,"(36.085, -86.585)"
PD201800635324,06/26/2018 02:15:52 PM,20180552733,A,88,Investigate 911 Hang-Up Call,P,PROGRESS,13,FALSE CALL,200,DEMONBREUN ST ,423A,C,25,4051,36.16,-86.774,"(36.16, -86.774)"
PD201800635890,06/26/2018 04:47:42 PM,20180553234,B,88,Investigate 911 Hang-Up Call,P,PROGRESS,13,FALSE CALL,2800,MCGAVOCK PKE ,515B,H,15,9211,36.213,-86.688,"(36.213, -86.688)"
PD201800636360,06/26/2018 07:02:38 PM,20180553982,B,88,Investigate 911 Hang-Up Call,PW,REQUEST FOR PUBLIC WORKS,13,FALSE CALL,5600,DEER VALLEY TRL ,332B,S,31,8755,36.029,-86.679,"(36.029, -86.679)"
PD201800637025,06/26/2018 10:42:03 PM,20180554300,B,88,Investigate 911 Hang-Up Call,PW,REQUEST FOR PUBLIC WORKS,13,FALSE CALL,800,SHAWNWOOD CIR ,623C,N,23,3103,36.209,-86.82,"(36.209, -86.82)"
PD201800638225,06/27/2018 06:39:06 AM,20180555364,C,88,Investigate 911 Hang-Up Call,P,,13,FALSE CALL,2000,GLEN ECHO RD ,825A,MT,25,6413,36.109,-86.812,"(36.109, -86.812)"
PD201800638558,06/27/2018 08:50:23 AM,20180555652,A,88,Investigate 911 Hang-Up Call,P,,13,FALSE CALL,1900,GLEN ECHO RD ,821A,MT,25,6413,36.109,-86.81,"(36.109, -86.81)"
PD201800638632,06/27/2018 09:18:48 AM,20180555803,A,88,Investigate 911 Hang-Up Call,PW,,13,FALSE CALL,300,GREAT CIRCLE RD ,611A,N,11,4499,36.199,-86.794,"(36.199, -86.794)"
PD201800638889,06/27/2018 10:57:28 AM,20180555938,A,88,Investigate 911 Hang-Up Call,P,,13,FALSE CALL,200,ATHENS WAY ,617A,N,11,4499,36.195,-86.8,"(36.195, -86.8)"
PD201800639038,06/27/2018 11:43:12 AM,20180556071,A,88,Investigate 911 Hang-Up Call,PW,,13,FALSE CALL,0,WHITE BRIDGE PKE ,121A,W,21,5019,36.13,-86.856,"(36.13, -86.856)"
PD201800639844,06/27/2018 03:49:04 PM,20180557241,B,88,Investigate 911 Hang-Up Call,P,,13,FALSE CALL,1200,MURFREESBORO PKE ,3F13,S,15,8833,36.116,-86.699,"(36.116, -86.699)"
PD201800639852,06/27/2018 03:51:38 PM,20180556859,B,88,Investigate 911 Hang-Up Call,PW,,13,FALSE CALL,4100,FARMVIEW DR ,623B,N,23,3107,36.226,-86.831,"(36.226, -86.831)"
PD201800685152,07/10/2018 09:40:32 AM,20180595112,A,88,Investigate 911 Hang-Up Call,PW,REQUEST FOR PUBLIC WORKS,13,FALSE CALL,3300,BRICK CHURCH PKE ,727A,M,21,2033,36.243,-86.78,"(36.243, -86.78)"
PD201800685349,07/10/2018 10:53:27 AM,20180595293,A,88,Investigate 911 Hang-Up Call,PW,REQUEST FOR PUBLIC WORKS,13,FALSE CALL,1100,GALLATIN PKE S ,711A,M,11,1785,36.25,-86.721,"(36.25, -86.721)"
PD201800686396,07/10/2018 04:26:22 PM,20180596451,B,88,Investigate 911 Hang-Up Call,PW,REQUEST FOR PUBLIC WORKS,13,FALSE CALL,3200,CROWE DR ,621B,N,25,3173,36.18,-86.841,"(36.18, -86.841)"
PD201800687111,07/10/2018 08:20:22 PM,20180596777,B,88,Investigate 911 Hang-Up Call,PW,REQUEST FOR PUBLIC WORKS,13,FALSE CALL,100,SPRING VALLEY RD ,515B,H,17,9113,36.165,-86.671,"(36.165, -86.671)"
PD201800646806,06/29/2018 11:28:44 AM,20180562925,A,88,Investigate 911 Hang-Up Call,P,PROGRESS,13,FALSE CALL,5000,BLUE HOLE RD ,330A,S,25,8859,36.055,-86.672,"(36.055, -86.672)"
PD201800647049,06/29/2018 12:45:26 PM,20180563130,A,88,Investigate 911 Hang-Up Call,PW,REQUEST FOR PUBLIC WORKS,13,FALSE CALL,100,RIO VISTA DR ,715A,M,15,1705,36.264,-86.681,"(36.264, -86.681)"
PD201800647096,06/29/2018 01:03:05 PM,20180563232,A,88,Investigate 911 Hang-Up Call,P,PROGRESS,13,FALSE CALL,400,GREAT CIRCLE RD ,617A,N,11,4443,36.2,-86.799,"(36.2, -86.799)"
PD201800647512,06/29/2018 03:27:59 PM,20180563491,B,88,Investigate 911 Hang-Up Call,P,PROGRESS,13,FALSE CALL,200,4TH AV N ,411B,C,11,4139,36.164,-86.78,"(36.164, -86.78)"
PD201800647656,06/29/2018 03:57:22 PM,20180563641,B,88,Investigate 911 Hang-Up Call,P,PROGRESS,13,FALSE CALL,3000,WEST END AV ,813B,MT,13,5625,36.143,-86.815,"(36.143, -86.815)"
PD201800650887,06/30/2018 01:13:15 PM,20180566333,A,88,Investigate 911 Hang-Up Call,PW,REQUEST FOR PUBLIC WORKS,13,FALSE CALL,500,PHIPPS DR ,627A,N,25,3109,36.22,-86.845,"(36.22, -86.845)"
PD201800651363,06/30/2018 04:18:14 PM,20180566704,B,88,Investigate 911 Hang-Up Call,P,PROGRESS,13,FALSE CALL,200,CUMBERLAND BND ,611B,N,11,4401,36.193,-86.79,"(36.193, -86.79)"
PD201800651767,06/30/2018 06:37:45 PM,20180567069,B,88,Investigate 911 Hang-Up Call,P,PROGRESS,13,FALSE CALL,5000,MOUNTAINBROOK CIR ,532B,H,21,9601,36.193,-86.638,"(36.193, -86.638)"
PD201800652506,06/30/2018 10:14:23 PM,20180567959,B,88,Investigate 911 Hang-Up Call,PW,REQUEST FOR PUBLIC WORKS,13,FALSE CALL,3300,DOVERSIDE DR ,720C,M,21,2033,36.241,-86.77,"(36.241, -86.77)"
PD201800652568,06/30/2018 10:37:25 PM,20180567858,B,88,Investigate 911 Hang-Up Call,PW,REQUEST FOR PUBLIC WORKS,13,FALSE CALL,3600,WILLOW CREEK CT ,721C,M,21,2045,36.254,-86.775,"(36.254, -86.775)"
PD201800655005,07/01/2018 05:51:49 PM,20180569815,B,88,Investigate 911 Hang-Up Call,P,PROGRESS,13,FALSE CALL,2400,WEST END AV ,813B,MT,13,5615,36.148,-86.807,"(36.148, -86.807)"
PD201800657396,07/02/2018 12:29:10 PM,20180571901,A,88,Investigate 911 Hang-Up Call,P,PROGRESS,13,FALSE CALL,2000,CHURCH ST ,815A,MT,13,5509,36.154,-86.802,"(36.154, -86.802)"
PD201800657610,07/02/2018 01:33:28 PM,20180572090,A,88,Investigate 911 Hang-Up Call,P,PROGRESS,13,FALSE CALL,400,CHURCH ST ,421A,C,11,4129,36.163,-86.78,"(36.163, -86.78)"
PD201800660576,07/03/2018 08:32:18 AM,20180574656,A,88,Investigate 911 Hang-Up Call,P,,13,FALSE CALL,700,OLD HICKORY BLVD ,833A,MT,33,8619,36.041,-86.779,"(36.041, -86.779)"
PD201800661394,07/03/2018 12:45:30 PM,20180575289,A,88,Investigate 911 Hang-Up Call,PW,,13,FALSE CALL,2200,MEHARRY BLVD ,621A,N,15,5321,36.168,-86.812,"(36.168, -86.812)"
PD201800661721,07/03/2018 02:30:12 PM,20180575677,A,88,Investigate 911 Hang-Up Call,PW,,13,FALSE CALL,900,33RD AV N ,612B,N,13,4565,36.163,-86.826,"(36.163, -86.826)"
PD201800662067,07/03/2018 04:16:40 PM,20180575848,B,88,Investigate 911 Hang-Up Call,P,,13,FALSE CALL,1900,21ST AV S ,815B,MT,15,5901,36.134,-86.802,"(36.134, -86.802)"
PD201800662637,07/03/2018 07:12:45 PM,20180576310,B,88,Investigate 911 Hang-Up Call,P,,13,FALSE CALL,300,4TH AV N ,411B,C,11,4159,36.166,-86.78,"(36.166, -86.78)"
PD201800664868,07/04/2018 12:02:19 PM,20180578169,A,88,Investigate 911 Hang-Up Call,P,,13,FALSE CALL,200,CUMBERLAND BND ,615A,N,11,4401,36.195,-86.79,"(36.195, -86.79)"
PD201800665283,07/04/2018 03:28:27 PM,20180578561,B,88,Investigate 911 Hang-Up Call,PW,,13,FALSE CALL,200,WILDBERRY LN ,125B,W,25,4815,36.097,-86.926,"(36.097, -86.926)"
PD201800688687,07/11/2018 07:50:26 AM,20180598139,A,88,Investigate 911 Hang-Up Call,PW,REQUEST FOR PUBLIC WORKS,13,FALSE CALL,2800,LOGAN ST ,313A,S,13,8333,36.113,-86.741,"(36.113, -86.741)"
PD201800690209,07/11/2018 04:42:14 PM,20180599381,B,88,Investigate 911 Hang-Up Call,PW,REQUEST FOR PUBLIC WORKS,13,FALSE CALL,800,PIN OAK DR ,3F15,S,35,8905,36.051,-86.591,"(36.051, -86.591)"
PD201800667810,07/05/2018 08:30:38 AM,20180580364,A,88,Investigate 911 Hang-Up Call,P,PROGRESS,13,FALSE CALL,400,TULIP GROVE RD ,523A,H,23,9537,36.215,-86.589,"(36.215, -86.589)"
PD201800668154,07/05/2018 10:42:59 AM,20180580641,A,88,Investigate 911 Hang-Up Call,P,PROGRESS,13,FALSE CALL,0,LIFEWAY PLZ ,5824,C,11,4209,36.165,-86.793,"(36.165, -86.793)"
PD201800668511,07/05/2018 01:14:46 PM,20180580957,A,88,Investigate 911 Hang-Up Call,PW,REQUEST FOR PUBLIC WORKS,13,FALSE CALL,300,GRACE ST ,221A,E,21,1965,36.183,-86.766,"(36.183, -86.766)"
PD201800681558,07/09/2018 09:26:38 AM,20180592028,A,88,Investigate 911 Hang-Up Call,PW,REQUEST FOR PUBLIC WORKS,13,FALSE CALL,3200,HUMMINGBIRD DR ,603,N,23,3105,36.217,-86.829,"(36.217, -86.829)"
PD201800682139,07/09/2018 12:56:54 PM,20180592534,A,88,Investigate 911 Hang-Up Call,P,PROGRESS,13,FALSE CALL,1000,HAWKINS ST ,813A,MT,21,6801,36.148,-86.783,"(36.148, -86.783)"
PD201800682513,07/09/2018 03:08:47 PM,20180592837,B,88,Investigate 911 Hang-Up Call,PW,REQUEST FOR PUBLIC WORKS,13,FALSE CALL,1700,MERIDIAN ST ,226B,E,23,1861,36.203,-86.766,"(36.203, -86.766)"
PD201800682519,07/09/2018 03:10:20 PM,20180592941,B,88,Investigate 911 Hang-Up Call,P,PROGRESS,13,FALSE CALL,400,EDENCREST CT ,322B,S,25,8861,36.067,-86.646,"(36.067, -86.646)"
PD201800682672,07/09/2018 03:53:35 PM,20180592957,B,88,Investigate 911 Hang-Up Call,P,PROGRESS,13,FALSE CALL,3400,DICKERSON PKE ,723B,M,21,2011,36.244,-86.762,"(36.244, -86.762)"
PD201800683765,07/09/2018 10:31:51 PM,20180593787,B,88,Investigate 911 Hang-Up Call,PW,REQUEST FOR PUBLIC WORKS,13,FALSE CALL,300,CORNWALL AV ,BMPD,W,17,6121,36.113,-86.856,"(36.113, -86.856)"
PD201800683972,07/10/2018 12:07:09 AM,20180594017,C,88,Investigate 911 Hang-Up Call,PW,REQUEST FOR PUBLIC WORKS,13,FALSE CALL,1800,SUNSET CIR ,223C,E,23,1827,36.223,-86.763,"(36.223, -86.763)"
PD201800692451,07/12/2018 08:34:09 AM,20180601319,A,88,Investigate 911 Hang-Up Call,P,PROGRESS,13,FALSE CALL,1400,DONELSON PKE ,325A,S,23,8841,36.094,-86.678,"(36.094, -86.678)"
PD201800696350,07/13/2018 11:50:53 AM,20180604702,A,88,Investigate 911 Hang-Up Call,P,PROGRESS,13,FALSE CALL,0,CENTURY BLVD ,5F23,H,13,9115,36.144,-86.686,"(36.144, -86.686)"
PD201800696666,07/13/2018 01:48:58 PM,20180605012,A,88,Investigate 911 Hang-Up Call,PW,REQUEST FOR PUBLIC WORKS,13,FALSE CALL,0,VANTAGE WAY ,611B,N,11,4401,36.191,-86.793,"(36.191, -86.793)"
PD201800696940,07/13/2018 03:33:34 PM,20180605163,B,88,Investigate 911 Hang-Up Call,P,PROGRESS,13,FALSE CALL,200,8TH AV S ,415B,C,23,4041,36.157,-86.781,"(36.157, -86.781)"
PD201800699270,07/14/2018 09:00:38 AM,20180607068,A,88,Investigate 911 Hang-Up Call,P,PROGRESS,13,FALSE CALL,900,32ND AV N ,611A,N,13,4529,36.163,-86.825,"(36.163, -86.825)"
PD201800699983,07/14/2018 03:18:20 PM,20180607594,B,88,Investigate 911 Hang-Up Call,P,PROGRESS,13,FALSE CALL,5600,PENNSYLVANIA AV ,113B,W,11,4611,36.163,-86.856,"(36.163, -86.856)"
PD201800700703,07/14/2018 08:27:57 PM,20180608217,B,88,Investigate 911 Hang-Up Call,P,PROGRESS,13,FALSE CALL,600,ROWAN DR ,623B,N,23,3025,36.221,-86.811,"(36.221, -86.811)"
PD201800702050,07/15/2018 08:01:48 AM,20180609293,A,88,Investigate 911 Hang-Up Call,PW,REQUEST FOR PUBLIC WORKS,13,FALSE CALL,6400,RANCHERO DR ,124A,W,23,4675,36.146,-86.884,"(36.146, -86.884)"
PD201800702736,07/15/2018 02:54:54 PM,20180610285,A,88,Investigate 911 Hang-Up Call,PW,REQUEST FOR PUBLIC WORKS,13,FALSE CALL,2100,W RICHMOND HILL DR ,624B,N,21,3029,36.236,-86.791,"(36.236, -86.791)"
PD201800704567,07/16/2018 06:12:39 AM,20180611420,C,88,Investigate 911 Hang-Up Call,P,PROGRESS,13,FALSE CALL,800,CANNON ST ,513C,H,11,8209,36.151,-86.76,"(36.151, -86.76)"
PD201800704767,07/16/2018 07:49:07 AM,20180611586,A,88,Investigate 911 Hang-Up Call,PW,REQUEST FOR PUBLIC WORKS,13,FALSE CALL,1000,28TH AV N ,2911,N,13,4559,36.166,-86.823,"(36.166, -86.823)"
PD201800705422,07/16/2018 11:52:51 AM,20180612315,A,88,Investigate 911 Hang-Up Call,P,PROGRESS,13,FALSE CALL,200,CUMBERLAND BND ,603,N,11,4401,36.195,-86.79,"(36.195, -86.79)"
PD201800706612,07/16/2018 06:42:22 PM,20180613551,B,88,Investigate 911 Hang-Up Call,PW,REQUEST FOR PUBLIC WORKS,13,FALSE CALL,100,HIGHLAND TRACE CV ,623B,N,21,3047,36.22,-86.803,"(36.22, -86.803)"
PD201800707147,07/16/2018 09:43:42 PM,20180613614,B,88,Investigate 911 Hang-Up Call,PW,REQUEST FOR PUBLIC WORKS,13,FALSE CALL,500,GALESBURG CT ,535B,H,35,8963,36.076,-86.627,"(36.076, -86.627)"
PD201800709077,07/17/2018 11:51:47 AM,20180615331,A,88,Investigate 911 Hang-Up Call,P,PROGRESS,13,FALSE CALL,2400,HASKELL DR ,331A,S,31,8763,36.019,-86.651,"(36.019, -86.651)"
PD201800710154,07/17/2018 05:53:23 PM,20180616382,B,88,Investigate 911 Hang-Up Call,PW,REQUEST FOR PUBLIC WORKS,13,FALSE CALL,700,BELL RD ,325B,S,25,8861,36.055,-86.643,"(36.055, -86.643)"
PD201800710256,07/17/2018 06:25:27 PM,20180616285,B,88,Investigate 911 Hang-Up Call,P,PROGRESS,13,FALSE CALL,400,11TH AV S ,425B,C,23,4017,36.152,-86.784,"(36.152, -86.784)"
PD201800710677,07/17/2018 08:33:37 PM,20180616607,B,88,Investigate 911 Hang-Up Call,PW,REQUEST FOR PUBLIC WORKS,13,FALSE CALL,4000,HILLSBORO PKE ,825B,MT,25,6405,36.104,-86.814,"(36.104, -86.814)"
PD201800711464,07/18/2018 01:49:47 AM,20180617303,C,88,Investigate 911 Hang-Up Call,P,PROGRESS,13,FALSE CALL,2100,GOLF CLUB LN ,117C,W,17,6013,36.118,-86.812,"(36.118, -86.812)"
PD201800712366,07/18/2018 08:31:28 AM,20180618153,A,88,Investigate 911 Hang-Up Call,P,PROGRESS,13,FALSE CALL,400,CHURCH ST ,423A,C,11,4139,36.164,-86.78,"(36.164, -86.78)"
PD201800712490,07/18/2018 09:14:08 AM,20180618271,A,88,Investigate 911 Hang-Up Call,P,PROGRESS,13,FALSE CALL,600,GRASSMERE PK ,835A,MT,31,8509,36.09,-86.746,"(36.09, -86.746)"
PD201800712822,07/18/2018 11:08:49 AM,20180618558,A,88,Investigate 911 Hang-Up Call,P,PROGRESS,13,FALSE CALL,1800,MORENA ST ,603,N,15,5331,36.165,-86.805,"(36.165, -86.805)"
PD201800714092,07/18/2018 06:59:47 PM,20180619553,B,88,Investigate 911 Hang-Up Call,PW,REQUEST FOR PUBLIC WORKS,13,FALSE CALL,5300,HICKORY HOLLOW LN ,3F11,S,33,8863,36.048,-86.654,"(36.048, -86.654)"
PD201800720709,07/20/2018 02:51:38 PM,20180625215,A,88,Investigate 911 Hang-Up Call,PW,REQUEST FOR PUBLIC WORKS,13,FALSE CALL,100,MCCARTHY PARK LN ,621B,N,21,3023,36.231,-86.793,"(36.231, -86.793)"
PD201800721114,07/20/2018 05:02:01 PM,20180625944,B,88,Investigate 911 Hang-Up Call,PW,REQUEST FOR PUBLIC WORKS,13,FALSE CALL,6400,HOLLY TRACE CT ,110B,W,25,4807,36.038,-86.956,"(36.038, -86.956)"
PD201800721181,07/20/2018 05:21:34 PM,20180625626,B,88,Investigate 911 Hang-Up Call,PW,REQUEST FOR PUBLIC WORKS,13,FALSE CALL,400,BROADWAY ,423B,C,21,4091,36.16,-86.778,"(36.16, -86.778)"
PD201800721397,07/20/2018 06:17:56 PM,20180625832,B,88,Investigate 911 Hang-Up Call,PW,REQUEST FOR PUBLIC WORKS,13,FALSE CALL,300,HICKORY HOLLOW TER ,325B,S,25,8861,36.053,-86.648,"(36.053, -86.648)"
PD201800724257,07/21/2018 04:27:38 PM,20180628240,B,88,Investigate 911 Hang-Up Call,PW,REQUEST FOR PUBLIC WORKS,13,FALSE CALL,3700,WATERFORD WAY ,335B,S,35,8997,36.083,-86.585,"(36.083, -86.585)"
PD201800726454,07/22/2018 08:45:02 AM,20180630117,A,88,Investigate 911 Hang-Up Call,PW,REQUEST FOR PUBLIC WORKS,13,FALSE CALL,3700,VILLAGE TRL ,721A,M,21,2027,36.248,-86.771,"(36.248, -86.771)"
PD201800726794,07/22/2018 12:38:44 PM,20180630376,A,88,Investigate 911 Hang-Up Call,PW,REQUEST FOR PUBLIC WORKS,13,FALSE CALL,1900,DIVISION ST ,813A,MT,11,5711,36.15,-86.797,"(36.15, -86.797)"
PD201800727118,07/22/2018 04:04:26 PM,20180630624,B,88,Investigate 911 Hang-Up Call,PW,REQUEST FOR PUBLIC WORKS,13,FALSE CALL,300,BROADWAY ,423B,C,21,4105,36.162,-86.776,"(36.162, -86.776)"
PD201800727500,07/22/2018 07:14:09 PM,20180630920,B,88,Investigate 911 Hang-Up Call,PW,REQUEST FOR PUBLIC WORKS,13,FALSE CALL,3300,MOOREWOOD DR ,721B,M,21,2033,36.241,-86.773,"(36.241, -86.773)"
PD201800728750,07/23/2018 06:21:24 AM,20180632048,C,88,Investigate 911 Hang-Up Call,P,PROGRESS,13,FALSE CALL,300,ST JAMES PK ,117A,W,17,6113,36.107,-86.829,"(36.107, -86.829)"
PD201800729007,07/23/2018 08:23:09 AM,20180632246,A,88,Investigate 911 Hang-Up Call,PW,REQUEST FOR PUBLIC WORKS,13,FALSE CALL,2500,HIGHLAND TRACE DR ,621A,N,21,3047,36.221,-86.803,"(36.221, -86.803)"
PD201800729657,07/23/2018 12:30:22 PM,20180632815,A,88,Investigate 911 Hang-Up Call,PW,REQUEST FOR PUBLIC WORKS,13,FALSE CALL,2900,BRICK CHURCH PKE ,621A,N,21,3023,36.225,-86.782,"(36.225, -86.782)"
PD201800730003,07/23/2018 02:27:29 PM,20180633062,A,88,Investigate 911 Hang-Up Call,PW,REQUEST FOR PUBLIC WORKS,13,FALSE CALL,1100,ANTIOCH PKE ,3M81,S,15,8843,36.097,-86.704,"(36.097, -86.704)"
PD201800730838,07/23/2018 06:45:38 PM,20180633776,B,88,Investigate 911 Hang-Up Call,P,PROGRESS,13,FALSE CALL,7600,HIGHWAY 70 S ,125B,W,25,4811,36.077,-86.95,"(36.077, -86.95)"
PD201800730984,07/23/2018 07:41:29 PM,20180633873,B,88,Investigate 911 Hang-Up Call,PW,REQUEST FOR PUBLIC WORKS,13,FALSE CALL,900,16TH AV N ,615B,N,15,5419,36.167,-86.801,"(36.167, -86.801)"
PD201800731287,07/23/2018 09:13:44 PM,20180634264,B,88,Investigate 911 Hang-Up Call,P,PROGRESS,13,FALSE CALL,1800,MORENA ST ,615B,N,15,5331,36.165,-86.805,"(36.165, -86.805)"
PD201800732187,07/24/2018 04:09:18 AM,20180634943,C,88,Investigate 911 Hang-Up Call,PW,REQUEST FOR PUBLIC WORKS,13,FALSE CALL,1400,ARDEE AV ,215C,E,17,1423,36.21,-86.714,"(36.21, -86.714)"
PD201800733205,07/24/2018 10:46:09 AM,20180635860,A,88,Investigate 911 Hang-Up Call,PW,REQUEST FOR PUBLIC WORKS,13,FALSE CALL,3600,GEORGIA CT ,111A,W,11,4549,36.157,-86.829,"(36.157, -86.829)"
PD201800733254,07/24/2018 11:02:44 AM,20180635935,A,88,Investigate 911 Hang-Up Call,PW,REQUEST FOR PUBLIC WORKS,13,FALSE CALL,6000,CHARLOTTE PKE ,115A,W,15,5027,36.148,-86.866,"(36.148, -86.866)"
PD201800733267,07/24/2018 11:05:24 AM,20180635914,A,88,Investigate 911 Hang-Up Call,PW,REQUEST FOR PUBLIC WORKS,13,FALSE CALL,1400,OAKLAND ACRES DR ,723A,M,23,1789,36.243,-86.73,"(36.243, -86.73)"
PD201800733655,07/24/2018 01:03:48 PM,20180636251,A,88,Investigate 911 Hang-Up Call,PW,REQUEST FOR PUBLIC WORKS,13,FALSE CALL,1500,FORT NEGLEY BLVD ,825A,MT,21,8051,36.135,-86.774,"(36.135, -86.774)"
PD201800733859,07/24/2018 02:32:04 PM,20180636534,A,88,Investigate 911 Hang-Up Call,P,PROGRESS,13,FALSE CALL,1000,HAWKINS ST ,821B,MT,21,6801,36.148,-86.783,"(36.148, -86.783)"
PD201800734279,07/24/2018 04:49:18 PM,20180636795,B,88,Investigate 911 Hang-Up Call,PW,REQUEST FOR PUBLIC WORKS,13,FALSE CALL,200,BRIDGEWAY CIR ,310B1,S,13,8409,36.101,-86.715,"(36.101, -86.715)"
PD201800739958,07/26/2018 04:31:34 AM,20180641759,C,88,Investigate 911 Hang-Up Call,P,PROGRESS,13,FALSE CALL,700,OLD HICKORY BLVD ,825C,MT,33,8619,36.043,-86.779,"(36.043, -86.779)"
PD201800740257,07/26/2018 06:47:32 AM,20180642032,C,88,Investigate 911 Hang-Up Call,PW,REQUEST FOR PUBLIC WORKS,13,FALSE CALL,600,SOUTH RIVERBEND CT ,123A,W,25,4809,36.051,-86.953,"(36.051, -86.953)"
PD201800740966,07/26/2018 11:12:23 AM,20180642679,A,88,Investigate 911 Hang-Up Call,P,PROGRESS,13,FALSE CALL,3700,BENHAM AV ,825A,MT,25,6413,36.11,-86.809,"(36.11, -86.809)"
PD201800741319,07/26/2018 01:28:17 PM,20180642972,A,88,Investigate 911 Hang-Up Call,PW,REQUEST FOR PUBLIC WORKS,13,FALSE CALL,400,SWISS AV ,833A,MT,35,8651,36.042,-86.715,"(36.042, -86.715)"
PD201800741854,07/26/2018 04:22:08 PM,20180643423,B,88,Investigate 911 Hang-Up Call,P,PROGRESS,13,FALSE CALL,1800,DIVISION ST ,811B,MT,11,5705,36.152,-86.794,"(36.152, -86.794)"
PD201800742388,07/26/2018 07:13:09 PM,20180644068,B,88,Investigate 911 Hang-Up Call,PW,REQUEST FOR PUBLIC WORKS,13,FALSE CALL,1300,HIGHMEADOWS CT ,325B,S,25,8891,36.08,-86.649,"(36.08, -86.649)"
PD201800743950,07/27/2018 08:02:52 AM,20180645279,A,88,Investigate 911 Hang-Up Call,P,PROGRESS,13,FALSE CALL,400,GREAT CIRCLE RD ,611A,N,11,4443,36.199,-86.805,"(36.199, -86.805)"
PD201800744109,07/27/2018 09:17:37 AM,20180645436,A,88,Investigate 911 Hang-Up Call,PW,REQUEST FOR PUBLIC WORKS,13,FALSE CALL,100,21ST AV S ,812A,MT,15,5715,36.15,-86.801,"(36.15, -86.801)"
PD201800744334,07/27/2018 10:37:02 AM,20180645676,A,88,Investigate 911 Hang-Up Call,P,PROGRESS,13,FALSE CALL,200,5TH AV S ,4B41,C,25,4055,36.157,-86.775,"(36.157, -86.775)"
PD201800744410,07/27/2018 11:00:22 AM,20180645722,A,88,Investigate 911 Hang-Up Call,P,PROGRESS,13,FALSE CALL,100,W TRINITY LN ,217A,E,23,1863,36.206,-86.773,"(36.206, -86.773)"
PD201800744439,07/27/2018 11:09:23 AM,20180645753,A,88,Investigate 911 Hang-Up Call,PW,REQUEST FOR PUBLIC WORKS,13,FALSE CALL,300,DELLWAY VILLA RD ,217A,E,23,1831,36.213,-86.762,"(36.213, -86.762)"
PD201800745098,07/27/2018 03:20:11 PM,20180646272,B,88,Investigate 911 Hang-Up Call,PW,REQUEST FOR PUBLIC WORKS,13,FALSE CALL,5700,MAXON AV ,122B,W,15,4663,36.153,-86.86,"(36.153, -86.86)"
PD201800746239,07/27/2018 10:13:16 PM,20180647146,B,88,Investigate 911 Hang-Up Call,P,PROGRESS,13,FALSE CALL,3200,MEADE AV ,804,MT,31,8515,36.102,-86.745,"(36.102, -86.745)"
PD201800747389,07/28/2018 07:54:18 AM,20180648113,A,88,Investigate 911 Hang-Up Call,P,PROGRESS,13,FALSE CALL,800,GALE LN ,823A,MT,23,6957,36.118,-86.776,"(36.118, -86.776)"
PD201800748098,07/28/2018 02:55:03 PM,20180648655,A,88,Investigate 911 Hang-Up Call,P,PROGRESS,13,FALSE CALL,600,JAMES ROBERTSON PKWY ,SP110,C,11,4203,36.169,-86.786,"(36.169, -86.786)"
PD201800748184,07/28/2018 03:43:10 PM,20180648869,B,88,Investigate 911 Hang-Up Call,PW,REQUEST FOR PUBLIC WORKS,13,FALSE CALL,4300,VALLEY GROVE DR ,523B,H,23,9539,36.176,-86.589,"(36.176, -86.589)"
PD201800748201,07/28/2018 03:50:14 PM,20180648755,B,88,Investigate 911 Hang-Up Call,P,PROGRESS,13,FALSE CALL,1800,MORENA ST ,615B,N,15,5331,36.165,-86.805,"(36.165, -86.805)"
PD201800748817,07/28/2018 08:08:46 PM,20180649224,B,88,Investigate 911 Hang-Up Call,PW,REQUEST FOR PUBLIC WORKS,13,FALSE CALL,900,YOUNGS LN ,625B,N,23,3013,36.205,-86.808,"(36.205, -86.808)"
PD201800749243,07/28/2018 11:14:34 PM,20180649537,,88,Investigate 911 Hang-Up Call,P,PROGRESS,13,FALSE CALL,1800,MORENA ST ,615C,N,15,5331,36.165,-86.805,"(36.165, -86.805)"
PD201800749317,07/28/2018 11:41:28 PM,20180649585,,88,Investigate 911 Hang-Up Call,PW,REQUEST FOR PUBLIC WORKS,13,FALSE CALL,5000,LITTLE MARROWBONE RD ,623C,N,27,3323,36.255,-86.966,"(36.255, -86.966)"
PD201800749351,07/28/2018 11:52:23 PM,20180649613,,88,Investigate 911 Hang-Up Call,PW,REQUEST FOR PUBLIC WORKS,13,FALSE CALL,7400,HARROW DR ,125C,W,25,4815,36.078,-86.94,"(36.078, -86.94)"
PD201800750532,07/29/2018 10:22:10 AM,20180650716,A,88,Investigate 911 Hang-Up Call,P,PROGRESS,13,FALSE CALL,1800,MORENA ST ,611A,N,15,5331,36.165,-86.805,"(36.165, -86.805)"
PD201800750655,07/29/2018 11:48:17 AM,20180650804,A,88,Investigate 911 Hang-Up Call,P,PROGRESS,13,FALSE CALL,200,CUMBERLAND BND ,611A,N,11,4401,36.195,-86.79,"(36.195, -86.79)"
PD201800751407,07/29/2018 05:46:46 PM,20180651378,B,88,Investigate 911 Hang-Up Call,PW,REQUEST FOR PUBLIC WORKS,13,FALSE CALL,4700,INDIAN SUMMER DR ,722B,M,25,2105,36.287,-86.79,"(36.287, -86.79)"
PD201800751479,07/29/2018 06:13:10 PM,20180651421,B,88,Investigate 911 Hang-Up Call,P,PROGRESS,13,FALSE CALL,5500,MORROW RD ,113B,W,11,4637,36.159,-86.856,"(36.159, -86.856)"
PD201800751844,07/29/2018 09:11:39 PM,20180651729,B,88,Investigate 911 Hang-Up Call,PW,REQUEST FOR PUBLIC WORKS,13,FALSE CALL,1300,14TH AV S ,811B,MT,11,6631,36.14,-86.79,"(36.14, -86.79)"
PD201800752023,07/29/2018 10:42:18 PM,20180651904,B,88,Investigate 911 Hang-Up Call,P,PROGRESS,13,FALSE CALL,2800,OPRYLAND DR ,517C,H,15,9209,36.213,-86.696,"(36.213, -86.696)"
PD201800757008,07/31/2018 09:01:15 AM,20180656234,A,88,Investigate 911 Hang-Up Call,P,PROGRESS,13,FALSE CALL,300,25TH AV N ,815A,MT,13,5619,36.154,-86.812,"(36.154, -86.812)"
PD201800757507,07/31/2018 11:48:05 AM,20180656627,A,88,Investigate 911 Hang-Up Call,P,PROGRESS,13,FALSE CALL,4300,HARDING PKE ,1F42,W,13,5109,36.127,-86.845,"(36.127, -86.845)"
PD201800757514,07/31/2018 11:51:57 AM,20180656642,A,88,Investigate 911 Hang-Up Call,PW,REQUEST FOR PUBLIC WORKS,13,FALSE CALL,400,FISK ST ,613A,N,15,5401,36.159,-86.8,"(36.159, -86.8)"
PD201800758052,07/31/2018 03:36:59 PM,20180657067,B,88,Investigate 911 Hang-Up Call,PW,REQUEST FOR PUBLIC WORKS,13,FALSE CALL,2100,ROCK CITY ST ,212B,E,17,1405,36.2,-86.728,"(36.2, -86.728)"
PD201800759825,08/01/2018 02:00:40 AM,20180658623,C,88,Investigate 911 Hang-Up Call,PW,REQUEST FOR PUBLIC WORKS,13,FALSE CALL,3300,COCOA DR ,623C,N,25,3133,36.185,-86.846,"(36.185, -86.846)"
PD201800760440,08/01/2018 07:44:38 AM,20180659238,A,88,Investigate 911 Hang-Up Call,P,,13,FALSE CALL,3000,ARMORY DR ,825A,MT,25,8525,36.102,-86.757,"(36.102, -86.757)"
PD201800760952,08/01/2018 10:31:04 AM,20180659668,A,88,Investigate 911 Hang-Up Call,P,,13,FALSE CALL,900,MAIN ST ,217A,E,13,1131,36.176,-86.755,"(36.176, -86.755)"
PD201800764137,08/02/2018 07:36:04 AM,20180662469,A,88,Investigate 911 Hang-Up Call,P,PROGRESS,13,FALSE CALL,4300,HARDING PKE ,117A,W,13,5109,36.127,-86.845,"(36.127, -86.845)"
PD201800764166,08/02/2018 07:50:56 AM,20180662457,A,88,Investigate 911 Hang-Up Call,PW,REQUEST FOR PUBLIC WORKS,13,FALSE CALL,2800,HYDES FERRY RD ,625A,N,25,3173,36.182,-86.834,"(36.182, -86.834)"
PD201800764342,08/02/2018 08:51:39 AM,20180662798,A,88,Investigate 911 Hang-Up Call,P,PROGRESS,13,FALSE CALL,300,4TH AV N ,425A,C,11,4159,36.166,-86.78,"(36.166, -86.78)"
PD201800764830,08/02/2018 11:41:21 AM,20180663127,A,88,Investigate 911 Hang-Up Call,P,PROGRESS,13,FALSE CALL,4200,SHAGBARK TRL ,331A,S,33,8867,36.042,-86.619,"(36.042, -86.619)"
PD201800765136,08/02/2018 01:40:36 PM,20180663299,A,88,Investigate 911 Hang-Up Call,PW,REQUEST FOR PUBLIC WORKS,13,FALSE CALL,1500,PORTER RD ,215A,E,15,1335,36.193,-86.728,"(36.193, -86.728)"
PD201800765290,08/02/2018 02:39:21 PM,20180663483,A,88,Investigate 911 Hang-Up Call,P,PROGRESS,13,FALSE CALL,1700,MAGNOLIA BLVD ,8F73,MT,15,6611,36.136,-86.796,"(36.136, -86.796)"
PD201800765969,08/02/2018 06:40:36 PM,20180664124,B,88,Investigate 911 Hang-Up Call,P,PROGRESS,13,FALSE CALL,400,EWING DR ,623B,N,21,3029,36.232,-86.787,"(36.232, -86.787)"
PD201800768516,08/03/2018 01:18:27 PM,20180666290,A,88,Investigate 911 Hang-Up Call,P,PROGRESS,13,FALSE CALL,3700,HYDES FERRY RD ,603,N,25,3159,36.195,-86.842,"(36.195, -86.842)"
PD201800771341,08/04/2018 09:55:55 AM,20180668580,A,88,Investigate 911 Hang-Up Call,PW,REQUEST FOR PUBLIC WORKS,13,FALSE CALL,5000,HASTY DR ,835A,MT,35,8659,36.06,-86.72,"(36.06, -86.72)"
PD201800772231,08/04/2018 05:53:36 PM,20180669356,B,88,Investigate 911 Hang-Up Call,P,PROGRESS,13,FALSE CALL,1300,TULIP GROVE RD ,523B,H,23,9557,36.175,-86.596,"(36.175, -86.596)"
PD201800772493,08/04/2018 07:57:00 PM,20180669512,B,88,Investigate 911 Hang-Up Call,PW,REQUEST FOR PUBLIC WORKS,13,FALSE CALL,7200,SANTEELAH WAY ,332B,S,31,8767,36.01,-86.685,"(36.01, -86.685)"
PD201800772580,08/04/2018 08:24:44 PM,20180669550,B,88,Investigate 911 Hang-Up Call,PW,REQUEST FOR PUBLIC WORKS,13,FALSE CALL,600,BELL TRACE CIR ,332B,S,31,8753,36.041,-86.671,"(36.041, -86.671)"
PD201800776209,08/06/2018 06:02:37 AM,20180672672,C,88,Investigate 911 Hang-Up Call,PW,REQUEST FOR PUBLIC WORKS,13,FALSE CALL,2700,MASHBURN RD ,313A,S,13,8335,36.112,-86.73,"(36.112, -86.73)"
PD201800776991,08/06/2018 12:03:30 PM,20180673140,A,88,Investigate 911 Hang-Up Call,PW,REQUEST FOR PUBLIC WORKS,13,FALSE CALL,1400,BELL TRACE DR ,331A,S,31,8753,36.039,-86.671,"(36.039, -86.671)"
PD201800777253,08/06/2018 02:25:44 PM,20180673399,A,88,Investigate 911 Hang-Up Call,P,PROGRESS,13,FALSE CALL,2500,21ST AV S ,811B,MT,15,5911,36.126,-86.805,"(36.126, -86.805)"
PD201800777327,08/06/2018 02:55:27 PM,20180673420,A,88,Investigate 911 Hang-Up Call,PW,REQUEST FOR PUBLIC WORKS,13,FALSE CALL,1600,16TH AV N ,614B,N,13,4471,36.175,-86.806,"(36.175, -86.806)"
PD201800777873,08/06/2018 05:39:01 PM,20180674187,B,88,Investigate 911 Hang-Up Call,PW,REQUEST FOR PUBLIC WORKS,13,FALSE CALL,700,GARRISON DR ,620B,N,23,3025,36.222,-86.818,"(36.222, -86.818)"
PD201800778064,08/06/2018 06:38:59 PM,20180674159,B,88,Investigate 911 Hang-Up Call,P,PROGRESS,13,FALSE CALL,1700,22ND AV N ,610B1,N,13,4461,36.179,-86.813,"(36.179, -86.813)"
PD201800779971,08/07/2018 09:45:10 AM,20180676077,A,88,Investigate 911 Hang-Up Call,P,PROGRESS,13,FALSE CALL,3700,STEWARTS LN ,625A,N,25,3133,36.19,-86.859,"(36.19, -86.859)"
PD201800780500,08/07/2018 12:50:32 PM,20180676170,A,88,Investigate 911 Hang-Up Call,PW,REQUEST FOR PUBLIC WORKS,13,FALSE CALL,1000,CALVERT ST ,225A,E,25,1815,36.225,-86.729,"(36.225, -86.729)"
PD201800780776,08/07/2018 02:31:45 PM,20180676406,A,88,Investigate 911 Hang-Up Call,PW,REQUEST FOR PUBLIC WORKS,13,FALSE CALL,200,5TH AV S ,413B,C,25,4057,36.158,-86.777,"(36.158, -86.777)"
PD201800782140,08/07/2018 09:25:41 PM,20180677661,B,88,Investigate 911 Hang-Up Call,PW,REQUEST FOR PUBLIC WORKS,13,FALSE CALL,4400,ANDREW JACKSON PKWY ,523B,H,23,9509,36.208,-86.604,"(36.208, -86.604)"
PD201800783670,08/08/2018 08:50:15 AM,20180679007,A,88,Investigate 911 Hang-Up Call,P,PROGRESS,13,FALSE CALL,1000,HAWKINS ST ,823A,MT,21,6801,36.148,-86.783,"(36.148, -86.783)"
PD201800783990,08/08/2018 10:36:11 AM,20180679344,A,88,Investigate 911 Hang-Up Call,P,PROGRESS,13,FALSE CALL,400,21ST AV S ,815A,MT,15,6709,36.147,-86.799,"(36.147, -86.799)"
PD201800784011,08/08/2018 10:40:16 AM,20180679253,A,88,Investigate 911 Hang-Up Call,P,PROGRESS,13,FALSE CALL,0,HERMITAGE PLZ ,115A,W,15,4653,36.18,-86.88,"(36.18, -86.88)"
PD201800784571,08/08/2018 02:03:40 PM,20180679746,A,88,Investigate 911 Hang-Up Call,PW,REQUEST FOR PUBLIC WORKS,13,FALSE CALL,2000,HOBSON PKE ,55S74,S,35,8927,36.056,-86.6,"(36.056, -86.6)"
PD201800785829,08/08/2018 09:13:51 PM,20180680806,B,88,Investigate 911 Hang-Up Call,P,PROGRESS,13,FALSE CALL,800,CLARK PL ,415B,C,23,4041,36.155,-86.781,"(36.155, -86.781)"
PD201800787399,08/09/2018 09:45:25 AM,20180682190,A,88,Investigate 911 Hang-Up Call,PW,REQUEST FOR PUBLIC WORKS,13,FALSE CALL,300,OAKVIEW DR ,727A,M,21,2029,36.238,-86.76,"(36.238, -86.76)"
PD201800787509,08/09/2018 10:26:37 AM,20180682284,A,88,Investigate 911 Hang-Up Call,P,PROGRESS,13,FALSE CALL,500,METROPLEX DR ,315A,S,17,8845,36.093,-86.704,"(36.093, -86.704)"
PD201800788578,08/09/2018 04:28:14 PM,20180683367,B,88,Investigate 911 Hang-Up Call,PW,REQUEST FOR PUBLIC WORKS,13,FALSE CALL,300,STEWARTS FERRY PKE ,517B,H,17,9407,36.161,-86.646,"(36.161, -86.646)"
PD201800791092,08/10/2018 10:04:54 AM,20180685510,A,88,Investigate 911 Hang-Up Call,PW,REQUEST FOR PUBLIC WORKS,13,FALSE CALL,500,S 8TH ST ,211A,E,11,1023,36.17,-86.756,"(36.17, -86.756)"
PD201800791125,08/10/2018 10:15:01 AM,20180685479,A,88,Investigate 911 Hang-Up Call,P,PROGRESS,13,FALSE CALL,1500,12TH AV S ,811A,MT,11,6617,36.137,-86.789,"(36.137, -86.789)"
PD201800797927,08/12/2018 03:45:12 PM,20180691017,B,88,Investigate 911 Hang-Up Call,P,PROGRESS,13,FALSE CALL,200,CUMBERLAND BND ,614B,N,11,4401,36.195,-86.79,"(36.195, -86.79)"
PD201800798207,08/12/2018 05:39:18 PM,20180691261,B,88,Investigate 911 Hang-Up Call,PW,REQUEST FOR PUBLIC WORKS,13,FALSE CALL,5100,HARDING PL ,2931,S,23,8847,36.086,-86.678,"(36.086, -86.678)"
PD201800798410,08/12/2018 07:13:07 PM,20180691451,B,88,Investigate 911 Hang-Up Call,PW,REQUEST FOR PUBLIC WORKS,13,FALSE CALL,400,MCCAIN DR ,835B,MT,35,8659,36.06,-86.718,"(36.06, -86.718)"
PD201800798635,08/12/2018 09:04:56 PM,20180691778,B,88,Investigate 911 Hang-Up Call,PW,REQUEST FOR PUBLIC WORKS,13,FALSE CALL,900,GLASTONBURY RD ,531C,H,31,8825,36.134,-86.704,"(36.134, -86.704)"
PD201800799050,08/13/2018 01:02:44 AM,20180691963,C,88,Investigate 911 Hang-Up Call,PW,REQUEST FOR PUBLIC WORKS,13,FALSE CALL,1000,JACKSONS VALLEY RD ,523C,H,23,9559,36.187,-86.604,"(36.187, -86.604)"
PD201800799810,08/13/2018 07:55:11 AM,20180692735,A,88,Investigate 911 Hang-Up Call,P,PROGRESS,13,FALSE CALL,600,S 8TH ST ,215A,E,11,1025,36.168,-86.755,"(36.168, -86.755)"
PD201800799862,08/13/2018 08:08:57 AM,20180692773,A,88,Investigate 911 Hang-Up Call,PW,REQUEST FOR PUBLIC WORKS,13,FALSE CALL,600,S 6TH ST ,215A,E,11,1013,36.167,-86.76,"(36.167, -86.76)"
PD201800800069,08/13/2018 09:16:39 AM,20180692879,A,88,Investigate 911 Hang-Up Call,P,PROGRESS,13,FALSE CALL,500,MAINSTREAM DR ,615A,N,11,4443,36.201,-86.809,"(36.201, -86.809)"
PD201800800931,08/13/2018 02:10:02 PM,20180694179,A,88,Investigate 911 Hang-Up Call,P,PROGRESS,13,FALSE CALL,8300,RILEY ADCOCK RD ,627B,N,27,2313,36.375,-86.884,"(36.375, -86.884)"
PD201800801680,08/13/2018 06:17:20 PM,20180694246,B,88,Investigate 911 Hang-Up Call,P,PROGRESS,13,FALSE CALL,200,CUMBERLAND BND ,614B,N,11,4401,36.195,-86.79,"(36.195, -86.79)"
PD201800801799,08/13/2018 06:56:54 PM,20180694453,B,88,Investigate 911 Hang-Up Call,PW,REQUEST FOR PUBLIC WORKS,13,FALSE CALL,2400,26TH AV N ,620B,N,11,4431,36.19,-86.818,"(36.19, -86.818)"
PD201800801800,08/13/2018 06:57:01 PM,20180694452,B,88,Investigate 911 Hang-Up Call,PW,REQUEST FOR PUBLIC WORKS,13,FALSE CALL,2000,24TH AV N ,620B,N,11,4419,36.183,-86.816,"(36.183, -86.816)"
PD201800801809,08/13/2018 06:58:59 PM,20180694484,B,88,Investigate 911 Hang-Up Call,PW,REQUEST FOR PUBLIC WORKS,13,FALSE CALL,1700,LONGHUNTER LN ,532B,H,35,8935,36.093,-86.642,"(36.093, -86.642)"
PD201800803793,08/14/2018 09:29:45 AM,20180696169,A,88,Investigate 911 Hang-Up Call,P,PROGRESS,13,FALSE CALL,800,CLARK PL ,425A,C,23,4041,36.155,-86.781,"(36.155, -86.781)"
PD201800804404,08/14/2018 01:07:12 PM,20180696703,A,88,Investigate 911 Hang-Up Call,PW,REQUEST FOR PUBLIC WORKS,13,FALSE CALL,2400,MANSKER DR ,727A,M,27,1721,36.306,-86.673,"(36.306, -86.673)"
PD201800804778,08/14/2018 03:10:44 PM,20180697022,B,88,Investigate 911 Hang-Up Call,P,PROGRESS,13,FALSE CALL,600,SHELBY AV ,215B,E,11,1043,36.168,-86.76,"(36.168, -86.76)"
PD201800805520,08/14/2018 06:58:55 PM,20180697617,B,88,Investigate 911 Hang-Up Call,PW,REQUEST FOR PUBLIC WORKS,13,FALSE CALL,7000,SOUTH HAMPTON BLVD ,332B,S,35,8907,36.07,-86.578,"(36.07, -86.578)"
PD201800809179,08/15/2018 06:32:40 PM,20180700902,B,88,Investigate 911 Hang-Up Call,P,PROGRESS,13,FALSE CALL,100,46TH AV N ,2931,W,13,5113,36.142,-86.842,"(36.142, -86.842)"
PD201800809462,08/15/2018 08:00:49 PM,20180701118,B,88,Investigate 911 Hang-Up Call,P,PROGRESS,13,FALSE CALL,300,BERKLEY DR ,714B,M,11,1505,36.245,-86.715,"(36.245, -86.715)"
PD201800812352,08/16/2018 03:33:55 PM,20180703638,B,88,Investigate 911 Hang-Up Call,PW,REQUEST FOR PUBLIC WORKS,13,FALSE CALL,3700,RICHLAND AV ,113B,W,13,5211,36.134,-86.829,"(36.134, -86.829)"
PD201800812522,08/16/2018 04:25:44 PM,20180703763,B,88,Investigate 911 Hang-Up Call,PW,REQUEST FOR PUBLIC WORKS,13,FALSE CALL,300,W TRINITY LN ,623B,N,21,3009,36.207,-86.782,"(36.207, -86.782)"
PD201800812581,08/16/2018 04:40:40 PM,20180703990,B,88,Investigate 911 Hang-Up Call,P,PROGRESS,13,FALSE CALL,400,TULIP GROVE RD ,523B,H,23,9537,36.215,-86.589,"(36.215, -86.589)"
PD201800812651,08/16/2018 04:59:44 PM,20180703894,B,88,Investigate 911 Hang-Up Call,P,PROGRESS,13,FALSE CALL,3800,HILLSBORO PKE ,117B,W,17,6107,36.107,-86.814,"(36.107, -86.814)"
PD201800813852,08/17/2018 12:24:08 AM,20180704959,C,88,Investigate 911 Hang-Up Call,P,PROGRESS,13,FALSE CALL,300,4TH AV N ,411C,C,11,4159,36.166,-86.78,"(36.166, -86.78)"
PD201800814953,08/17/2018 09:38:22 AM,20180706019,A,88,Investigate 911 Hang-Up Call,P,PROGRESS,13,FALSE CALL,2500,MCGAVOCK PKE ,515A,H,15,9213,36.224,-86.699,"(36.224, -86.699)"
PD201800815648,08/17/2018 02:15:48 PM,20180706662,A,88,Investigate 911 Hang-Up Call,P,PROGRESS,13,FALSE CALL,5200,HICKORY HOLLOW PKWY ,334B,S,25,8871,36.052,-86.656,"(36.052, -86.656)"
PD201800816103,08/17/2018 04:52:29 PM,20180706988,B,88,Investigate 911 Hang-Up Call,P,PROGRESS,13,FALSE CALL,600,BAKERTOWN RD ,334B,S,23,8851,36.072,-86.689,"(36.072, -86.689)"
PD201800816250,08/17/2018 05:47:15 PM,20180707044,B,88,Investigate 911 Hang-Up Call,PW,REQUEST FOR PUBLIC WORKS,13,FALSE CALL,3500,DOVE CREEK RD ,332B,S,35,8925,36.073,-86.598,"(36.073, -86.598)"
PD201800817898,08/18/2018 07:21:59 AM,20180708409,A,88,Investigate 911 Hang-Up Call,PW,REQUEST FOR PUBLIC WORKS,13,FALSE CALL,7000,OLD HICKORY BLVD ,625A,N,27,3305,36.267,-86.836,"(36.267, -86.836)"
PD201800818678,08/18/2018 02:28:31 PM,20180709158,A,88,Investigate 911 Hang-Up Call,PW,REQUEST FOR PUBLIC WORKS,13,FALSE CALL,1600,PEARL ST ,615B,N,15,5425,36.163,-86.795,"(36.163, -86.795)"
PD201800821284,08/19/2018 01:28:22 PM,20180711126,A,88,Investigate 911 Hang-Up Call,PW,REQUEST FOR PUBLIC WORKS,13,FALSE CALL,2500,12TH AV S ,823A,MT,23,6949,36.125,-86.789,"(36.125, -86.789)"
PD201800823515,08/20/2018 08:29:39 AM,20180713037,A,88,Investigate 911 Hang-Up Call,PW,REQUEST FOR PUBLIC WORKS,13,FALSE CALL,400,N 8TH ST ,227A,E,27,1999,36.18,-86.761,"(36.18, -86.761)"
PD201800823958,08/20/2018 11:22:35 AM,20180713374,A,88,Investigate 911 Hang-Up Call,P,PROGRESS,13,FALSE CALL,200,4TH AV N ,423A,C,11,4139,36.164,-86.779,"(36.164, -86.779)"
PD201800824156,08/20/2018 12:26:00 PM,20180713536,A,88,Investigate 911 Hang-Up Call,P,PROGRESS,13,FALSE CALL,2900,ARMORY DR ,825A,MT,25,8531,36.102,-86.754,"(36.102, -86.754)"
PD201800824613,08/20/2018 03:16:37 PM,20180713899,B,88,Investigate 911 Hang-Up Call,P,PROGRESS,13,FALSE CALL,4600,HEDGEWOOD DR ,55S28,E,17,1513,36.228,-86.722,"(36.228, -86.722)"
PD201800824893,08/20/2018 04:38:52 PM,20180714207,B,88,Investigate 911 Hang-Up Call,PW,REQUEST FOR PUBLIC WORKS,13,FALSE CALL,100,4TH AV N ,423B,C,21,4107,36.161,-86.777,"(36.161, -86.777)"
PD201800827601,08/21/2018 11:40:10 AM,20180716561,A,88,Investigate 911 Hang-Up Call,P,PROGRESS,13,FALSE CALL,3800,GREEN HILLS VILLAGE DR ,117A,W,17,6109,36.108,-86.817,"(36.108, -86.817)"
PD201800827729,08/21/2018 12:25:01 PM,20180716727,A,88,Investigate 911 Hang-Up Call,PW,REQUEST FOR PUBLIC WORKS,13,FALSE CALL,800,FLINT RIDGE DR ,603,N,27,3223,36.239,-86.814,"(36.239, -86.814)"
PD201800830620,08/22/2018 07:35:38 AM,20180719239,A,88,Investigate 911 Hang-Up Call,PW,,13,FALSE CALL,5500,SCRUGGS LN ,621A,N,21,3007,36.206,-86.782,"(36.206, -86.782)"
PD201800831142,08/22/2018 10:32:19 AM,20180719764,A,88,Investigate 911 Hang-Up Call,P,,13,FALSE CALL,3700,STEWARTS LN ,621A,N,25,3133,36.19,-86.859,"(36.19, -86.859)"
PD201800834771,08/23/2018 08:39:45 AM,20180722980,A,88,Investigate 911 Hang-Up Call,PW,REQUEST FOR PUBLIC WORKS,13,FALSE CALL,3200,WOODSTOCK DR ,727A,M,21,2033,36.245,-86.775,"(36.245, -86.775)"
